Venue,Category,Latitude,Longitude,Neighborhood,ZIP
Individual Empire,Music Venue,40.875891,-73.831973,Coop City,10475
Jason's Bar,Night Club,40.876939,-73.833237,Coop City,10475
Bowlerland,Bowling Alley,40.886062,-73.823054,Coop City,10475
Planet Venus Gentlemen's Club,Night Club,40.886777,-73.826802,Coop City,10466
Jr's Cabaret,Night Club,40.889006,-73.828371,,10466
Uptown Coffeehouse,Music Venue,40.892426,-73.904977,Fieldston,10471
Van Cortlandt House Museum,History Museum,40.893462,-73.906681,Fieldston,10471
Bugatti Music Group,Music Venue,40.88653,-73.911326,Kingsbridge,10463
T and Y Wine and Spirits,Night Club,40.884554,-73.902185,Kings Bridge,10463
Unity Cafe,Arts and Entertainment,40.880796,-73.907432,Kings Bridge,10463
Coyote Statue,Public Art,40.885062,-73.899314,Kings Bridge,10463
Liffy Bar,Arts and Entertainment,40.881115,-73.903502,Kings Bridge,10463
231st Bingo,Bingo Center,40.87899,-73.904167,Kings Bridge,10463
Sonia La Psiquica,Psychics and Astrologers,40.878381,-73.906771,Kings Bridge,10463
Bronx Psychic & Tarot Card Reader,Psychics and Astrologers,40.875138,-73.909566,Marble Hill,10463
Sonia La Psiquica,Psychics and Astrologers,40.878381,-73.906771,Kings Bridge,10463
The Avenue,Arts and Entertainment,40.900484,-73.867469,Lincoln,10470
Museum of Bronx History,History Museum,40.87817,-73.879743,Norwood,10467
Bronx County Historical Society,History Museum,40.87817,-73.879743,Norwood,10467
Local Celebrity Theatre,Music Venue,40.865558,-73.840926,Baychester,10469
City Island Nautical Museum,Museum,40.847334,-73.78443,City Island,10464
Starving Artist Studio & Gallery Dbe,Concert Hall,40.845419,-73.78598,City Island,10464
Focal Point Gallery,Art Gallery,40.847651,-73.786847,City Island,10464
Mary Colby Studio & Gallery,Art Gallery,40.84638,-73.78584,City Island,10464
Scavello's City Island,Movie Theater,40.849307,-73.787562,City Island,10464
Mastro Vending,Amusement Park,40.850122,-73.787372,City Island,10464
Breeze Team Entertainment,Music Venue,40.870811,-73.884288,Belmont,10458
TequilaSong Webster,Arts and Entertainment,40.866529,-73.884273,Belmont,10458
Lehman College Baseball Field,Stadium,40.87185,-73.890018,Belmont,10468
Caminito Sports Bar,Pool Hall,40.866389,-73.886006,Belmont,10458
Bronx Opera Company,Opera House,40.871503,-73.890881,Fordham,10468
Hall of Fame for Great Americans,History Museum,40.858678,-73.914305,Inwood,10453
Uva Wine & Liquors,Arts and Entertainment,40.856804,-73.905436,University Heights,10453
Hall of Fame for Great Americans,Museum,40.856418,-73.907786,Morris Heights,10453
Fred Dolan Art Academy,Art Gallery,40.851464,-73.911276,,10453
"Rossie Minnie Alvarado, PT",Stadium,40.846024,-73.921255,Morris Heights,10452
Mensajera De La Paz,Psychics and Astrologers,40.850557,-73.914962,Morris Heights,10453
Martha Graham Center Of Contemporary Dance,Music Venue,40.843488,-73.918765,Highbridge,10452
Paradise Theater,Concert Hall,40.860547,-73.89866,Fordham,10468
Yamulee Dance Company,Salsa Club,40.861259,-73.898293,Fordham,10468
Indian Spiritual Center,Psychics and Astrologers,40.862509,-73.895975,Fordham,10458
Utopia Paradis Theatre,Music Venue,40.86044,-73.898656,Fordham,10468
Indian Psychic Readings,Psychics and Astrologers,40.86215,-73.89316,Belmont,10458
Psychic reader,Psychics and Astrologers,40.861424,-73.891995,Belmont,10458
Shades of Color Nyc,Night Club,40.865113,-73.895547,Fordham,10468
Los Reyes,Art Gallery,40.841807,-73.886101,,10460
Spiritual Gangster,Psychics and Astrologers,40.844454,-73.881954,Bronx Park South,10460
Luxury Box,Strip Club,40.838998,-73.877858,West Farms,10460
Bronx River Art Center,Art Gallery,40.841684,-73.878395,West Farms,10460
"Apryl Cadabra: NYC Clowns, Face Painting and Comedy Magic",Arts and Entertainment,40.83541,-73.92496,Concourse,10452
Rayma Gallery,Art Gallery,40.834147,-73.9248,Concourse,10452
Old Bronx Courthouse,Art Gallery,40.822872,-73.910025,Melrose,10451
Union Rincoena Social Club,Arts and Entertainment,40.822279,-73.907903,Melrose,10456
SummerStage - St Mary's Park,Performing Arts Venue,40.810583,-73.915292,Mott Haven,10455
Rumba,Night Club,40.804531,-73.913446,Mill Brook Houses,10454
The Living Room II,Night Club,40.803878,-73.919762,Mill Brook Houses,10454
Lacquer Room Nail Spa/ Art Gallery,Art Gallery,40.80367,-73.919491,Mill Brook Houses,10454
Pier 132,Arts and Entertainment,40.800368,-73.913683,Mill Brook Houses,10454
The Draper Space: Art Gallery,Art Gallery,40.801534,-73.910404,Port Morris,10454
Rumba,Night Club,40.804531,-73.913446,Mill Brook Houses,10454
Studio Galas,Arts and Entertainment,40.801809,-73.910196,Port Morris,10454
Uptown Rec Room,Arts and Entertainment,40.80138,-73.910092,Port Morris,10454
Platinum Pleasures,Night Club,40.816065,-73.893675,John Adams Houses,10474
Iridescent Learning,Science Museum,40.817162,-73.89096,Hunt's Point,10474
Botanica San Miguel Y Las 21 Divisiones Almacen,Psychics and Astrologers,40.817293,-73.898313,John Adams Houses,10459
More Points BX,Art Gallery,40.811301,-73.885888,Hunt's Point,10474
Club W,Strip Club,40.813441,-73.885,Hunt's Point,10474
Big Pun Memorial Mural,Arts and Entertainment,40.821198,-73.897671,Lewis S Davidson Senior Houses,10459
Gramsci Monument,Public Art,40.823159,-73.903212,,10456
NYC Public Wifi Hotspot,Internet Cafe,40.822068,-73.897441,Lewis S Davidson Senior Houses,10459
City Of N Y - Community Center,Arts and Entertainment,40.823075,-73.865067,Soundview,10473
GMC Entertainment,Arts and Entertainment,40.817029,-73.867076,Soundview,10473
Stadium Cinemas,Movie Theater,40.84216,-73.820172,Schuvilerville,10465
Parkchester Terracotta Statue,Public Art,40.839062,-73.856639,Parkchester,10462
FancyFace Photobooth,Arts and Entertainment,40.839921,-73.856846,Parkchester,10462
Nollywood African Movies,Movie Theater,40.836803,-73.852094,Parkchester,10462
BAAD! Bronx Academy of Arts and Dance,Concert Hall,40.838294,-73.844535,Westchester,10461
Side Street Catering,Arts and Entertainment,40.841716,-73.841684,Westchester,10461
Baad,Indie Theater,40.838184,-73.844619,Unionport,10461
La Santísima Botanica,Psychics and Astrologers,40.839719,-73.837455,Schuylerville,10461
Julesruby Lounge,Music Venue,40.839797,-73.842796,Unionport,10461
Club,Arts and Entertainment,40.841769,-73.841729,Westchester,10461
Glory Psychic Spiritual Advisor,Psychics and Astrologers,40.843364,-73.844806,Westchester,10461
Westchester Square Art Center,Art Gallery,40.842989,-73.846806,Westchester,10461
The Williamsbridge Tavern,Arts and Entertainment,40.846307,-73.847976,Westchester,10461
Bronx Council On The Arts,Museum,40.848363,-73.854134,Pelham Parkway,10461
Italian American Museum,Museum,40.85145,-73.849651,Pelham Parkway,10461
Mugzs Sports Bar,Arts and Entertainment,40.857207,-73.885928,Belmont,10458
"Fordham Museum of Greek, Etruscan and Roman Art",Art Museum,40.860953,-73.889351,Belmont,10458
Jack Coffey Field,Stadium,40.860903,-73.889217,Belmont,10458
Essen,Stadium,40.856624,-73.886894,Belmont,10458
Jim Houlihan Park,Stadium,40.860903,-73.889217,Belmont,10458
Collins Auditorium,Movie Theater,40.861272,-73.889538,Belmont,10458
Albert The Clown,Arts and Entertainment,40.878953,-73.917917,Marble Hill,10463
Riverdale Children's Theatre,Music Venue,40.88364,-73.914371,Marble Hill,10463
Elisa Contemporary Art,Art Gallery,40.904441,-73.902317,Fieldston,10471
Performance Court,Stadium,40.910721,-73.903998,Fildston,10471
Judaica Museum,Art Museum,40.909025,-73.908887,Fildston,10471
Psychic Readings By Lauren,Psychics and Astrologers,40.846615,-73.831796,Westchester,10461
Bronx Zoo Rama,Zoo,40.828424,-73.825106,Throgs Neck,10465
Graffiti Universe,Art Gallery,40.868998,-73.858388,Pelham Parkway,10469
NiteLine TV,Music Venue,40.87243,-73.86733,Ollinville,10467
Local Celebrity Theatre,Music Venue,40.865558,-73.840926,Baychester,10469
The Garza,Music Venue,40.832782,-73.915123,Concourse,10456
Life and Times of Alvin Baltrop,Exhibit,40.831147,-73.919787,Concourse,10456
Black Don Entertainment,Night Club,40.836093,-73.914519,Concourse,10456
Con Sazon,Arts and Entertainment,40.831426,-73.851199,Parkchester,10462
D-Lounge,Comedy Club,40.832872,-73.851645,Parkchester,10462
Status Billiards,Pool Hall,40.626053,-74.03024,Bayridge,11209
Polizzi Fine Art,Art Gallery,40.6289,-74.028612,Bayridge,11209
Psychic Readings By Vienna,Psychics and Astrologers,40.625563,-74.030438,Bayridge,11209
Miss Ruth Psychic,Psychics and Astrologers,40.623643,-74.027791,Bayridge,11209
Park Avenue Christian Church New York,Museum,40.62536,-74.035876,Bayridge,11209
Psychic Professional Patrova,Psychics and Astrologers,40.621655,-74.029541,Bayridge,11209
Brooklyn Musical Arts,Art Gallery,40.614571,-73.995068,Bensonhurst,11204
Russian Events,Ticket Seller,40.610823,-73.99823,New Utrecht,11214
Psychic Readings by Tina,Psychics and Astrologers,40.614956,-73.994778,Bensonhurst,11204
New York Highly Rated Tours,Museum,40.645074,-74.010563,Sunset Park,11220
Psety,Art Gallery,40.648221,-74.01117,Sunset Park,11220
Brouwerij Lane,Night Club,40.729742,-73.957869,Greenpoint,11222
Oak & Iron,Arts and Entertainment,40.731572,-73.958027,Greenpoint,11222
Triskelion Arts,Music Venue,40.72692,-73.956494,Greenpoint,11222
Good Room,Night Club,40.726855,-73.952868,Greenpoint,11222
Faurschou,Art Museum,40.733905,-73.955497,Greenpoint,11222
Brooklyn Bazaar,Music Venue,40.729989,-73.954691,Greenpoint,11222
Komnata Quest NYC Escape Room,Arts and Entertainment,40.728517,-73.959306,Greenpoint,11222
Kaskade,Music Venue,40.730303,-73.955053,Greenpoint,11222
Kehinde Wiley Studio,Art Gallery,40.732165,-73.953989,Greenpoint,11222
Yes Gallery,Art Gallery,40.732537,-73.954222,Greenpoint,11222
Heliopolis,Art Gallery,40.732719,-73.955451,Greenpoint,11222
Owen James Gallery,Art Gallery,40.730001,-73.958272,Greenpoint,11222
Les Nuits de Montreal,Arts and Entertainment,40.729946,-73.958313,Greenpoint,11222
Cleopatra's,Art Gallery,40.727298,-73.952448,Greenpoint,11222
Imperial Saturdays,Night Club,40.726855,-73.952868,Greenpoint,11222
Multitude,Indie Theater,40.729929,-73.958924,Greenpoint,11222
The Java Project,Art Gallery,40.731681,-73.94991,Greenpoint,11222
Yashar Gallery,Art Gallery,40.73039,-73.949773,Greenpoint,11222
Human NYC,Art Gallery,40.727037,-73.952133,Greenpoint,11222
Film Noir Cinema,Movie Theater,40.727271,-73.951443,Greenpoint,11222
SittinOnMusic Studios,Performing Arts Venue,40.729982,-73.958969,Greenpoint,11222
Irl,Music Venue,40.727261,-73.957194,Greenpoint,11222
The G-Spot,Art Gallery,40.734014,-73.953449,Greenpoint,11222
Calico Brooklyn,Art Gallery,40.728732,-73.959314,Greenpoint,11222
Arete Venue And Gallery,Performing Arts Venue,40.728787,-73.959273,Greenpoint,11222
Stuart Cinema & Cafe,Indie Movie Theater,40.729214,-73.959464,Greenpoint,11222
Greenpoint Terminal Gallery,Art Gallery,40.728732,-73.959314,Greenpoint,11222
Triple Canopy,Art Gallery,40.734554,-73.955435,Greenpoint,11222
The End,Arts and Entertainment,40.730004,-73.960149,Greenpoint,11222
Broadway Stages - Stage 8,Performing Arts Venue,40.729393,-73.948731,Greenpoint,11222
New Animal Productions,Arts and Entertainment,40.730065,-73.953865,Greenpoint,11222
Sunshine Laundromat,Arcade,40.72926,-73.953703,Greenpoint,11222
Sunshine Laundry,Arcade,40.729271,-73.953698,Greenpoint,11222
Gia Forakis & Company,Arts and Entertainment,40.731897,-73.953935,Greenpoint,11222
Tournament,Music Venue,40.732325,-73.956091,Greenpoint,11222
Superchief Gallery,Art Gallery,40.72957,-73.958255,Greenpoint,11222
Klub Europa Of Brooklyn,Night Club,40.726855,-73.952868,Greenpoint,11222
Nostudio,Art Museum,40.726833,-73.955705,Greenpoint,11222
Worldpitch,Music Venue,40.72867,-73.959617,Greenpoint,11222
Liberty Health Sciences,Museum,40.596448,-73.974198,Gravesend,11223
Gina Psychic,Psychics and Astrologers,40.596528,-73.975246,Gravesend,11223
Georgian House,Music Venue,40.576494,-73.967417,Brighton Beach,11235
Club Boardwalk Pool Hall,Pool Hall,40.577281,-73.96018,Brighton Beach,11235
Boardwalk Billiards,Amusement Park,40.577718,-73.959935,Brighton Beach,11235
Broadway Billiards,Pool Hall,40.577448,-73.959969,Brighton Beach,11235
Art & AR Ts Gallery,Art Gallery,40.576943,-73.966738,Brighton Beach,11235
Stars Studio of Performing Arts,Music Venue,40.576833,-73.96682,Brighton Beach,11235
The Studio Fine Art Gallery,Art Gallery,40.577134,-73.961654,Brighton Beach,11235
Brighton Beach New York City,Arts and Entertainment,40.575193,-73.961753,Brighton Beach,11224
Exotic paintings,Art Gallery,40.579462,-73.96714,Brighton Beach,11235
Alexander Davidov,Psychics and Astrologers,40.576645,-73.959807,Brighton Beach,11235
AAA Billiards,Pool Hall,40.577666,-73.95989,Brighton Beach,11235
Club Boardwalk Pool Hall,Movie Theater,40.577776,-73.959807,Brighton Beach,11235
Newdar,Psychics and Astrologers,40.58087,-73.966846,Brighton Beach,11235
Penthouse Lounge Bar,Comedy Club,40.584049,-73.946731,Manhattan Beach,11235
Psychic Reading Spiritual Healer,Psychics and Astrologers,40.587251,-73.941761,Manhattan Beach,11235
Sheepshead Bay,Museum,40.583355,-73.942483,Manhattan Beach,11235
Kastattoo,Art Gallery,40.588805,-73.948089,Sheepshead Bay,11235
Tech Artistic,Arts and Entertainment,40.61523,-73.958771,Manhattan Terrace,11230
Vince Giordano & the Nighthawks,Music Venue,40.617209,-73.961286,Midwood,11230
Alaiyo Bradshaw's Gallery,Art Gallery,40.636682,-73.960339,Ditmas Park West,11226
Jewish Children's Museum,Art Museum,40.668911,-73.942094,Crown Hights,11213
Brooklyn Children's Museum,History Museum,40.674572,-73.944055,Crown Heights,11213
Kingston Ave Shopping District,Arts and Entertainment,40.669009,-73.942447,Crown Heights,11213
Leviim Judaica Jewish Art Gallery,Art Gallery,40.670497,-73.941871,Crown Hights,11213
Council of American Jewish Museums,Museum,40.671997,-73.943608,Crown Heights,11213
Mikhoel's Piano Studio,Arts and Entertainment,40.66906,-73.94283,Crown Heights,11213
Muchnik Arts,Arts and Entertainment,40.666542,-73.942004,Crown Heights South,11213
Freaks Mas,Carnival,40.642026,-73.93379,East Flatbush,11203
Pantonic Steel Orchestra,Music Venue,40.638,-73.939301,,11210
Tiferes Mordechai,Music Venue,40.639404,-73.979268,Kensington,11218
BADYHouseStorytellingConcert,Concert Hall,40.643544,-73.98357,Kensington,11218
The Red Zone,Arts and Entertainment,40.65547,-73.976975,Windsor Teraace,11218
McCrackHouse,Arcade,40.656719,-73.976631,Windsor Teraace,11215
Ps 154k Museum Alliance For Science And Technology Magnet School,Museum,40.657219,-73.976084,Windsor Teraace,11218
Skuflix,Zoo,40.659682,-73.982675,Park Slope,11215
Blew Smoke,Arts and Entertainment,40.68002,-73.96402,Adelphi,11238
Art Cafe + Bar,Jazz and Blues Venue,40.680169,-73.964505,Adelphi,11238
Murmrr Theatre,Music Venue,40.673336,-73.968034,Park Slope,11238
Action Pals Studio,Performing Arts Venue,40.678472,-73.967492,Adelphi,11238
Underhill Walls,Public Art,40.674558,-73.966686,Park Slope,11238
Pequeno Puerto Rico,Arts and Entertainment,40.675501,-73.961708,Crown Heights,11238
Microsessions Nyc,Music Venue,40.678623,-73.96789,Adelphi,11238
315-329 Lincoln Place,Amusement Park,40.673409,-73.965334,Prospect Heights,11238
Complete Music Studios,Music Venue,40.678559,-73.968081,Adelphi,11238
SEEDS::Brooklyn,Music Venue,40.678939,-73.968164,Adelphi,11238
Barataria Gallery,Art Gallery,40.68111,-73.965588,Adelphi,11238
Warehouse 623,Art Gallery,40.679827,-73.969202,Adelphi,11238
A Studio Experience,Arts and Entertainment,40.676703,-73.962568,Prospect Heights,11238
Attic Theater Co.,Music Venue,40.676164,-73.967097,Prospect Heights,11238
Domestic Fair Trade Association,Carnival,40.676641,-73.967421,Prospect Heights,11238
Bass Lessons With Jake Leckie,Music Venue,40.675056,-73.966226,Prospect Heights,
Soca Flash,Arts and Entertainment,40.679649,-73.967799,Adelphi,11238
Duff's,Night Club,40.708761,-73.957888,South Side,11211
Masquerade,Night Club,40.7078,-73.955719,South Side,11211
Propstar,Theater,40.707469,-73.955788,South Side,11211
Soloway,Art Gallery,40.708433,-73.954036,South Side,11211
Brooklyn Social Scene,Performing Arts Venue,40.709089,-73.961741,South Side,11211
300 Hewes,Night Club,40.706239,-73.953384,South Side,11211
Black Diamond Gallery,Art Gallery,40.70786,-73.953272,South Side,11211
Nyosm2,Night Club,40.70685,-73.952753,South Side,11211
Ironbound Radio,Arts and Entertainment,40.71117,-73.958549,South Side,11211
Dystopia Filter,Art Gallery,40.706263,-73.952512,South Side,11211
The Annex,Public Art,40.711078,-73.959985,South Side,11211
Paint Nite,Arts and Entertainment,40.711422,-73.959213,South Side,11211
Spiritual Healing,Psychics and Astrologers,40.710538,-73.958001,South Side,11211
Sanguine Theatre Company,Arts and Entertainment,40.709618,-73.962111,South Side,11211
Bossa Nova Civic Club,Night Club,40.69791,-73.928065,Bushwick,11221
Low Brow Artique,Art Gallery,40.69965,-73.92752,Bushwick,11221
Flow Juggle,Circus,40.698596,-73.924557,Bushwick,11221
Casa Maya,Arts and Entertainment,40.697772,-73.926778,Bushwick,11221
Space 776,Art Gallery,40.697334,-73.923375,Bushwick,11221
Fisher Parrish Gallery,Art Gallery,40.697825,-73.921125,Bushwick,11237
The Parlour Bushwick,Art Gallery,40.695473,-73.928452,Bushwick,11221
Castlebraid Rooftop,Music Venue,40.699764,-73.929313,Bushwick,11206
Peephole Cinema,Public Art,40.701761,-73.927207,Bushwick,11237
The Jeffersonian,Art Gallery,40.700231,-73.929985,Bushwick,11206
Otion Front,Art Gallery,40.697348,-73.930966,Bushwick,11206
Jah Rock'n Productions,Music Venue,40.701756,-73.927382,Bushwick,11237
National Brighton Beach,Arts and Entertainment,40.694043,-73.927482,Bushwick,11221
Wet Cash NYC,Comedy Club,40.698637,-73.925038,Bushwick,11221
Central Arts and Recording,Arts and Entertainment,40.696368,-73.927265,Bushwick,11221
Alice Sparkly Kat Astrology,Psychics and Astrologers,40.696917,-73.9289,Bushwick,11221
Little Hippie,Arts and Entertainment,40.697889,-73.9309,Bushwick,11221
Bomba Party,Arts and Entertainment,40.6964,-73.9198,Bushwick,11221
Euridice Gallery,Art Gallery,40.688138,-73.938686,Bedford,11221
Famous Faces Mural,Public Art,40.689828,-73.942022,Bedford,11206
Welancora Gallery,Art Gallery,40.684131,-73.941368,Bedford,11221
Fou Gallery,Art Gallery,40.684124,-73.941629,Bedford,11221
Three's Company,Public Art,40.685645,-73.937151,Bedford,11221
The Luminal Theater,Indie Movie Theater,40.683635,-73.943791,Bedford,11216
Brooklyn Stuy Dome,Stadium,40.69155,-73.942175,Bedford,11221
Vidas Brooklyn,Music Venue,40.691345,-73.943781,Bedford,11221
Brooklyn Historical Society,History Museum,40.694833,-73.99247,Brooklyn Heights,11201
Jubilee Gallery,Art Gallery,40.697083,-73.992995,Brooklyn Heights,11201
Studio 24,Art Gallery,40.69619,-73.992131,Brooklyn Heights,11201
Brooklyn Symphony Orchestra,Performing Arts Venue,40.694661,-73.992856,Brooklyn Heights,11201
Area Kids,Amusement Park,40.694381,-73.993238,Brooklyn Heights,11201
Asia Art Archive In Amer,Art Gallery,40.694875,-73.996878,Brooklyn Heights,11201
VGA Headquarters,Gaming Cafe,40.695976,-73.988109,Brooklyn Heights,11201
Willoughby Windows,Art Gallery,40.695557,-73.989619,Brooklyn Heights,11201
Mansion House,Museum,40.697089,-73.994784,Brooklyn Heights,11201
Rotunda Gallery,Art Gallery,40.695338,-73.991749,Brooklyn Heights,11201
Daphne Art Gallery,Art Gallery,40.694333,-73.993018,Brooklyn Heights,11201
Heights Casino,Casino,40.69738,-73.992003,Brooklyn Heights,11201
Theater 2020,Movie Theater,40.695691,-73.996605,Brooklyn Heights,11201
Snippo Entertainment,Arts and Entertainment,40.694215,-73.991399,Brooklyn Heights,11201
Impress Art Inc.,Art Gallery,40.698022,-73.992203,Brooklyn Heights,11201
National Theatre Conference,Music Venue,40.695785,-73.997132,Brooklyn Heights,11201
The Brooklyn Psychic,Psychics and Astrologers,40.693552,-73.991984,Boerum Hill,11201
The Brooklyn Psychic & Astrology Readings,Psychics and Astrologers,40.693559,-73.991722,Boerum Hill,11201
Personal Space Theatrics,Music Venue,40.695981,-73.989898,Brooklyn Heights,11201
Generoso Pope Athletic Complex,Stadium,40.693135,-73.991444,Boerum Hill,11201
Cobble Hill Cinemas,Indie Movie Theater,40.684914,-73.994392,Boerum Hill,11231
Picture Room,Art Gallery,40.691004,-73.996464,Brooklyn Heights,11201
Jungle Room East,Night Club,40.684702,-73.996259,Cobble Hill,11231
Treasure Trunk Theatre,Arts and Entertainment,40.690659,-73.995273,Brooklyn Heights,11201
Vertical Player Repertory,Music Venue,40.686496,-73.993713,Boerum Hill,11201
The Toy Museum Of NY,Museum,40.685132,-74.002252,Carroll Gardens,11231
Broken Box Mime Theater,Arts and Entertainment,40.690333,-73.9962,Brooklyn Heights,11201
Michael Hafftka,Art Gallery,40.690029,-73.994637,Brooklyn Heights,11201
Colpo's Corner Deli & Beer Grocer Too,Music Venue,40.691214,-73.994684,Brooklyn Heights,11201
The Brooklyn Strategist,Gaming Cafe,40.682835,-73.995532,BoCoCa,11231
Bar Bête,Music Venue,40.68291,-73.992743,BoCoCa,11231
Cobble Hill Cinemas,Indie Movie Theater,40.684914,-73.994392,Boerum Hill,11231
Court Street Gallery,Art Gallery,40.680597,-73.996534,BoCoCa,11201
The Coal Shop Gallery,Art Gallery,40.679636,-73.992222,Carroll Gardens,11231
Brooklyn Workshop Gallery,Art Gallery,40.677987,-73.993378,Carroll Gardens,11231
Pixelsguy's Checkpoint,Arcade,40.677381,-73.997846,Gowanus,11231
Company XIV,Indie Theater,40.680042,-73.989185,Gowanus,11231
Bond Street Gallery,Arts and Entertainment,40.680042,-73.989185,Gowanus,11231
Jungle Room East,Night Club,40.684702,-73.996259,Cobble Hill,11231
The Green Union,Arts and Entertainment,40.679664,-73.989214,Gowanus,11231
Show Room Gowanus,Art Gallery,40.679664,-73.989214,Gowanus,11231
The Sabian Assembly,Psychics and Astrologers,40.680888,-73.993754,BoCoCa,11231
Steven S Powers,Arts and Entertainment,40.681952,-73.996282,BoCoCa,11231
"Handmade, The Handmade Project",Art Gallery,40.677987,-73.993378,Carroll Gardens,11231
Clayhouse Brooklyn,Art Gallery,40.683901,-73.991997,BoCoCa,11231
104 South 4th,Night Club,40.676657,-73.992759,Gowanus,11249
Issue Project Room,Arts and Entertainment,40.678139,-73.989765,Carroll Gardens,11231
Pioneer Works,Music Venue,40.67926,-74.011964,Red Hook,11231
Red Hook Labs,Art Gallery,40.680105,-74.010646,Red Hook,11231
Hot Wood Arts,Art Gallery,40.674075,-74.016293,Red Hook,11231
Kentler International Drawing Space,Art Gallery,40.677075,-74.013011,Red Hook,11231
Waterfront Museum,History Museum,40.675176,-74.017427,Red Hook,11231
Brooklyn Waterfront Artists Coalition,Art Gallery,40.673572,-74.016928,Red Hook,11231
Golden Anvil Sculptures,Art Gallery,40.676745,-74.01326,Red Hook,11231
Gallery Brooklyn,Art Gallery,40.676973,-74.012833,Red Hook,11231
Kustera Projects Red Hook,Art Gallery,40.676355,-74.011761,Red Hook,11231
MVS Studio,Arts and Entertainment,40.677061,-74.013534,Red Hook,11231
Manos de Mexicanos,Art Gallery,40.677557,-74.017086,Red Hook,11231
Peninsula Art Space,Art Gallery,40.678038,-74.012353,Red Hook,11231
Robotic Church,Arts and Entertainment,40.67854,-74.010714,Red Hook,11231
Dustin Yellin,Art Gallery,40.679143,-74.012308,Red Hook,11231
Miniature Golf at Reed Park,Mini Golf Course,40.675415,-74.016565,Red Hook,11231
Clocktower Gallery & Radio,Art Gallery,40.679263,-74.011877,Red Hook,11231
Frank Perry Productions Music Publishing,Arts and Entertainment,40.6759,-74.008691,Red Hook,11231
Brooklyn Historic Railway Association,Museum,40.673417,-74.016703,Red Hook,11231
Studio Bosco Sodi,Arts and Entertainment,40.67352,-74.016882,Red Hook,11231
Art & Anvil,Art Gallery,40.673467,-74.016836,Red Hook,11231
PortSide NewYork,Arts and Entertainment,40.680589,-74.012704,Red Hook,11231
The Bell House,Rock Club,40.673667,-73.991682,Gowanus,11215
Brooklyn Art Space,Art Gallery,40.673037,-73.991047,Gowanus,11215
Gowanus Ballroom,Arts and Entertainment,40.673936,-73.995661,Gowanus,11215
Gowanus Loft,Art Gallery,40.673733,-73.995217,Gowanus,11215
3rd Floor Studios,Art Gallery,40.672675,-73.994478,Gowanus,11215
Art Studio 75 10th St,Art Gallery,40.67251,-73.994602,Gowanus,11215
Secret Science Club,Arts and Entertainment,40.67377,-73.991861,Gowanus,11215
Site:Brooklyn,Arts and Entertainment,40.673408,-73.99128,Gowanus,11215
Onsite,Art Gallery,40.673566,-73.991417,Gowanus,11215
Gowanus Studio Space,Art Gallery,40.673083,-73.991354,Gowanus,11215
Trestle Gallery,Art Gallery,40.672875,-73.991084,Gowanus,11215
IBeam Brooklyn,Concert Hall,40.672982,-73.991088,Gowanus,11215
Refuge Recording,Music Venue,40.674078,-73.99837,Gowanus,11231
Super Secret Arts,Music Venue,40.67358,-73.98958,Gowanus,11215
On The Line - Digital Plus Studio,Art Gallery,40.672759,-73.989379,Gowanus,11215
Brooklyn Workshop Gallery,Art Gallery,40.677987,-73.993378,Carroll Gardens,11231
Pixelsguy's Checkpoint,Arcade,40.677381,-73.997846,Gowanus,11231
One77,Movie Theater,40.669576,-73.995446,Gowanus,11215
Drew Conrad Art Studio,Art Gallery,40.672469,-73.994121,Gowanus,11215
The Rub,Night Club,40.673717,-73.991815,Gowanus,11215
I-Beam Music Studio,Concert Hall,40.672662,-73.990989,Gowanus,11215
104 South 4th,Night Club,40.676657,-73.992759,Gowanus,11249
Ultraviolet,Night Club,40.672862,-73.990068,Gowanus,11215
Artwork By Allyn,Art Gallery,40.675464,-73.998948,Gowanus,11231
"Handmade, The Handmade Project",Art Gallery,40.677987,-73.993378,Carroll Gardens,11231
Quantum Brooklyn,Arts and Entertainment,40.669601,-73.995499,Gowanus,11215
The Vangeline Theater,Movie Theater,40.677089,-73.998664,Gowanus,11231
BAM Rose Cinemas,Indie Movie Theater,40.686607,-73.977665,Fort Greene,11217
Brooklyn Academy of Music,Music Venue,40.686607,-73.977665,Fort Greene,11217
BAM Harvey Theater,Music Venue,40.688302,-73.978778,Down Town,11217
Bam Howard Gilman Opera House,Music Venue,40.686605,-73.977753,Fort Greene,11217
South Oxford Space,Performing Arts Venue,40.685212,-73.973424,Fort Greene,11217
BAM DanceAfrica Bazaar,Arts and Entertainment,40.687033,-73.977857,Fort Greene,11217
Mocada,Art Museum,40.685294,-73.974387,Fort Greene,11217
Tacombi Fort Greene,Music Venue,40.687084,-73.977989,Downtown Brooklyn,11217
Irondale Center,Concert Hall,40.68683,-73.973399,Clinton Hill,11217
Biggie Smalls Mural,Public Art,40.686053,-73.974242,Fort Greene,11217
Paul Robeson Theatre,Concert Hall,40.685989,-73.970619,Adelphi,11238
Sonya,Art Gallery,40.688898,-73.968682,Clinton Hill,11205
Urban Bush Woman,Performing Arts Venue,40.685104,-73.97342,Fort Greene,11217
Museum of Contemporary African Diasporan Arts,Art Museum,40.685292,-73.974474,Fort Greene,11217
Civilians,Music Venue,40.685212,-73.973424,Fort Greene,11217
Modern-Day Griot Theatre Company,Music Venue,40.685047,-73.973548,Fort Greene,11217
Art-NewYork.org,Indie Theater,40.685159,-73.973378,Fort Greene,11217
Alliance of Residence Theatre,Concert Hall,40.684997,-73.973415,Fort Greene,11217
Map of Many Moments,Public Art,40.691286,-73.976103,Clinton Hill,11205
Abra Cadaver,Indie Theater,40.688608,-73.967449,Clinton Hill,11205
Bam,Theater,40.686502,-73.977574,Fort Greene,11217
DanceAfrica Performance,Performing Arts Venue,40.686502,-73.977574,Fort Greene,11217
African Art,Art Gallery,40.690095,-73.978281,Clinton Hill,11217
Irondale Ensemble Project,Arts and Entertainment,40.686832,-73.973312,Clinton Hill,11217
Wine & Design,Arts and Entertainment,40.689332,-73.970574,Adelphi,11205
New Jersey Performing Arts Center,Music Venue,40.685265,-73.973469,Fort Greene,11217
Encompass Theater Company,Opera House,40.68521,-73.973511,Fort Greene,11217
Hill Center,Stadium,40.690813,-73.969628,Clinton Hill,11205
New York City Players,Concert Hall,40.685159,-73.973378,Fort Greene,11217
Ripe Time,Music Venue,40.685159,-73.973378,Fort Greene,11217
Beth Morrison Projects,Music Venue,40.685142,-73.973554,Fort Greene,11217
Page 73 Productions,Theater,40.685239,-73.974428,Fort Greene,11217
New York Deaf Theatre,Music Venue,40.685049,-73.973461,Fort Greene,11217
American Theatre Of Harlem,Music Venue,40.685047,-73.973548,Fort Greene,11217
Encompass New Opera Theatre,Music Venue,40.685047,-73.973548,Fort Greene,11217
American Opera Projects,Music Venue,40.685047,-73.973548,Fort Greene,11217
The Theatre of The Emerging American Moment,Music Venue,40.684997,-73.973415,Fort Greene,11217
Target Margin Theatre,Music Venue,40.684997,-73.973415,Fort Greene,11217
Caribbean Cultural Theatre,Music Venue,40.684997,-73.973415,Fort Greene,11217
Semele Brooklyn,Opera House,40.686552,-73.977707,Fort Greene,11217
Fas Arts Management,Arts and Entertainment,40.688273,-73.978587,Down Town,11217
Theatre for a New Audience,Music Venue,40.6875,-73.978529,Downtown Brooklyn,11217
Union Hall,Music Venue,40.676084,-73.980046,Fort Greene,11215
The Rub,Arts and Entertainment,40.672565,-73.976638,Park Slope,11215
Taro's Origami Studio,Art Gallery,40.674161,-73.975436,Park Slope,11215
Myss Tic Rooms anmeldelser,Escape Room,40.674573,-73.97615,Park Slope,11215
Metropolitan Wargamers,Arts and Entertainment,40.668481,-73.97818,Park Slope,11215
Wasabassco Burlesque,Arts and Entertainment,40.675919,-73.980171,Park Slope,11215
Prophecies Gallery,Art Gallery,40.675855,-73.98056,Park Slope,11215
Manhattan Psychic,Psychics and Astrologers,40.672565,-73.976638,Park Slope,11215
Susie's Supper Club,Night Club,40.67328,-73.976099,Park Slope,11215
Tin Rage Productions,Music Venue,40.67323,-73.975967,Park Slope,11215
Puppetworks,Arts and Entertainment,40.671046,-73.981662,Park Slope,11215
Puppet Works,Music Venue,40.670973,-73.981678,Park Slope,11215
Brooklyn Attitude,Arts and Entertainment,40.671718,-73.97207,Park Slope,11215
Spellbound Theatre,Music Venue,40.672476,-73.971925,Park Slope,11215
Outmedia,Music Venue,40.673656,-73.982132,Park Slope,11215
Negril BK,Night Club,40.67502,-73.981685,Park Slope,11215
Norte Maar,Art Gallery,40.684571,-73.873653,Cypres Hills,11208
Crescent Hall,Bingo Center,40.681324,-73.872094,City Line,11208
Kareemation Music Studio,Music Venue,40.67083,-73.875589,East New York,11208
Shah Rukh Khan The Real King Khan,Arts and Entertainment,40.636169,-73.906815,Georgetown,11236
Podium Night Club,Night Club,40.627703,-73.927451,Flatlands,11234
Electric Plant Sound Studios,Music Venue,40.632264,-73.928103,Flatlands,11234
Club Venus,Night Club,40.627703,-73.927451,Flatlands,11234
Venus Ultra Club,Music Venue,40.627648,-73.927492,Flatlands,11234
Maimonides Park,Stadium,40.574685,-73.984648,Coney Island,11224
Ford Amphitheater At Coney Island,Concert Hall,40.572822,-73.987726,Coney Island,11224
MCU Park Party Deck,Stadium,40.574854,-73.984237,Coney Island,11224
B & B Carousell,Amusement Park,40.573104,-73.983255,Coney Island,11224
Joan Jett,Rock Club,40.573335,-73.986658,Coney Island,11224
Boardwalk N21,Comedy Club,40.572616,-73.987369,Coney Island,11224
The Backyard,Stadium,40.573678,-73.98393,Coney Island,11224
MCU Park,Music Venue,40.574792,-73.984539,Coney Island,11224
Amazing Aquarium,Aquarium,40.602558,-73.995161,Bath Beach,11214
Russian Concerts,Arts and Entertainment,40.600738,-74.002665,Bath Beach,11214
Classical Arts Transportation,Movie Theater,40.603549,-73.998335,Bath Beach,11214
Meal Mart 13 Catering,Concert Hall,40.63626,-73.989908,Kensington,11219
The Howard Stern Show Controlroom,Arts and Entertainment,40.635104,-73.994786,Kensington,11219
Ben Ari Art Gallery,Art Gallery,40.635107,-73.992569,Kensington,11219
Matanel 2000 Gallery,Art Gallery,40.636516,-73.990397,Kensington,11219
Cinemark Theaters,Movie Theater,40.637408,-73.9893,Kensington,11219
Dyker Heights Christmas Lights,Arts and Entertainment,40.61709,-74.015469,Dyker Heights,11228
Triple Essence Dance,Arts and Entertainment,40.619256,-74.0206,Dyker Heights,11228
Ek Villain - 2,Arts and Entertainment,40.617601,-74.020232,Dyker Heights,11228
"I love you Alot,u hurt me alot",Movie Theater,40.617601,-74.020232,Dyker Heights,11228
Brooklyn Museum of Art,Art Museum,40.593316,-73.932416,Gerritsen,11235
Brooklyn Paintball & Amusement,Amusement Park,40.593062,-73.92579,Gerritsen,11229
AOH - Division 19,Night Club,40.592227,-73.924801,Gerritsen,11229
Artist Studios,Art Gallery,40.694858,-73.967604,Fort Greene,11205
Brooklyn's Other Museum of Brooklyn,History Museum,40.694474,-73.965844,Clinton Hill,11205
Isabelle Garrucho Fine Art,Art Gallery,40.69615,-73.967654,Fort Greene,11205
Pratt MFA Open Studios,Art Gallery,40.691825,-73.964084,Clinton Hill,11205
Bantam Studios,Music Venue,40.696458,-73.966227,Fort Greene,11205
"Schafler Gallery, Pratt Institute",Art Gallery,40.691885,-73.963868,Clinton Hill,11205
Hadas Gallery,Art Gallery,40.693965,-73.962727,Clinton Hill,11205
Pandemic Gallery,Art Gallery,40.697142,-73.968871,Fort Greene,11205
Recess,Art Gallery,40.697331,-73.967875,Fort Greene,11205
Kunstraum,Art Gallery,40.696977,-73.964981,,11205
321 Gallery,Art Gallery,40.689251,-73.965598,Clinton Hill,11205
Sonya,Art Gallery,40.688898,-73.968682,Clinton Hill,11205
So Percussion,Music Venue,40.696925,-73.964936,,11205
Brooklyn Young Filmmakers,Art Gallery,40.693565,-73.967554,Clinton Hill,11205
The Art of Discovery,Art Gallery,40.691981,-73.968321,Clinton Hill,11205
Vesper Bar & Lounge,Arts and Entertainment,40.693626,-73.965288,Clinton Hill,11205
Hill Center,Stadium,40.690813,-73.969628,Clinton Hill,11205
Franklin Furnace Archive,Art Museum,40.691883,-73.963955,Clinton Hill,11205
History of Art & Design at Pratt Institute,Art Gallery,40.69167,-73.96386,Clinton Hill,11205
Duplexx,Night Club,40.696902,-73.967771,Fort Greene,11205
Arc Fitness Center,Stadium,40.694762,-73.963151,Clinton Hill,11205
International Wow Co.,Music Venue,40.69645,-73.96437,,11205
Jason Naylor Studio Brooklyn,Art Gallery,40.696977,-73.964981,,11205
Wine & Design,Arts and Entertainment,40.689332,-73.970574,Adelphi,11205
Helena Chastel,Art Gallery,40.697085,-73.964986,,11205
Alamo Drafthouse Downtown Brooklyn,Movie Theater,40.690813,-73.983631,Boerum Hill,11201
BRIC House,Art Gallery,40.688456,-73.97909,Down Town,11217
BAM Harvey Theater,Music Venue,40.688302,-73.978778,Down Town,11217
Urban Glass,Art Gallery,40.688456,-73.97909,Down Town,11217
Kumble Theater,Performing Arts Venue,40.691362,-73.981254,Down Town,11201
Brooklyn Bridge Parents Block Party(Pop Up),Arts and Entertainment,40.691307,-73.982635,Down Town,11201
Lola Star Dreamland Roller Rink Pop Up,Roller Rink,40.691437,-73.982478,Down Town,11201
Actors Fund Arts Center,Concert Hall,40.689306,-73.987498,Boerum Hill,11201
Atlantic Antic,Arts and Entertainment,40.687846,-73.987659,Boerum Hill,11201
Skewville,Arts and Entertainment,40.691797,-73.985109,Boerum Hill,11201
Planet X Studios Brooklyn,Music Venue,40.692363,-73.982122,Down Town,11201
Humanities Gallery,Art Gallery,40.691362,-73.981254,Down Town,11201
Liu Salena Gallery,Art Gallery,40.691844,-73.981403,Down Town,11201
Balanced Cylinders,Public Art,40.69275,-73.983794,Boerum Hill,11201
Avalon Fort Greene - Rec Room,Arcade,40.693885,-73.983093,Down Town,11201
Faith Art Gallery,Art Gallery,40.691851,-73.987118,Boerum Hill,11201
Theatre Development Fund,Ticket Seller,40.692389,-73.987139,Boerum Hill,11201
Lost Man Creek,Public Art,40.694019,-73.984717,Boerum Hill,11201
Performance Space,Theater,40.689203,-73.98732,Boerum Hill,11201
BAM at MetroTech,Music Venue,40.694096,-73.985854,Boerum Hill,11201
African Art,Art Gallery,40.690095,-73.978281,Clinton Hill,11217
The Atlantic BKLN,Music Venue,40.688177,-73.987365,Boerum Hill,11201
EOS Arcade,Arcade,40.688123,-73.979426,Down Town,11217
Metaphor Contemporary Art,Art Gallery,40.687092,-73.985667,Boerum Hill,11217
Gotham Girls Roller Derby - LIU,Roller Rink,40.695043,-73.984713,Down Town,11201
Pandit SairamKrishna,Psychics and Astrologers,40.69062,-73.984802,Boerum Hill,11201
Get Down Beer Garden,Music Venue,40.691911,-73.982889,Down Town,11201
Surya Guruji,Psychics and Astrologers,40.689565,-73.981925,Down Town,11201
Best Spiritual Healer,Psychics and Astrologers,40.691024,-73.985777,Boerum Hill,11201
Kumble Theater for the Performing Arts,Music Venue,40.691791,-73.981358,Down Town,11201
Arts Action Research,Art Gallery,40.693217,-73.982676,Down Town,11201
Kumble Theater,Music Venue,40.690041,-73.980286,Down Town,11201
Vine,Music Venue,40.693429,-73.982599,Down Town,11201
Best Indian Astrologer & Love Psychic,Psychics and Astrologers,40.692392,-73.987052,Boerum Hill,11201
TKTS Downtown Brooklyn,Theater,40.693526,-73.986966,Boerum Hill,11201
Belarusian Church,Music Venue,40.687122,-73.984534,Boerum Hill,11217
Omnivore Brooklyn,Art Gallery,40.686938,-73.983392,Boerum Hill,11217
Big Apple Circus,Circus,40.694486,-73.985389,Cadman Plaza,11201
Bric Arts Media,Museum,40.688616,-73.97914,Down Town,11217
Roulette,Concert Hall,40.685551,-73.980852,Boerum Hill,11217
Public Records,Music Venue,40.682166,-73.98639,Boerum Hill,11217
BRIC House,Art Gallery,40.688456,-73.97909,Down Town,11217
BAM Fisher,Music Venue,40.686003,-73.977927,Downtown Brooklyn,11217
Urban Glass,Art Gallery,40.688456,-73.97909,Down Town,11217
EastVille Comedy Club,Comedy Club,40.685857,-73.981475,Boerum Hill,11217
Atlantic Antic,Arts and Entertainment,40.687846,-73.987659,Boerum Hill,11201
490 Atlantic Gallery,Art Gallery,40.68552,-73.981985,Boerum Hill,11217
Brooklyn Robot Foundry,Arts and Entertainment,40.68563,-73.981902,Boerum Hill,11217
Colab Projects,Art Gallery,40.685802,-73.981516,Boerum Hill,11217
Metaphor Contemporary Art,Art Gallery,40.687092,-73.985667,Boerum Hill,11217
Self Made Ny,Art Gallery,40.685249,-73.980055,Boerum Hill,11217
YokeyPokey,Arcade,40.6851,-73.979569,Boerum Hill,11217
StubHub Brooklyn,Arts and Entertainment,40.685102,-73.979482,Boerum Hill,11217
The Atlantic BKLN,Music Venue,40.688177,-73.987365,Boerum Hill,11201
MF Gallery,Art Gallery,40.682734,-73.987328,Boerum Hill,11217
EOS Arcade,Arcade,40.688123,-73.979426,Down Town,11217
Madagascar Institute,Art Gallery,40.68231,-73.98705,Boerum Hill,11217
ESPO's Art World,Art Gallery,40.682446,-73.980033,Boerum Hill,11217
Wyckoff St Mosaic House,Public Art,40.685422,-73.989571,BoCoCa,11201
Performance Space,Theater,40.689203,-73.98732,Boerum Hill,11201
Stephen Antonson,Arts and Entertainment,40.685856,-73.983525,Boerum Hill,11217
Damaran,Art Gallery,40.686212,-73.982317,Boerum Hill,11217
Omnivore Brooklyn,Art Gallery,40.686938,-73.983392,Boerum Hill,11217
Belarusian Church,Music Venue,40.687122,-73.984534,Boerum Hill,11217
TurnStyle Music Group,Concert Hall,40.685474,-73.981678,Boerum Hill,11217
Second Helping Comedy,Comedy Club,40.685857,-73.981475,Boerum Hill,11217
Roulette Intermedium,Concert Hall,40.685661,-73.980769,Boerum Hill,11217
The Townhouse Art Gallery,Art Gallery,40.683544,-73.979291,Boerum Hill,11217
En Garde Arts,Music Venue,40.686406,-73.989086,BoCoCa,11201
Surya Guruji,Psychics and Astrologers,40.689565,-73.981925,Down Town,11201
Axelle Fine Art,Art Gallery,40.688148,-73.988456,Boerum Hill,11201
Theatre for a New Audience,Music Venue,40.6875,-73.978529,Downtown Brooklyn,11217
The Owl Music Parlor,Concert Hall,40.660149,-73.953311,Prospect,11225
The Dorsey Art Club,Art Gallery,40.658431,-73.953071,Prospect,11225
Helper,Art Gallery,40.660443,-73.952407,Prospect,11225
Expression In Ceramics,Arts and Entertainment,40.659637,-73.950284,Prospect,11225
Joby Earle Teaching,Music Venue,40.655298,-73.955504,Prospect,11226
E2 Recordings,Arts and Entertainment,40.657972,-73.950089,Prospect,11225
Soup & Sound,Concert Hall,40.662134,-73.951644,Prospect,11225
Palm and Tarot Card Readers,Psychics and Astrologers,40.680186,-73.91335,Ocean Hill,11233
Tomato House Art Gallery,Art Gallery,40.675472,-73.916312,Ocean Hill,11233
The Crystal Image Performing Arts Company,Music Venue,40.67937,-73.913625,Ocean Hill,11233
Botanica Seven Seas,Psychics and Astrologers,40.679176,-73.910783,Ocean Hill,11233
Uru Lounge,Night Club,40.676255,-73.863885,City Line,11208
Oak Street Health Primary Care - City Line Clinic,Movie Theater,40.67841,-73.868063,City Line,11208
Liberty Psychic,Psychics and Astrologers,40.678527,-73.869768,City Line,11208
Crescent Hall,Bingo Center,40.681324,-73.872094,City Line,11208
Hoopla,Art Gallery,40.625324,-73.961991,Fiske Terrace,11230
Kings Theatre,Concert Hall,40.645914,-73.957645,Flatbush,11226
Spiritual Readings By Mona,Psychics and Astrologers,40.649395,-73.962555,Prospect Park Sout,11226
Spiritual Readings By Patricia,Psychics and Astrologers,40.648294,-73.96532,Prospect Park Sout,11226
Psychic Vignesh,Psychics and Astrologers,40.647835,-73.958329,Flatbush,11226
Master Jai Dev,Psychics and Astrologers,40.648369,-73.958524,Flatbush,11226
Indian best Psychic spiritual healer,Psychics and Astrologers,40.648529,-73.958574,Flatbush,11226
Astrobhairav Brooklyn,Psychics and Astrologers,40.64806,-73.957989,Flatbush,11226
A R Aquarium,Aquarium,40.650715,-73.961448,Prospect Park Sout,11226
Kingsthe Atremasterten,Music Venue,40.645967,-73.95769,Flatbush,11226
Shri Kali Matha Astrology Centre,Psychics and Astrologers,40.650531,-73.960307,Prospect Park Sout,11226
Loew's Kings Theater,Music Venue,40.645868,-73.957338,Flatbush,11226
Three Dollar Bill,Bowling Alley,40.70832,-73.93806,East Williamsburg,11206
Tradesman,Arts and Entertainment,40.708104,-73.940103,East Williamsburg,11206
The Wick,Concert Hall,40.708314,-73.938322,East Williamsburg,11206
Newtown Radio,Concert Hall,40.708378,-73.937931,East Williamsburg,11206
The Sweatshop,Music Venue,40.708486,-73.937935,East Williamsburg,11206
Our Wicked Lady,Music Venue,40.709526,-73.933306,Bushwick,11237
Future Space,Amusement Park,40.708741,-73.934411,Bushwick,11206
Sutherland,Night Club,40.708378,-73.937931,East Williamsburg,11206
Eris,Music Venue,40.707741,-73.943623,East Williamsburg,11206
New Dimension VR,Arcade,40.708052,-73.940057,East Williamsburg,11206
286 Rehearsal Space,Music Venue,40.708468,-73.936582,East Williamsburg,11206
Present Company,Art Gallery,40.706915,-73.938181,East Williamsburg,11206
Asterisk Art Project,Art Gallery,40.70692,-73.938007,East Williamsburg,11206
ArtHelix,Art Gallery,40.70891,-73.936162,Bushwick,11206
Bushwick Project for the Arts,Performing Arts Venue,40.708647,-73.935934,Bushwick,11206
The VC House,Music Venue,40.710666,-73.937059,East Williamsburg,11206
Secret Loft,Concert Hall,40.705914,-73.937314,Bushwick,11206
The Olympia Project,Art Gallery,40.705918,-73.937139,Bushwick,11206
Emandee Studios,Music Venue,40.710588,-73.935921,East Williamsburg,11206
Band Spaces Bushwick,Music Venue,40.71195,-73.935406,East Williamsburg,11206
Vordergrund,Night Club,40.710054,-73.935726,Bushwick,11206
Deli Gallery,Art Gallery,40.711461,-73.937569,East Williamsburg,11206
Carvalho Park,Art Gallery,40.711461,-73.937569,East Williamsburg,11206
GIRLS: The Exhibit,Exhibit,40.711461,-73.937569,East Williamsburg,11206
John Doe Gallery,Art Gallery,40.711356,-73.937478,East Williamsburg,11206
The Brooklyn Monarch,Music Venue,40.71096,-73.936153,East Williamsburg,11206
The Mona Lisa Brooklyn,Arts and Entertainment,40.710955,-73.936328,East Williamsburg,11206
Storefront Ten Eyck,Art Gallery,40.711271,-73.936602,East Williamsburg,11206
The International Gallery,Art Gallery,40.705547,-73.936907,Bushwick,11206
Studio 301 at English Kills,Public Art,40.71153,-73.937004,East Williamsburg,11206
AMPD Headquarters,Night Club,40.706511,-73.935155,Bushwick,11206
Dubai:Brooklyn,Night Club,40.709871,-73.934497,Bushwick,11206
Amant Arts Center,Art Museum,40.712204,-73.93698,East Williamsburg,11206
The Meadows,Music Venue,40.711301,-73.934603,Bushwick,11206
Sovereign Smokehouse,Night Club,40.710106,-73.933574,Bushwick,11237
Asterisk,Music Venue,40.70692,-73.938007,East Williamsburg,11206
Popgun Popgun Booking,Arts and Entertainment,40.711019,-73.935937,East Williamsburg,11206
Kingsland Ward,Music Venue,40.711216,-73.942709,East Williamsburg,11211
Little Cinema Digital,Movie Theater,40.707285,-73.933493,Bushwick,11206
PressPlayNYC,Movie Theater,40.707041,-73.933473,Bushwick,11206
Launa Eddy,Arts and Entertainment,40.71091,-73.933969,Bushwick,11237
Nitehawk Cinema,Movie Theater,40.716028,-73.962402,North Side,11249
St. Mazie,Music Venue,40.712485,-73.955763,South Side,11211
Williamsburg Cinemas,Movie Theater,40.714099,-73.959927,South Side,11211
Skinny Dennis,Night Club,40.715978,-73.96227,North Side,11249
Jackbar,Arcade,40.711746,-73.957174,South Side,11211
Feast Of The Giglio At OLMC Williamsburg,Arts and Entertainment,40.715943,-73.953496,Greenpoint,11211
The City Reliquary,Museum,40.713943,-73.955688,South Side,11211
Cloud City,Concert Hall,40.716168,-73.963237,North Side,11249
The Journal Gallery,Art Gallery,40.715691,-73.962913,South Side,11249
Embody Studio,Art Gallery,40.715612,-73.959811,South Side,11211
NFT Wall,Public Art,40.713589,-73.958194,North Williamsburg - North Side,11211
Red Paper Heart,Arcade,40.714303,-73.960372,South Side,11211
The Experiment Comedy Gallery,Comedy Club,40.713013,-73.958183,North Williamsburg - North Side,11211
Rafael Melendez Studio,Art Gallery,40.7137,-73.960741,South Side,11216
303Grand,Art Gallery,40.712989,-73.957091,North Williamsburg - North Side,11211
Figureworks,Art Gallery,40.716955,-73.95803,Greenpoint,11211
Paint Nite,Arts and Entertainment,40.713773,-73.962053,South Side,11249
The Collapsable Hole,Theater,40.715978,-73.96227,North Side,11249
El Museo de Los Sures,Arts and Entertainment,40.714084,-73.962502,South Side,11211
Internet Garage,Internet Cafe,40.716759,-73.959288,North Side,11249
Berry & White Billiards,Pool Hall,40.717531,-73.960671,North Side,11249
Ironbound Radio,Arts and Entertainment,40.71117,-73.958549,South Side,11211
NYCHD Headquarters,Music Venue,40.712305,-73.962477,South Side,11211
The Indelible Dome,Performing Arts Venue,40.71778,-73.961423,North Side,11249
The Annex,Public Art,40.711078,-73.959985,South Side,11211
J.J. Abrams' Lens Flare Factory,Arts and Entertainment,40.711614,-73.956078,South Side,11211
Rawson Projects,Art Gallery,40.712307,-73.962389,South Side,11211
Sound City Studios,Music Venue,40.718402,-73.960356,North Side,11249
Studio Joo,Art Gallery,40.717896,-73.955098,Greenpoint,11211
The Opera House,Opera House,40.713529,-73.963954,South Side,11249
La Sala,Performing Arts Venue,40.717454,-73.963549,North Side,11211
Boaz Vaadia,Art Gallery,40.718983,-73.958807,Greenpoint,11249
Hartwick Hanson Art,Art Gallery,40.716812,-73.959334,North Side,11249
Brooklyn Brewskee-Ball,Arcade,40.713147,-73.957228,North Williamsburg - North Side,11211
Figure Works,Art Gallery,40.716955,-73.95803,Greenpoint,11211
Museum of Future Experiences,Music Venue,40.714605,-73.962078,South Side,11249
Serie Sous Performance Series,Museum,40.713888,-73.95573,South Side,11211
Asl Slam,Arts and Entertainment,40.712975,-73.96163,South Side,11211
Miriam Gallery,Art Gallery,40.712963,-73.962066,South Side,11211
Cirque This,Circus,40.713117,-73.962377,South Side,11249
"It's Not You, It's Me Holistic Wellness",Psychics and Astrologers,40.714191,-73.954476,Greenpoint,11211
St. Mazie,Music Venue,40.712485,-73.955763,South Side,11211
Duff's,Night Club,40.708761,-73.957888,South Side,11211
Jackbar,Arcade,40.711746,-73.957174,South Side,11211
Baby's All Right,Music Venue,40.710067,-73.963481,South Side,11211
Williamsburg Cinemas,Movie Theater,40.714099,-73.959927,South Side,11211
WMC Jazz,Jazz and Blues Venue,40.711372,-73.963095,South Side,11211
Masquerade,Night Club,40.7078,-73.955719,South Side,11211
The City Reliquary,Museum,40.713943,-73.955688,South Side,11211
Williamsburg Music Center,Jazz and Blues Venue,40.711263,-73.963125,South Side,11211
Ironbound Radio,Arts and Entertainment,40.71117,-73.958549,South Side,11211
Paint Nite,Arts and Entertainment,40.711422,-73.959213,South Side,11211
The Annex,Public Art,40.711078,-73.959985,South Side,11211
J.J. Abrams' Lens Flare Factory,Arts and Entertainment,40.711614,-73.956078,South Side,11211
Williamsburg Art & Historical Center,Museum,40.710553,-73.963456,South Side,11211
The Experiment Comedy Gallery,Comedy Club,40.713013,-73.958183,North Williamsburg - North Side,11211
303Grand,Art Gallery,40.712989,-73.957091,North Williamsburg - North Side,11211
NFT Wall,Public Art,40.713589,-73.958194,North Williamsburg - North Side,11211
The Rage Cage,Arts and Entertainment,40.71385,-73.959176,North Williamsburg - North Side,11211
Roebling Photo Studio,Arts and Entertainment,40.713997,-73.957698,North Williamsburg - North Side,11211
Brooklyn Social Scene,Performing Arts Venue,40.709089,-73.961741,South Side,11211
NYCHD Headquarters,Music Venue,40.712305,-73.962477,South Side,11211
Rawson Projects,Art Gallery,40.712307,-73.962389,South Side,11211
Carrie Able Gallery,Art Gallery,40.71109,-73.953483,South Side,11211
Rafael Melendez Studio,Art Gallery,40.7137,-73.960741,South Side,11216
Sideshow Gallery,Art Gallery,40.7128,-73.962103,South Side,11211
Propstar,Theater,40.707469,-73.955788,South Side,11211
The Brooklyn Cellar,Arts and Entertainment,40.711374,-73.963008,South Side,11211
The FADER FORT Presented By Converse,Performing Arts Venue,40.711906,-73.953209,South Side,11211
Red Paper Heart,Arcade,40.714303,-73.960372,South Side,11211
Techno Village,Night Club,40.713679,-73.961526,South Side,11211
Paint Nite,Arts and Entertainment,40.713773,-73.962053,South Side,11249
Black Ball Projects,Art Gallery,40.711679,-73.963718,South Side,11249
Big Irv's,Art Gallery,40.710259,-73.952317,South Side,11211
Spiritual Healing,Psychics and Astrologers,40.710538,-73.958001,South Side,11211
One Shot Away,Night Club,40.711744,-73.957262,South Side,11211
Brooklyn Brewskee-Ball,Arcade,40.713147,-73.957228,North Williamsburg - North Side,11211
Sanguine Theatre Company,Arts and Entertainment,40.709618,-73.962111,South Side,11211
Asl Slam,Arts and Entertainment,40.712975,-73.96163,South Side,11211
Serie Sous Performance Series,Museum,40.713888,-73.95573,South Side,11211
Sideshow,Art Gallery,40.7128,-73.962103,South Side,11211
Scenic Presents,Concert Hall,40.71217,-73.953438,South Side,11211
Miriam Gallery,Art Gallery,40.712963,-73.962066,South Side,11211
Cirque This,Circus,40.713117,-73.962377,South Side,11249
"It's Not You, It's Me Holistic Wellness",Psychics and Astrologers,40.714191,-73.954476,Greenpoint,11211
The Harem,Art Museum,40.616434,-73.970054,Ocean Parkway,11230
Poster Printers,Art Gallery,40.613753,-73.973608,Ocean Parkway,11230
Starbaby Enterprises,Ticket Seller,40.610181,-73.96624,Ocean Parkway,11230
Red Velvet Lounge NY,Night Club,40.612257,-73.963141,Manhattan Terrace,11230
Pottery And Glass Land,Art Gallery,40.615421,-73.963656,Ocean Parkway,11230
Psychic Readings,Psychics and Astrologers,40.613738,-73.97413,Bensonhurst,11230
Brooklynone Productions,Music Venue,40.612869,-74.031715,Fort Hamilton,11209
Roxbury Lounge,Arts and Entertainment,40.618828,-74.032433,Bayridge,11209
St Patrick's Auditorium,Movie Theater,40.614588,-74.031871,Fort Hamilton,11209
Narrows Community Theater,Music Venue,40.615375,-74.034603,Fort Hamilton,11209
Andrea Lucille Designs,Art Gallery,40.615482,-74.034608,Fort Hamilton,11209
Ellie Crystal,Psychics and Astrologers,40.612161,-74.033952,Fort Hamilton,11209
Clandestino,Night Club,40.71467,-73.990763,Chinatown,10002
169 Bar,Night Club,40.713955,-73.989791,Chinatown,10002
Old Man Hustle,Comedy Club,40.716217,-73.989642,Chinatown,10002
Canary Club,Jazz and Blues Venue,40.718667,-73.992535,Chinatown,10002
Klaus Von Nichtssgend Gallery,Art Gallery,40.71658,-73.989921,Chinatown,10002
Reena Spaulings Fine Art,Art Gallery,40.713937,-73.989948,Chinatown,10002
Waypoint Cafe,Internet Cafe,40.717225,-73.990034,Chinatown,10002
Rooftop Films,Indie Movie Theater,40.717299,-73.989295,Chinatown,10002
Wildrence Theater,Theater,40.715068,-73.992001,Chinatown,10002
Os NYC,Arcade,40.715802,-73.996743,Chinatown,10013
Alien Gang,Gaming Cafe,40.717011,-73.995918,Chinatown,10013
The Concept,Night Club,40.715912,-73.99666,Chinatown,10013
Stephan Stoyanov Gallery,Art Gallery,40.715561,-73.991714,Chinatown,10002
Mark Miller Gallery,Art Gallery,40.71836,-73.989947,Chinatown,10002
Vacation,Art Gallery,40.71546,-73.991449,Chinatown,10002
601Artspace,Art Gallery,40.717436,-73.992181,Chinatown,10002
Company Gallery/ Capricious Publishing,Art Gallery,40.71717,-73.99204,Chinatown,10002
Gallery 51,Art Gallery,40.71665,-73.991321,Chinatown,10002
Thomas Nickles,Art Gallery,40.716443,-73.991161,Chinatown,10002
Frosch & Co.,Art Gallery,40.713493,-73.996195,Chinatown,10002
Public accesa,Art Gallery,40.713333,-73.991914,Chinatown,10002
Signs and Symbols,Art Gallery,40.718238,-73.992431,Chinatown,10002
Front Room Gallery,Art Gallery,40.715649,-73.990452,Chinatown,10002
Tracy Williams,Art Gallery,40.715817,-73.99024,Chinatown,10002
MINI/Goethe-Institut Curatorial Residencies Ludlow 38,Art Gallery,40.716032,-73.990249,Chinatown,10002
Situations Gallery,Art Gallery,40.713411,-73.991455,Chinatown,10002
Lyles & King,Art Gallery,40.718559,-73.992531,Chinatown,10002
The Storefront Project,Art Gallery,40.717543,-73.990221,Chinatown,10002
Buff Monster's Studio,Art Gallery,40.71925,-73.994915,Chinatown,10013
Freight + Volume,Art Gallery,40.718927,-73.990886,Chinatown,10002
Sohotel Gallery,Art Gallery,40.719573,-73.994928,Chinatown,10003
Massey Klein Gallery,Art Gallery,40.719435,-73.992041,Chinatown,10002
Shelter,Art Gallery,40.713954,-73.989338,Downtown,10002
Catinca Tabacaru Gallery,Art Gallery,40.718146,-73.989852,Chinatown,10002
Lyle O Reitzel Gallery,Art Gallery,40.719287,-73.991555,Chinatown,10002
Inga,Night Club,40.719781,-73.993233,Chinatown,10002
New Art Dealers Alliance,Arts and Entertainment,40.716498,-73.994937,Chinatown,10002
Mission Escape Games,Arts and Entertainment,40.716553,-73.994896,Chinatown,10002
Gail Goldsmith,Exhibit,40.717463,-73.993186,Chinatown,10002
Cocktails N' Canvas Painting,Arts and Entertainment,40.713577,-73.993295,Chinatown,10002
Boo-Hooray,Museum,40.717582,-73.992754,Chinatown,10002
Orchard,Art Gallery,40.716325,-73.991395,Chinatown,10002
3A Gallery,Art Gallery,40.716868,-73.997222,Chinatown,10013
317 Gallery,Art Gallery,40.717036,-73.99103,Chinatown,10002
Laughing Buddha Comedy,Comedy Club,40.717088,-73.991076,Chinatown,10002
Asian Escorts New York,Strip Club,40.715496,-73.990141,Chinatown,10002
New York Escorts Service,Strip Club,40.712737,-73.996404,Chinatown,10002
Cathy s Psychic Gallery,Psychics and Astrologers,40.719034,-73.994906,Chinatown,10013
Chinatown,Arts and Entertainment,40.713758,-73.998539,Chinatown,10038
Ed Sullivan Theater,Music Venue,40.713884,-73.989903,Chinatown,10002
Hebrew Tabernacle Social Hall,Performing Arts Venue,40.853572,-73.937793,Hudson Heights,10033
Tattoo,Art Gallery,40.852194,-73.932751,Fort George,10033
Wiggles Giggles Playhouse,Art Gallery,40.851801,-73.941446,Hudson Heights,10033
Abreu Art Gallery,Art Gallery,40.854664,-73.933283,Fort George,10040
Schottenstein Theatre,Theater,40.851039,-73.931481,Highbridge,10033
Hudson Heights Duo - Harp and Flute,Arts and Entertainment,40.850381,-73.935921,Fort George,10033
Heights Psychic & Tarot Reader Espiritual Consultora,Psychics and Astrologers,40.84967,-73.936529,Fort George,10033
Capriccio Ensemble,Music Venue,40.854232,-73.937381,Hudson Heights,10033
5+5 Gallery,Art Gallery,40.855444,-73.936464,Hudson Heights,10040
Dell Arte Opera Ensemble,Opera House,40.855522,-73.937605,Hudson Heights,10040
Manhattan Psychic,Psychics and Astrologers,40.848735,-73.932794,Highbridge,10033
MOSA Free Concert Series,Arts and Entertainment,40.85593,-73.934469,Fort George,10040
Dyckman Farmhouse Museum,History Museum,40.867363,-73.922996,Fort George,10034
Nitro Lounge,Night Club,40.866307,-73.920022,Inwood,10034
Post Billiards Cafe,Pool Hall,40.8652,-73.918973,Inwood,10034
Melodia,Night Club,40.865092,-73.918969,Inwood,10034
Tantra Nightclub & Lounge,Night Club,40.868868,-73.917142,Inwood,10034
Pied Piper,Performing Arts Venue,40.86647,-73.926453,Fort George,10034
The Theater Space At Holy Trinity Church,Theater,40.866457,-73.926595,Fort George,10034
Rocco B Commisso Soccer Stadium,Stadium,40.868234,-73.91865,Inwood,10034
Korean Art Forum,Art Gallery,40.867781,-73.921479,Inwood,10034
Alliance Artist Management,Arts and Entertainment,40.868873,-73.916967,Inwood,10034
Euros El Tina Restaurant Loung E & Billiards,Pool Hall,40.864327,-73.919291,Inwood,10034
Washington Heights Billiard,Pool Hall,40.864327,-73.919291,Inwood,10034
Pied Piper Childrens Theater,Music Venue,40.866301,-73.926371,Fort George,10034
24 Hour Party Girl Escorts,Strip Club,40.871131,-73.917402,Inwood,10034
Papa Juan Cigar Room,Arts and Entertainment,40.823699,-73.952138,Hamilton Grange,10031
Hamilton Landmark Galleries,Art Gallery,40.82442,-73.947398,Hamilton Grange,10031
Hamilton Hall,Music Venue,40.824946,-73.951968,Hamilton Grange,10031
Centro Civico Cultural Dominicano,Art Gallery,40.827065,-73.95148,Hamilton Heights,10031
The Champagne Room,Arts and Entertainment,40.822588,-73.945184,Hamilton Grange,10030
Certified Make-Up Artist,Arts and Entertainment,40.823154,-73.948268,Hamilton Grange,10031
La Cantina Ecua-Mex Bar & Billiard,Pool Hall,40.823536,-73.952176,Hamilton Heights,10031
Live Theatre Gang,Arts and Entertainment,40.821908,-73.948439,Hamilton Grange,10031
El Vasilon Nightclub,Night Club,40.826071,-73.950261,Hamilton Heights,10031
HSA Theater,Theater,40.822028,-73.94595,Hamilton Grange,10030
Drew McClain,Psychics and Astrologers,40.822423,-73.945309,Hamilton Grange,10030
Eli Kince Art Gallery,Art Gallery,40.82519,-73.944846,Hamilton Heights,10031
Gotham Center For Ny City History,Arts and Entertainment,40.819538,-73.950228,Hamilton Heights,10031
Honeycomb Playhouse,Movie Theater,40.825151,-73.944276,Hamilton Heights,10031
Aaron Davis Hall,Music Venue,40.817774,-73.95156,Hamilton Heights,10031
Gavin Brown's Enterprise,Art Gallery,40.813636,-73.954856,Harlem,10027
CUarts,Arts and Entertainment,40.816483,-73.959471,Harlem,10027
From Harlem With Love: A Mural for Yuri and Malcolm,Public Art,40.815254,-73.956974,Harlem,10027
Life After Dark Studio,Music Venue,40.814373,-73.959608,Harlem,10027
The Mink Building,Music Venue,40.814109,-73.955355,Harlem,10027
Ki Smith Gallery,Art Gallery,40.818006,-73.961061,Harlem,10027
The Morningside Players,Theater,40.813251,-73.959171,Harlem,10027
Leather Lounge,Night Club,40.813552,-73.953978,Harlem,10027
American Art Gallery,Art Gallery,40.813216,-73.960482,Manhattanville,10027
Studio Museum 127,Museum,40.813432,-73.954411,Harlem,10027
Rio Gallery,Art Gallery,40.821137,-73.95707,Hamilton Heights,10031
Wallach Art Gallery,Art Gallery,40.816883,-73.958655,Hamilton Heights,10027
Depesha,Arts and Entertainment,40.815721,-73.959704,Harlem,10027
Young Atlas,Arts and Entertainment,40.814166,-73.955226,Harlem,10027
Art Set Social 2,Art Gallery,40.813489,-73.960361,Manhattanville,10027
Bill's Place,Concert Hall,40.813345,-73.943517,Central Harlem,10030
Harlem Nights,Concert Hall,40.817278,-73.941831,Hamilton Heights,10030
Shrine World Music Venue,Music Venue,40.814357,-73.944037,Central Harlem,10030
Shrine,Music Venue,40.814357,-73.944037,Central Harlem,10030
La Maison d'Art - Art Gallery,Public Art,40.814388,-73.946925,Central Harlem,10027
Big L Memorial Mural,Public Art,40.818364,-73.939555,Hamilton Heights,10030
Harlem Arcade,Arts and Entertainment,40.816261,-73.941486,Hamilton Heights,10030
Harlem Arts Alliance,Art Gallery,40.815908,-73.944578,Harlem,10030
Kente Royal Gallery,Art Gallery,40.817484,-73.941649,Hamilton Heights,10030
Gadson Gallery,Art Gallery,40.815139,-73.945073,Central Harlem,10030
Harlem Collage Shop - Michael Anderson,Art Gallery,40.817448,-73.945555,Hamilton Heights,10030
City College Art Gallery,Art Gallery,40.814296,-73.94023,Central Harlem,10031
Faction Art Projects,Art Gallery,40.818668,-73.944378,Hamilton Heights,10030
Strivers Gardens Condominiums,Art Gallery,40.816365,-73.947365,Hamilton Heights,10030
Tatiana Pages,Art Gallery,40.81892,-73.945043,Hamilton Heights,10030
Art 2,Art Gallery,40.81495,-73.943572,Central Harlem,10030
New Heritage Theatre Group,Music Venue,40.816218,-73.945115,Hamilton Heights,10030
Zen Archer,Psychics and Astrologers,40.817201,-73.944715,Hamilton Heights,10030
Young Hustl3r Music,Arts and Entertainment,40.815706,-73.940021,Harlem,10037
449 La,Night Club,40.812512,-73.942348,Central Harlem,10037
Leslie M Ahmed,Psychics and Astrologers,40.818502,-73.946558,Hamilton Heights,10030
Cam Date Live,Night Club,40.812999,-73.940268,Central Harlem,10037
Lewis H. Latimer House Museum,Museum,40.814561,-73.938403,Central Harlem,10037
Project Performing Arts,Music Venue,40.812575,-73.939989,Central Harlem,10037
Poet's Den Gallery and Theater,Music Venue,40.791664,-73.940632,Spanish Harlem,10029
Graffiti Hall Of Fame,Public Art,40.793141,-73.94799,Spanish Harlem,10029
Art for Change,Art Gallery,40.792495,-73.94591,Spanish Harlem,10029
New York Chess Academy,Arcade,40.790863,-73.946372,Spanish Harlem,10029
The Dry Amendment,Night Club,40.793541,-73.941098,Spanish Harlem,10029
Poets Den Gallery,Arts and Entertainment,40.791488,-73.940653,Spanish Harlem,10029
Stephens Singing Studio,Music Venue,40.79522,-73.944965,Spanish Harlem,10029
Yorkville Baseball Academy,Stadium,40.789921,-73.939211,Spanish Harlem,10029
Melissa Nieves-Spiritual Solutions,Psychics and Astrologers,40.792615,-73.945478,Spanish Harlem,10029
Julia de Burgos Art Center,Art Gallery,40.791878,-73.946804,Spanish Harlem,10029
Puerto Rican Traveling Theater Co.,Theater,40.79193,-73.94685,Spanish Harlem,10029
Sacrebleu,Art Gallery,40.793647,-73.941189,Spanish Harlem,10029
Demon Leg,Art Gallery,40.790253,-73.947004,Spanish Harlem,10029
Harlem Arts Festival,Carnival,40.795247,-73.945183,Spanish Harlem,10029
Dusk Til Dawn Entertainment,Strip Club,40.793188,-73.940166,Spanish Harlem,10029
Bow Belle Vocal Studio,Music Venue,40.793139,-73.939927,Spanish Harlem,10029
Cinemark Theaters﻿ Add to Favorites,Movie Theater,40.791358,-73.94868,Spanish Harlem,10029
Art345 Gallery,Art Gallery,40.788727,-73.941482,Spanish Harlem,10029
Central Park - Group of Bears,Public Art,40.777328,-73.964033,Carnegie Hill,
Metropolitan Museum of Art,Museum,40.779348,-73.963193,Carnegie Hill,10028
Ukrainian Institute of America,Museum,40.776799,-73.963663,Carnegie Hill,10075
Institute for the Study of the Ancient World,History Museum,40.779912,-73.960287,Carnegie Hill,10028
Waterfall Mansion,Art Gallery,40.77518,-73.957613,Upper East Side,10075
American Irish Historical Society,History Museum,40.77779,-73.962915,Carnegie Hill,10028
Yoshii Gallery,Art Gallery,40.774807,-73.963455,Upper East Side,10075
Skarstedt Gallery,Art Gallery,40.77634,-73.96264,Upper East Side,10075
Frick Madison,Art Museum,40.773355,-73.963813,Lenox Hill,10021
American Primitive Gallery,Art Gallery,40.7756,-73.962087,Upper East Side,10075
Van de Weghe Fine Art,Art Gallery,40.775909,-73.962623,Upper East Side,10075
Kraus Hans P Jr Fine Photographs,Art Gallery,40.777944,-73.959206,Upper East Side,10028
Benrubi Gallery,Art Gallery,40.773796,-73.962935,Upper East Side,10021
Kips Bay Decorator Show House,Exhibit,40.773085,-73.961247,Lenox Hill,10021
Sabastian Izzard Asian Art,Art Gallery,40.774726,-73.96404,Upper East Side,10021
Hiroshi Yanagi Oriental Art,Art Gallery,40.774775,-73.96398,Upper East Side,10021
Edward Ressle,Art Gallery,40.773417,-73.962964,Lenox Hill,10021
Galerie Buchholz Ny,Art Gallery,40.778645,-73.961243,Carnegie Hill,10028
Waterhouse & Dodd,Art Gallery,40.774201,-73.963912,Upper East Side,10021
Tilton Gallery,Art Gallery,40.774614,-73.964627,Upper East Side,10021
The Lore Heinemann Galery,Exhibit,40.778596,-73.963077,Carnegie Hill,10028
Temple Of Perneb,History Museum,40.77878,-73.962254,Carnegie Hill,10028
The Benjamin Altman Collection,Exhibit,40.779202,-73.96262,Carnegie Hill,10028
Pablo Picasso,Exhibit,40.778402,-73.964249,Carnegie Hill,10028
Lila Acheson Wallace Wing,Exhibit,40.778664,-73.964565,Carnegie Hill,10028
Fabergé from the Matilda Geddings Gray Foundation Collection,Exhibit,40.778944,-73.964183,Carnegie Hill,10028
Jerusalem 1000 - 1400: Every People Under Heaven,Exhibit,40.779396,-73.963414,Carnegie Hill,10028
Donald and Vera Blinken Galleries,Exhibit,40.779279,-73.963759,Carnegie Hill,10028
The Wrightsman galleries,Arts and Entertainment,40.779387,-73.963763,Carnegie Hill,10028
William Lipton Gallery,Art Gallery,40.776394,-73.960632,Upper East Side,10075
Greene County Council On The Arts New York,Arts and Entertainment,40.774244,-73.961071,Upper East Side,10075
Mitchell-Innes & Nash,Art Gallery,40.776074,-73.962499,Upper East Side,10075
Alaska On Madison Gallery of Eskimo and Northwest Coast Art,Art Gallery,40.77733,-73.961151,Upper East Side,10028
Spanierman Gallery New York,Art Gallery,40.776341,-73.96279,Upper East Side,10075
Oscar Wilde Tours,Arts and Entertainment,40.77663,-73.957888,Upper East Side,10028
980 Madison,Art Gallery,40.774862,-73.963413,Upper East Side,10075
Dean Borghi Fine Arts,Art Gallery,40.773852,-73.962741,Upper East Side,10021
Richard L Feigen & Co.,Art Gallery,40.775014,-73.963812,Upper East Side,10075
Ensemble For The Romantic Century,Music Venue,40.778322,-73.961098,Carnegie Hill,10028
Museum House,Museum,40.778374,-73.961276,Carnegie Hill,10028
Park & 75,Arts and Entertainment,40.773039,-73.962039,Lenox Hill,10021
Kang Byung,Art Gallery,40.778695,-73.961376,Carnegie Hill,10028
Kang Collections & Gallery,Art Gallery,40.778748,-73.961422,Carnegie Hill,10028
Ethyl's Alcohol & Food,Night Club,40.776985,-73.952657,Upper East Side,10028
Bailey's Corner Pub,Night Club,40.775276,-73.947959,Upper East Side,10028
Gallery of Graphic Arts,Art Gallery,40.775,-73.948167,Upper East Side,10028
A & N Art Gallery,Art Gallery,40.777173,-73.949693,Upper East Side,10028
New York Art Gallery,Art Gallery,40.775872,-73.949905,Upper East Side,10028
Morning Calm Gallery,Art Gallery,40.774499,-73.95077,Upper East Side,10028
Monalisa Art Gallery,Art Gallery,40.780058,-73.946744,Carnegie Hills,10128
1615 Art Gallery,Art Gallery,40.776545,-73.95299,Upper East Side,10028
Speakeasy Dollhouse,Music Venue,40.776341,-73.946471,Uptown,10128
American Friends of the Shanghai Museum,Museum,40.775222,-73.945947,Upper East Side,10028
Gymboree Play & Music,Amusement Park,40.775654,-73.949984,Upper East Side,10028
Earthworksnyc,Art Gallery,40.778554,-73.948451,Carnegie Hills,10128
Jonathan Saraga,Arts and Entertainment,40.773669,-73.949514,Upper East Side,10028
Erica Palgon Casting & Beyond,Arts and Entertainment,40.779071,-73.947318,Carnegie Hills,10128
Svetionik Art Design,Art Gallery,40.779179,-73.947322,Carnegie Hills,10128
Lisa Escort Service,Strip Club,40.777349,-73.951185,Upper East Side,10028
Madame Bonte Cafe,Internet Cafe,40.776066,-73.951885,Upper East Side,10028
Readings by Maria,Psychics and Astrologers,40.772742,-73.949872,Upper East Side,10028
Joe's Pub,Night Club,40.772133,-73.946397,Roosevelt Island,10028
Spacious @ Bohemian Spirit,Internet Cafe,40.769114,-73.956374,Lenox Hill,10021
Bohemian National Hall,Art Gallery,40.769057,-73.956503,Lenox Hill,10021
Theresa Lang Theatre,Music Venue,40.768856,-73.959991,Lenox Hill,10021
1405 Art Gallery,Art Gallery,40.769719,-73.95797,Lenox Hill,10021
Little Maestros,Concert Hall,40.766145,-73.958444,Lenox Hill,10021
Hani,Public Art,40.766997,-73.95686,Lenox Hill,10021
SoHouse,Arts and Entertainment,40.77069,-73.958008,Lenox Hill,10021
The Vilcek Foundation,Art Gallery,40.770936,-73.960901,Lenox Hill,10021
Gallery 71,Art Gallery,40.769694,-73.962951,Lenox Hill,10021
Eastside Art Gallery,Art Gallery,40.76452,-73.958644,Lenox Hill,10065
The Bertha and Karl Leubsdorf,Art Gallery,40.767722,-73.96401,Lenox Hill,10021
Art & Framing Gallery,Museum,40.772171,-73.959114,Lenox Hill,10021
Orasy,Arts and Entertainment,40.772402,-73.960565,Lenox Hill,10021
Dicapo Opera Theater,Music Venue,40.772485,-73.959476,Lenox Hill,10021
Armand Bartos Fine Art,Art Gallery,40.768217,-73.95765,Lenox Hill,10021
Kagan Fine Art,Art Gallery,40.767236,-73.960016,Lenox Hill,10021
Stephen Haller Gallery,Art Gallery,40.769186,-73.959741,Lenox Hill,10021
Davis Langdale Gallery New York,Art Gallery,40.76952,-73.958839,Lenox Hill,10021
New York International Mandolin Festival,Concert Hall,40.767086,-73.957563,Lenox Hill,10021
Communication Awareness,Psychics and Astrologers,40.769497,-73.958224,Lenox Hill,10021
Marc Rosen Fine Arts,Arts and Entertainment,40.769751,-73.958802,Lenox Hill,10021
Aspire Artists Agency,Arts and Entertainment,40.769436,-73.960494,Lenox Hill,10021
Manhattan Arts International,Art Gallery,40.769436,-73.960494,Lenox Hill,10021
Blumka Gallery,Art Gallery,40.769718,-73.960024,Lenox Hill,10021
Matin Fine Arts,Art Gallery,40.768197,-73.956382,Lenox Hill,10021
Improving With Improv,Comedy Club,40.76627,-73.959803,Lenox Hill,10065
Rogallery Dot Com,Art Gallery,40.769778,-73.957331,Lenox Hill,10021
Sweet Asian Escort,Strip Club,40.767517,-73.961599,Lenox Hill,10021
Julia Richman Theater,Music Venue,40.765405,-73.959857,Lenox Hill,10065
Chicago City Limits,Comedy Club,40.769571,-73.95543,Lenox Hill,10021
Newport Folk Festival,Carnival,40.767961,-73.963146,Lenox Hill,10021
O Kelley Anderson,Art Gallery,40.770915,-73.961687,Lenox Hill,10021
Friends of the Upper East Side Historic Districts,Museum,40.769361,-73.963287,Lenox Hill,10021
Wicked Pub Crawl,Night Club,40.771168,-73.956279,Lenox Hill,10021
Psychic Readings by Grace,Psychics and Astrologers,40.771168,-73.956279,Lenox Hill,10021
Supportive Artists International,Museum,40.7718,-73.958881,Lenox Hill,10021
Beekman,Arts and Entertainment,40.764781,-73.961013,Lenox Hill,10065
Paper Bag Players,Music Venue,40.767722,-73.96401,Lenox Hill,10065
Big Apple Art Gallery,Art Gallery,40.771496,-73.956116,Lenox Hill,10075
Wooster Projects,Art Gallery,40.764297,-73.960951,Lenox Hill,10065
Foundation For Italian Art,Museum,40.770102,-73.96384,Lenox Hill,10021
St Jeans Community Center,Music Venue,40.772485,-73.959476,Lenox Hill,10021
Roosevelt Island Visual Art Association,Art Gallery,40.761391,-73.950572,Roosevelt Island,10044
Gallery Rivaa,Art Gallery,40.761271,-73.951004,Roosevelt Island,10044
Roosevelt Island Youth Center,Arts and Entertainment,40.760849,-73.950638,Roosevelt Island,10044
Paul Calendrillo Art Gallery,Art Gallery,40.761053,-73.951083,Roosevelt Island,10044
Life,Public Art,40.763485,-73.95379,Lenox Hill,10065
The Classical Musicians' Rehearsal Symphony Orchestra,Music Venue,40.761554,-73.950534,Roosevelt Island,10044
Roosevelt Island,Art Gallery,40.761129,-73.950256,Roosevelt Island,10044
Center For Contemporary Opera,Opera House,40.765303,-73.947533,Roosevelt Island,10044
AMC 84th Street 6,Movie Theater,40.785985,-73.977351,Upper West Side,10024
Children's Museum of Manhattan,Art Museum,40.785932,-73.977305,Upper West Side,10024
West End Theatre,Music Venue,40.788798,-73.977111,Upper West Side,10024
New York Theater Ensemble,Theater,40.788904,-73.977202,Upper West Side,10024
Pushkin Hall,Theater,40.787737,-73.974403,Upper West Side,10024
West Park Art Gallery,Art Gallery,40.787678,-73.974619,Upper West Side,10024
West Park Center,Music Venue,40.78768,-73.974532,Upper West Side,10024
LinkNYC,Internet Cafe,40.785647,-73.977862,Upper West Side,10024
4L,Arts and Entertainment,40.788449,-73.974037,Upper West Side,10024
Studio 54,Night Club,40.784734,-73.977695,Upper West Side,10024
Paint Nite,Arts and Entertainment,40.784482,-73.97703,Upper West Side,10024
Judy Henderson Castings,Movie Theater,40.791262,-73.977849,Upper West Side,10024
Piano,Music Venue,40.786437,-73.97256,Upper West Side,10024
Spacious @ The Milling Room,Internet Cafe,40.783632,-73.974505,Upper West Side,10024
AMC Theaters,Movie Theater,40.78681,-73.97744,Upper West Side,10024
2120 An Art Experience At Portion Gallery New York,Museum,40.786829,-73.978083,Upper West Side,10024
Chris Hughes,Museum,40.7875,-73.979202,Upper West Side,10024
West Park NYC Open Mic,Music Venue,40.78775,-73.97473,Upper West Side,10024
Hudson Warehouse,Music Venue,40.785879,-73.977259,Upper West Side,10024
The Russian Arts Theater and Studio,Movie Theater,40.787678,-73.974619,Upper West Side,10024
Bruce Frank Primitive Art,Art Gallery,40.785613,-73.977117,Upper West Side,10024
Manhattan Psychic,Psychics and Astrologers,40.790018,-73.977901,Upper West Side,10024
Theatre Development Fund,Music Venue,40.787756,-73.973704,Upper West Side,10024
W83,Music Venue,40.785219,-73.975703,Upper West Side,10024
Saddoboxing,Stadium,40.789765,-73.97929,Upper West Side,10024
Penrose Galleries Judaica,Art Gallery,40.787917,-73.980887,Upper West Side,10024
Psychic Readings NYC,Psychics and Astrologers,40.784285,-73.976323,Upper West Side,10024
Walker Art Center,Art Gallery,40.784588,-73.979088,Upper West Side,10024
NYC Princess Parties,Music Venue,40.785936,-73.981151,Upper West Side,10024
Calhoun Summer Jazz Workshop,Arts and Entertainment,40.785409,-73.980694,Upper West Side,10024
Ground Swell Theatricals,Music Venue,40.790057,-73.97323,Upper West Side,10024
ProhibitionNYC,Music Venue,40.7853,-73.972887,Upper West Side,10024
Gallery 52 NYC,Art Gallery,40.78613,-73.971936,Upper West Side,10024
Broadway Play Publishing,Arts and Entertainment,40.783279,-73.976955,Lincoln Square,10024
New York Escort Guide,Strip Club,40.790169,-73.972312,Upper West Side,10024
Vivian Beaumont Theater,Music Venue,40.773603,-73.984122,Lincoln Square,10023
Metropolitan Opera,Concert Hall,40.772736,-73.984262,Lincoln Square,10023
American Ballet Theatre,Performing Arts Venue,40.772779,-73.984657,Lincoln Square,10023
Claire Tow Theater,Music Venue,40.773654,-73.984255,Lincoln Square,10023
Walter Reade Theater,Indie Movie Theater,40.772778,-73.982691,Lincoln Square,10023
Lincoln Center Out of Doors,Performing Arts Venue,40.772228,-73.985312,Lincoln Square,10023
Lincoln Center for the Performing Arts,Performing Arts Venue,40.77244,-73.983409,Lincoln Square,10023
New York Philharmonic,Concert Hall,40.772661,-73.983036,Lincoln Square,10023
David H Koch Theater,Music Venue,40.771835,-73.983659,Lincoln Square,10023
Alice Tully Hall,Music Venue,40.773485,-73.9825,Lincoln Square,10023
New York City Opera,Concert Hall,40.771782,-73.983613,Lincoln Square,10023
David Geffen Hall,Concert Hall,40.772771,-73.982953,Lincoln Square,10023
Elinor Bunin Munroe Film Center,Drive-in Theater,40.773459,-73.98346,Lincoln Square,10023
Big Apple Circus,Arts and Entertainment,40.772613,-73.982816,Lincoln Square,10023
AMC Loews Lincoln Square 13,Movie Theater,40.775177,-73.981823,Lincoln Square,10023
The Metropolitan Opera Stage Door,Opera House,40.773398,-73.98573,Lincoln Square,10023
Peter Jay Sharp Theatre,Concert Hall,40.773833,-73.983606,Lincoln Square,10023
David Rubenstein Atrium at Lincoln Center,Music Venue,40.771104,-73.982756,Hell's Kitchen,10023
The Chris Gethard Show,Comedy Club,40.771255,-73.989142,Lincoln Square,10019
Stanley Kaplan Penthouse,Music Venue,40.772631,-73.984171,Lincoln Square,10023
Merkin Concert Hall,Concert Hall,40.775201,-73.982917,Lincoln Square,10023
Bruno Walter Auditorium,Concert Hall,40.773851,-73.984962,Lincoln Square,10023
American Folk Art Museum,Museum,40.77324,-73.981573,Hell's Kitchen,10023
Rose Building,Performing Arts Venue,40.774624,-73.984293,Lincoln Square,10023
Manhattan Movement & Arts Center,Art Gallery,40.771629,-73.989288,Lincoln Square,10023
New York Philharmonic Digital Archives,Art Gallery,40.77414,-73.98423,Lincoln Square,10023
Furman Gallery Bergman Tree,Art Gallery,40.77414,-73.98423,Lincoln Square,10023
Metropolitan Opera Guild,Arts and Entertainment,40.774398,-73.984781,Lincoln Square,10023
Talk Cinema at Lincoln Center,Indie Movie Theater,40.773881,-73.983827,Lincoln Square,10023
MetOpera Tech Department,Opera House,40.772432,-73.985518,Lincoln Square,10023
Chamber Music Society of Lncln,Comedy Club,40.772834,-73.982649,Lincoln Square,10023
Juilliard Jazz,Concert Hall,40.773677,-73.983382,Lincoln Square,10023
Scope NY,Art Gallery,40.772413,-73.98425,Lincoln Square,10023
Travelers Patron Lounge,Theater,40.772122,-73.983772,Lincoln Square,10023
The Green,Public Art,40.772314,-73.983392,Lincoln Square,10023
Starr Theater,Concert Hall,40.773588,-73.982679,Lincoln Square,10023
Rosemary And Meredith Willson Theater At The Juilliard School,Performing Arts Venue,40.773425,-73.982716,Lincoln Square,10023
New York City Opera,Opera House,40.771979,-73.983301,Lincoln Square,10023
Rubylee Productions & K Bryant Voice Studio,Arts and Entertainment,40.775928,-73.983994,Lincoln Square,10023
Dante Statue,Public Art,40.771485,-73.98264,Hell's Kitchen,10023
Josh’s Lincoln Square House Of Musical Theatre,Theater,40.771976,-73.982441,Hell's Kitchen,10023
A Class Act NY,Music Venue,40.770972,-73.987645,San Juan Hill,10023
Barbie: The Dream Closet at Lincoln Center,Arts and Entertainment,40.770998,-73.982665,Hell's Kitchen,10023
Arthur Ross Architecture Gallery,Art Gallery,40.770861,-73.987728,San Juan Hill,10023
Arbor,Public Art,40.770977,-73.989437,Lincoln Square,10019
Wade Maxx Art Gallery,Art Gallery,40.775221,-73.980164,Lincoln Square,10023
The Anya and Andrew Shiva Gallery & President's Gallery,Art Gallery,40.771658,-73.990207,Lincoln Square,10019
South Pacific New York,Music Venue,40.773496,-73.984117,Lincoln Square,10023
Metropolitan Opera House,Music Venue,40.772782,-73.98457,Lincoln Square,10023
Rose Theater at Lincoln Center,Music Venue,40.773778,-73.983648,Lincoln Square,10023
Playwrights Horizons,Music Venue,40.758668,-73.993585,Hell's Kitchen,10036
Stage 42,Music Venue,40.758714,-73.993892,Hell's Kitchen,10036
The Westside Theater,Indie Theater,40.75935,-73.992765,Hell's Kitchen,10036
Voices of Gotham,Concert Hall,40.75725,-73.99414,Hell's Kitchen,10018
Rudy's Bar & Grill,Night Club,40.760014,-73.991715,Hell's Kitchen,10036
Theater Row,Theater,40.758483,-73.993488,Hell's Kitchen,10036
Peter Jay Sharp Theater,Indie Theater,40.758666,-73.993672,Hell's Kitchen,10036
DBL/ Dive Bar Lounge,Bowling Alley,40.762717,-73.993526,Clinton,10036
Actors Connection,Concert Hall,40.759976,-73.991146,Hell's Kitchen,10036
Theatre Row Studios,Music Venue,40.758402,-73.993443,Hell's Kitchen,10036
Penthouse Executive Club,Night Club,40.762946,-73.99703,Clinton,10036
Rosewood Theatre,Night Club,40.757856,-73.999669,Hell's Kitchen,10018
Kirk Theatre,Concert Hall,40.758402,-73.993443,Hell's Kitchen,10036
Signature Studio Theatre,Arts and Entertainment,40.759213,-73.995397,Hell's Kitchen,10036
42West,Comedy Club,40.759774,-73.996599,Hell's Kitchen,10036
Signature Cafe and Bar,Music Venue,40.759325,-73.995227,Hell's Kitchen,10036
The Romulus Linney Courtyard Theatre,Music Venue,40.759273,-73.995181,Hell's Kitchen,10036
Le Scandal Burlesque,Strip Club,40.758513,-73.99336,Hell's Kitchen,10036
Club ACE,Night Club,40.75709,-73.99409,Hell's Kitchen,10018
Affirmation Arts,Art Gallery,40.757178,-73.998812,Hell's Kitchen,10018
The New York Medium,Psychics and Astrologers,40.757839,-73.992329,Garment District,10036
Filmlab,Arts and Entertainment,40.761531,-73.999464,Hell's Kitchen,10036
Cityvox,Concert Hall,40.759808,-73.991358,Hell's Kitchen,10036
Concerts Under The Stars,Music Venue,40.75585,-73.998546,Hell's Kitchen,10018
Medialia Gallery,Art Gallery,40.755496,-73.993154,Garment District,10018
COMFORT WOMEN - A New Musical,Music Venue,40.761478,-73.991467,Hell's Kitchen,10036
42WESTny,Music Venue,40.759627,-73.996646,Hell's Kitchen,10036
The Pershing Square Signature Center,Indie Theater,40.759325,-73.995227,Hell's Kitchen,10036
Raw Space,Music Venue,40.760521,-73.996891,Hell's Kitchen,10036
American Lyric Theater Center,Arts and Entertainment,40.758458,-73.993402,Hell's Kitchen,10036
H.K. Hells Kitchen,Music Venue,40.756817,-73.994211,Hell's Kitchen,10018
The Producers Club Sonnet Theater New York,Theater,40.759427,-73.991474,Hell's Kitchen,10036
St Lukes Chamber Ensemble,Music Venue,40.757642,-73.991622,Hell's Kitchen,10036
Access Talent,Music Venue,40.760081,-73.991237,Hell's Kitchen,10036
Diva Jazz Band,Jazz and Blues Venue,40.761505,-74.000424,Hell's Kitchen,10036
A Queen for a Day,Ticket Seller,40.761579,-73.991733,Hell's Kitchen,10036
Stage Light Magazine,Arts and Entertainment,40.755098,-73.9979,Hell's Kitchen,10001
The Peccadillo Theater Company,Arts and Entertainment,40.761478,-73.991467,Hell's Kitchen,10036
Mass,Arts and Entertainment,40.755954,-73.992211,Garment District,10018
Belasco Theatre,Music Venue,40.756616,-73.983675,Midtown,10036
The Lionel Pincus and Princess Firyal Map Division,Art Gallery,40.753482,-73.981849,Midtown,10018
Hudson Theatre,Movie Theater,40.756969,-73.984606,Midtown,10036
Stephen Sondheim Theatre,Music Venue,40.755831,-73.98478,Midtown,10036
Le Carrousel in Bryant Park,Amusement Park,40.753483,-73.983814,Flatiron,10036
Town Hall,Music Venue,40.756056,-73.984439,Midtown,10036
The Raines Law Room at The William,Music Venue,40.750556,-73.980293,East Side,10016
Lyceum Theatre,Music Venue,40.757742,-73.984608,Midtown,10036
Harold and Miriam Steinberg Center For Theatre,Concert Hall,40.757775,-73.982715,Midtown,10036
Web3 Gallery,Art Gallery,40.753975,-73.980719,Midtown,10036
Manhattan Repertory Theatre,Theater,40.755956,-73.980154,Midtown,10036
Capa in Color - Museum of the International Center of Photography,Art Gallery,40.75602,-73.983783,Midtown,10036
Chashama,Art Gallery,40.756681,-73.983284,Midtown,10036
Mike Ruckles Voice Studio,Concert Hall,40.756864,-73.980496,Midtown,10036
Sapphire 39 Gentlemen's Club,Strip Club,40.751978,-73.983581,Flatiron,10018
Nebula,Night Club,40.754948,-73.985954,Midtown,10036
The Escape Game New York City,Arts and Entertainment,40.751924,-73.979604,East Side,10017
Site Safety,Amusement Park,40.751653,-73.983655,Flatiron,10018
Condé Nast Cafeteria,Museum,40.756289,-73.985803,Midtown,10036
Kenektid X Gallery,Art Gallery,40.752631,-73.985397,Garment District,10018
Grand Central Audio Tour,Arts and Entertainment,40.752636,-73.977185,East Side,10017
Continental Guest Services,Ticket Seller,40.757137,-73.98636,Midtown,10036
MTV The Seven Studio,Night Club,40.758193,-73.985222,Midtown,10036
17th Floor Studio,Concert Hall,40.757631,-73.986074,Midtown,10036
Hunkamania Male Strip Clubs,Strip Club,40.751825,-73.983269,Flatiron,10018
Friends of Bezalel Academy,Art Gallery,40.753242,-73.980747,Midtown,10017
Entertainment 360 New York,Arts and Entertainment,40.755644,-73.979705,Midtown,10036
Theatermania,Ticket Seller,40.756539,-73.982536,Midtown,10036
New York Center for the Strange,Psychics and Astrologers,40.755773,-73.978924,Midtown,10017
Elite Bureau Club,Strip Club,40.753825,-73.978643,East Side,10173
World Fashion Parade,Arts and Entertainment,40.75304,-73.984234,Flatiron,10018
360Tixx,Ticket Seller,40.75304,-73.984234,Flatiron,10018
Madam Tussauds NYC,Arts and Entertainment,40.752034,-73.981463,East Side,10016
Circle in the Square Theatre,Music Venue,40.755823,-73.984993,Midtown,10036
Source of Life Conference Center,Arts and Entertainment,40.751944,-73.982837,Garment District,10018
Art Loss Register,Art Gallery,40.755373,-73.977773,East Side,10017
Savagemania Male Strip Show,Night Club,40.751973,-73.983511,Flatiron,10018
Catherine Angiel's Gallery,Art Gallery,40.756964,-73.978796,Midtown,10036
Jewel Diamond Corporation,Arts and Entertainment,40.757016,-73.978842,Midtown,10036
Club 88,Night Club,40.751717,-73.983265,Flatiron,10018
Black Box Theatre,Music Venue,40.757771,-73.98289,Midtown,10036
Hariyama Ballet New York,Arts and Entertainment,40.752537,-73.984869,Garment District,10018
Art Collectors Gallery,Art Gallery,40.751818,-73.979512,East Side,10017
Christine Kubis,Music Venue,40.751469,-73.98046,East Side,10016
Broadway Roulette,Ticket Seller,40.755039,-73.986147,Midtown,10018
Arcieri & Assoc,Arts and Entertainment,40.751144,-73.981692,East Side,10016
The Cartoon Bank,Arts and Entertainment,40.7546,-73.986392,Garment District,10018
Fully Committed on Broadway,Music Venue,40.757673,-73.984503,Midtown,10036
New York Jazz Academy,Arts and Entertainment,40.758262,-73.983929,Midtown,10036
2Guystickets,Ticket Seller,40.755017,-73.986932,Midtown,10018
The Morgan Library and Museum,Museum,40.749238,-73.981526,East Side,10016
The Raines Law Room at The William,Music Venue,40.750556,-73.980293,East Side,10016
Union League Club,Night Club,40.748937,-73.980317,East Side,10016
Vr World NYC,Amusement Park,40.748031,-73.983907,East Side,10016
The Cutting Room,Music Venue,40.745848,-73.982817,East Side,10016
Romanian Cultural Institute,History Museum,40.747922,-73.975953,East Side,10016
The Little Prince Exhibition,Art Gallery,40.74934,-73.981381,East Side,10016
1st Dibbs NYDC,Art Gallery,40.745696,-73.980452,East Side,10016
Cipriani 42nd Street,Music Venue,40.751673,-73.976886,East Side,10017
Think Big Statue,Public Art,40.744935,-73.976667,East Side,10016
The Escape Game New York City,Arts and Entertainment,40.751924,-73.979604,East Side,10017
Thrillerfest,Arts and Entertainment,40.751798,-73.976279,East Side,10170
The Chris Gethard Show,Comedy Club,40.749995,-73.98311,East Side,10016
chashama - Office,Art Gallery,40.750944,-73.973931,East Side,10017
Grand Central Audio Tour,Arts and Entertainment,40.752636,-73.977185,East Side,10017
Opus 3 Artists,Arts and Entertainment,40.745527,-73.982717,East Side,10016
Rare View Rooftop at the Shelbourne Hotel,Arts and Entertainment,40.748462,-73.97794,East Side,10016
Visiting Art Therapy,Art Gallery,40.748115,-73.9788,East Side,10016
McPhillamyTarot,Psychics and Astrologers,40.747144,-73.978762,East Side,10016
Scandinavia House: The Nordic Center in America,Museum,40.749322,-73.980026,East Side,10016
Shotgun Productions,Music Venue,40.746684,-73.977827,East Side,10016
Central Park-Loeb Boathouse/Bethesda Fountain,Music Venue,40.749873,-73.979611,East Side,10016
Henry Ford Museum,Museum,40.750169,-73.976652,East Side,10017
Om from India,Art Gallery,40.745637,-73.97665,East Side,10016
Terence McInerney Fine Arts,Art Gallery,40.750145,-73.981543,East Side,10016
HLK Art Group,Art Gallery,40.750145,-73.981543,East Side,10016
Jeannie Reed Psychic,Psychics and Astrologers,40.746789,-73.981936,East Side,10016
Guy Regal Decorative Arts,Art Gallery,40.745584,-73.980623,East Side,10016
Presentations Gallery,Art Gallery,40.745584,-73.980623,East Side,10016
American Friends of the Israel Philharmonic Orchestra,Music Venue,40.751359,-73.976524,East Side,10168
Folksbiene Yiddish Theatre,Arts and Entertainment,40.74678,-73.982285,East Side,10016
Lfl Productions & Ladanorama,Arts and Entertainment,40.744904,-73.977801,East Side,10016
Verge Art Fair at the Dylan Hotel,Arts and Entertainment,40.751718,-73.979246,East Side,10017
Christine Kubis,Music Venue,40.751469,-73.98046,East Side,10016
Art Collectors Gallery,Art Gallery,40.751818,-73.979512,East Side,10017
AGNES - Certified Psychic-Medium-Healer,Psychics and Astrologers,40.751519,-73.980593,East Side,10016
British Academy Of Film Television Artsnew York New York,Arts and Entertainment,40.746291,-73.982397,East Side,10016
Personnel Touch,Art Gallery,40.751869,-73.979645,East Side,10017
Arcieri & Assoc,Arts and Entertainment,40.751144,-73.981692,East Side,10016
United Restaurant & Tavern,Arts and Entertainment,40.752381,-73.978661,East Side,10165
ER Bar & Lounge,Night Club,40.744456,-73.97643,East Side,10016
NYU Psychic Love Healer,Psychics and Astrologers,40.744403,-73.976384,East Side,10016
Sasha Graham Tarot Diva,Psychics and Astrologers,40.745795,-73.982771,East Side,10016
Madam Tussauds NYC,Arts and Entertainment,40.752034,-73.981463,East Side,10016
Lion Heart Autographs,Art Gallery,40.746668,-73.972907,East Side,10016
Atlantic Theater Company,Movie Theater,40.743939,-74.001521,Chelsea,10011
Tao Downtown,Night Club,40.742413,-74.004038,Chelsea,10011
Joyce Theater,Concert Hall,40.742829,-74.000648,Chelsea,10011
David Zwirner Gallery,Art Gallery,40.745736,-74.006833,Chelsea,10011
SVA Theatre,Movie Theater,40.746036,-73.99977,Chelsea,10011
David Zwirner Gallery,Art Gallery,40.746635,-74.007329,Chelsea,10011
PHD Rooftop Lounge at Dream Downtown,Night Club,40.742212,-74.003506,Chelsea,10011
Gagosian Gallery 21,Art Gallery,40.746838,-74.006587,Chelsea,10011
Purple Passion/DV8,Strip Club,40.742591,-73.997494,Chelsea,10011
Jack Shainman Gallery,Art Gallery,40.746242,-74.006111,Chelsea,10011
Taglialatella Galleries,Art Gallery,40.748186,-74.004048,Chelsea,10011
Cinépolis Luxury Cinemas,Movie Theater,40.744896,-73.998065,Chelsea,10011
Lisson Gallery,Art Gallery,40.748344,-74.004185,Chelsea,10011
Dia:Chelsea,Art Gallery,40.747859,-74.006175,Chelsea,10011
Chelsea Music Hall,Arts and Entertainment,40.742002,-74.005288,Chelsea,10011
Paula Cooper Gallery,Art Gallery,40.747058,-74.006841,Chelsea,10011
ARTECHOUSE New York,Arts and Entertainment,40.74251,-74.006443,Chelsea,10011
Chisholm Larsson Gallery,Art Gallery,40.741896,-74.001208,Chelsea,10011
Barracuda Bar,Night Club,40.74446,-73.998223,Chelsea,10011
Bruce Silverstein Gallery,Art Gallery,40.746599,-74.006867,Chelsea,10011
Michael Rosenfeld Gallery,Art Gallery,40.746144,-74.007723,Chelsea,10011
Museum Of Illu,Museum,40.739639,-74.00288,Chelsea,10014
Artworks & Projects,Art Gallery,40.747861,-74.006088,Chelsea,10011
Atlantic Stage 2,Music Venue,40.741421,-74.002819,Chelsea,10011
The D Lounge,Music Venue,40.740684,-74.002179,Chelsea,10011
The Dime,Night Club,40.74112,-74.003986,Chelsea,10011
Say Something Bunny,Music Venue,40.746297,-74.006069,Chelsea,10011
Penton,Arts and Entertainment,40.741438,-74.000243,Chelsea,10011
Slag Gallery,Art Gallery,40.745459,-74.007128,Chelsea,10011
Kathryn Markel Fine Arts,Art Gallery,40.746599,-74.006867,Chelsea,10011
Victori+mo Contemporary,Art Gallery,40.743875,-73.997894,Chelsea,10011
International Cinematograph,Movie Theater,40.739989,-74.001933,Chelsea,10011
Carolina Nitsch Project Room,Art Gallery,40.747583,-74.006382,Chelsea,10011
Under The High Line,Theater,40.741557,-74.007759,Chelsea,10014
Tetkowski Studio,Arts and Entertainment,40.744452,-74.004468,Chelsea,10011
Linda Gross Theater,Theater,40.743989,-74.001654,Chelsea,10011
Astrology Connection,Psychics and Astrologers,40.743272,-74.000951,Chelsea,10011
New York Asian Escort,Strip Club,40.742681,-74.000161,Chelsea,10011
Beer Garden,Night Club,40.744979,-74.006891,Chelsea,10011
Hangman,Art Gallery,40.7416,-74.006189,Chelsea,10014
Herbert Arnot,Art Gallery,40.746445,-74.006556,Chelsea,10011
Collective Design Fair,Art Gallery,40.747534,-74.002231,Chelsea,10011
Dia Center For The Arts,Art Museum,40.747449,-74.005373,Chelsea,10011
Sperone Westwater,Art Gallery,40.740781,-74.00655,Chelsea,10014
Angelika Film Center,Indie Movie Theater,40.725934,-73.997055,Downtown,10012
Vesuvio Bakery,Arts and Entertainment,40.725918,-74.001595,Downtown,10012
The Up and Up,Night Club,40.729613,-74.000606,Downtown,10012
Comedy Cellar,Comedy Club,40.730155,-74.00054,Downtown,10012
Le Poisson Rouge,Rock Club,40.728389,-73.99999,Downtown,10012
Film Forum,Indie Movie Theater,40.728326,-74.00431,Downtown,10014
The New York Earth Room,Art Gallery,40.725856,-73.999934,Downtown,10012
IFC Center,Drive-in Theater,40.731185,-74.001536,Downtown,10014
Blue Note,Jazz and Blues Venue,40.730851,-74.000698,Downtown,10012
Madame X,Night Club,40.727202,-74.00003,Downtown,10012
NYU Skirball Center for the Performing Arts,Music Venue,40.729689,-73.997815,Downtown,10012
Soho Playhouse,Concert Hall,40.726436,-74.004385,Downtown,10013
S.O.B.'s,Music Venue,40.728467,-74.005057,Downtown,10014
HERE Arts Center,Concert Hall,40.725074,-74.004879,Downtown,10013
Screening Room At The Crosby Hotel,Indie Movie Theater,40.723067,-73.997335,Downtown,10012
DTR Modern Gallery,Art Gallery,40.72621,-74.000777,Downtown,10012
The Gym at Judson Memorial Church,Indie Theater,40.730222,-73.998253,Downtown,10012
Museum of Ice Cream,Museum,40.72376,-73.997668,Downtown,10012
Martin Lawrence Galleries,Art Gallery,40.726167,-74.000382,Downtown,10012
Opera Gallery,Art Gallery,40.723806,-73.99994,Downtown,10012
Kimmel Gallery Windows - Sustainability at NYU,Art Gallery,40.728904,-73.998919,Downtown,10012
Time Landscape,Arts and Entertainment,40.727151,-73.999897,Downtown,10012
Prince St Project Space,Art Gallery,40.725631,-74.000274,Downtown,10012
Drag Queen Bingo,Night Club,40.728332,-74.000119,Downtown,10012
White Circle Foundation,Art Gallery,40.72491,-74.000988,Downtown,10012
The Wall by Forrest Myers,Public Art,40.72539,-73.997209,Downtown,10012
Clive Davis Inst. Studio 510,Music Venue,40.726212,-73.996761,Downtown,10012
Improvolution,Comedy Club,40.73021,-74.000498,Downtown,10012
Village Psychic,Psychics and Astrologers,40.730475,-74.00064,Downtown,10012
Sterling Lord Literistic,Museum,40.726314,-73.994975,Downtown,10012
Geary Contemporary,Art Gallery,40.727804,-74.005642,Downtown,10014
The Piano Man,Public Art,40.730309,-73.996835,Downtown,10003
Frantiques Gallery,Art Gallery,40.729973,-74.00324,Downtown,10014
Gucci Art Wall,Public Art,40.72329,-73.997082,Downtown,10012
Bond Street Theatre Coalition,Music Venue,40.726975,-73.994477,Downtown,10012
Caldwell Snyder Gallery,Art Gallery,40.725841,-74.000457,Downtown,10012
Chaim Gross Studio Museum,Museum,40.728457,-73.998864,Downtown,10012
Tony Shafrazi Gallery,Art Gallery,40.725082,-74.000602,Downtown,10012
Soho Psychic,Psychics and Astrologers,40.725643,-74.001802,Downtown,10012
"Channeled Psychic Readings, Medical Intuition, Massage Therapy",Psychics and Astrologers,40.729297,-73.998367,Downtown,10012
Blue Man Group,Music Venue,40.729577,-73.99995,Downtown,10012
Guided By Invoices,Art Gallery,40.726879,-73.996001,Downtown,10012
Alternative Museum,Art Museum,40.724911,-73.996971,Downtown,10012
Transfer International,Museum,40.724969,-73.996843,Downtown,10012
Talk Like Singing,Music Venue,40.729684,-73.997989,Downtown,10012
Accomplice,Concert Hall,40.726623,-73.995511,Downtown,10012
Players Theater - Box Office,Theater,40.73026,-74.000631,Downtown,10012
Skirball Center For The Performing Arts At Nyu New York,Music Venue,40.730012,-73.997827,Downtown,10012
Master Kings Entertainment,Music Venue,40.723931,-74.003263,Chinatown,10012
MBM Records,Arts and Entertainment,40.723207,-73.99817,Downtown,10012
Bathhouse Studios,Movie Theater,40.72758,-73.980094,Alphabet City,10009
Club Cumming,Arts and Entertainment,40.725438,-73.983503,Alphabet City,10009
Orpheum Theatre,Movie Theater,40.728239,-73.987629,Downtown,10003
Theater for the New City,Music Venue,40.728693,-73.984809,Downtown,10003
Dream Baby,Night Club,40.727153,-73.979903,Alphabet City,10009
Nublu,Night Club,40.725646,-73.977984,Alphabet City,10009
7B Horseshoe Bar aka Vazacs,Arcade,40.725059,-73.981567,Alphabet City,10009
Connelly Theater,Concert Hall,40.723496,-73.983514,Alphabet City,10009
Planet Rose,Night Club,40.730042,-73.980801,Alphabet City,10009
City Cinemas Village East,Indie Movie Theater,40.730921,-73.986206,Downtown,10003
Doc Holliday's,Night Club,40.727124,-73.983001,Alphabet City,10009
Nowhere,Night Club,40.73184,-73.984146,East Village,10003
Coney Island Baby,Music Venue,40.72839,-73.982046,Alphabet City,10009
O'hanlons,Pool Hall,40.731662,-73.982742,East Village,10003
Drom,Jazz and Blues Venue,40.725307,-73.98437,Alphabet City,10009
Museum of Reclaimed Urban Space,History Museum,40.725745,-73.977907,Alphabet City,10009
Joe Strummer Mural,Public Art,40.725871,-73.983432,Alphabet City,10009
The Cabin Down Below,Arts and Entertainment,40.725871,-73.983432,Alphabet City,10009
Black Or White,Public Art,40.7291,-73.983733,Alphabet City,10009
Wendigo Productions NY,Arts and Entertainment,40.727713,-73.979139,Alphabet City,10009
Ed. Varie,Art Gallery,40.724342,-73.980142,Alphabet City,10009
The Phatory,Art Gallery,40.725862,-73.979765,Alphabet City,10009
The Theater at the 14th Street Y,Indie Theater,40.729167,-73.979239,Alphabet City,10003
Dacia Gallery,Art Gallery,40.727141,-73.978377,Alphabet City,10009
Psychic Shana,Arts and Entertainment,40.726509,-73.985771,Alphabet City,10009
Sage Stand-Up,Comedy Club,40.728682,-73.987209,Downtown,10003
The Gallery,Art Gallery,40.725084,-73.978643,Alphabet City,10009
Magic Rooftop,Arts and Entertainment,40.723843,-73.982654,Alphabet City,10009
3A Gallery,Art Gallery,40.724026,-73.979868,Alphabet City,10009
The Artist Project New York,Art Gallery,40.72415,-73.985242,Alphabet City,10009
Painting Space 122 Assoc,Arts and Entertainment,40.728161,-73.984526,Alphabet City,10009
Ruth Bader Ginsburg Mural,Public Art,40.729384,-73.984013,Downtown,
Madame Nadine Astrology,Psychics and Astrologers,40.729302,-73.980248,Alphabet City,10009
Art For Progress,Arts and Entertainment,40.728583,-73.984892,Downtown,10003
Bistro St Mark's,Music Venue,40.727637,-73.985946,Alphabet City,10003
Vazacs Horseshoe Bar,Arcade,40.725008,-73.981434,Alphabet City,10009
The Present Theatre Company,Theater,40.724961,-73.983178,Alphabet City,10009
Blue & Gold Bar,Night Club,40.727309,-73.986108,Alphabet City,10003
New York City Tarot Card Reader,Psychics and Astrologers,40.731279,-73.982945,East Village,10003
Code NYC Magazine,Arts and Entertainment,40.731276,-73.983032,East Village,10003
Mimi Sternwolfe New York,Arts and Entertainment,40.730674,-73.985367,Downtown,10003
Literal Latte,Arts and Entertainment,40.729561,-73.986633,Downtown,10003
Museum of Reclaimed Urban Space - MoRUS,Museum,40.725641,-73.977966,Alphabet City,10009
Cava Glass,Art Gallery,40.724296,-73.979835,Alphabet City,10009
Stomp,Music Venue,40.728253,-73.987595,Downtown,10003
Tamar Rogoff Performance Prj,Arts and Entertainment,40.726151,-73.977069,Alphabet City,10009
Beekman Theatre,Arts and Entertainment,40.731029,-73.98621,Downtown,10003
Spoke Art,Art Gallery,40.718553,-73.982797,Downtown,10002
Kings Co Imperial,Music Venue,40.718051,-73.985396,Downtown,10002
Caveat,Comedy Club,40.720774,-73.984455,Chinatown,10002
Abrons Arts Center,Arts and Entertainment,40.715235,-73.983845,Downtown,10002
Nuyorican Poets Cafe,Rock Club,40.721982,-73.981665,Alphabet City,10009
Rachel Uffner Gallery,Art Gallery,40.720819,-73.984762,Chinatown,10002
The Delancey,Music Venue,40.717946,-73.985304,Downtown,10002
Hashimoto Contemporary,Art Gallery,40.718558,-73.982622,Downtown,10002
Kansas Gallery,Art Gallery,40.718608,-73.982755,Downtown,10002
Fridafest,Pool Hall,40.720582,-73.979559,Alphabet City,10009
Collective Futures Exhibition,Art Gallery,40.717955,-73.984956,Downtown,10002
Totah,Art Gallery,40.719873,-73.983852,Downtown,10002
Bodega,Art Gallery,40.718822,-73.984815,Downtown,10002
Clemente Soto Velez Cultural & Educational Center,Music Venue,40.718945,-73.98626,Chinatown,10002
Georgie's,Rock Club,40.717951,-73.98513,Downtown,10002
Bullet Space Housing Developme,Art Gallery,40.721219,-73.979933,Alphabet City,10009
Space 776,Art Gallery,40.720062,-73.98482,Chinatown,10002
Grand Projects,Art Gallery,40.714854,-73.983961,Downtown,10002
A Gathering of the Tribes,Art Gallery,40.721559,-73.979845,Alphabet City,10009
Kates-Ferri projects,Art Gallery,40.713902,-73.98021,Downtown,10002
Hubneo VR Lab,Arts and Entertainment,40.718789,-73.986036,Chinatown,10002
Kai Matsumiya,Art Gallery,40.720221,-73.984957,Chinatown,10002
Abxy Les,Art Gallery,40.721011,-73.984203,Downtown,10002
Bromstone Spencer Gallery 99,Art Gallery,40.720869,-73.984895,Chinatown,10002
Trotter&Sholer,Art Gallery,40.720867,-73.984982,Chinatown,10002
New Federal Theatre,Movie Theater,40.713795,-73.983222,Downtown,10002
Kenkeleba House Garden,Art Gallery,40.722059,-73.982803,Alphabet City,10009
Showtime Event Planning,Night Club,40.719918,-73.982195,Downtown,10002
Studio 231,Art Museum,40.720416,-73.981735,Downtown,10012
Lichtundfire Art Gallery,Art Gallery,40.718772,-73.984682,Downtown,10002
Luxury Universal Experience,Arts and Entertainment,40.715244,-73.983496,Downtown,10002
Spiritual Healer Spiritual Adviser,Psychics and Astrologers,40.718003,-73.985176,Downtown,10002
Visions,Arts and Entertainment,40.715345,-73.983762,Downtown,10002
Bulletspace,Art Gallery,40.721061,-73.979796,Alphabet City,10009
Harry Dejur/Playhouse,Music Venue,40.715235,-73.983845,Downtown,10002
292 Gallery,Art Gallery,40.721169,-73.9798,Alphabet City,10009
Basketball City,Stadium,40.717389,-73.975986,Downtown,10002
Radical Vaudeville - Monthly Show,Music Venue,40.720771,-73.984542,Chinatown,10002
Theatre Nohgaku,Music Venue,40.713959,-73.979169,Downtown,10002
Daniel Jay,Arts and Entertainment,40.721674,-73.979077,Alphabet City,10009
Smart Clothes Gallery,Art Gallery,40.720544,-73.98497,Chinatown,10002
Kai Matsumiya Fine Arts Gallery,Art Gallery,40.720321,-73.985223,Chinatown,10002
spiritual consultant & Love analyst,Psychics and Astrologers,40.721159,-73.984164,Downtown,10002
Psychic Readings by Lila,Psychics and Astrologers,40.716043,-73.985885,Downtown,10002
Arts For Art,Concert Hall,40.719024,-73.986243,Chinatown,10002
Killers: A Nightmare Haunted House,Arts and Entertainment,40.719053,-73.986264,Chinatown,10002
Hot Hot Asians,Strip Club,40.71357,-73.981598,Downtown,10002
Fragmental Museum,Museum,40.71916,-73.986269,Chinatown,10002
La Tea Theater,Music Venue,40.71905,-73.986352,Chinatown,10002
Tribeca Film Center,Movie Theater,40.719594,-74.010032,Civic Center,10013
Taymour Grahne Gallery,Art Gallery,40.721737,-74.008589,Civic Center,10013
Spring Studios,Concert Hall,40.721152,-74.006296,Civic Center,10013
Pier 25 Mini Golf,Mini Golf Course,40.720286,-74.014293,Downtown,10013
Tribeca Performing Arts Center,Jazz and Blues Venue,40.717374,-74.012301,Battery Park City,10007
Ghostbusters Headquarters,Arts and Entertainment,40.719579,-74.006626,Civic Center,10013
Art Projects International,Art Gallery,40.72251,-74.009885,Civic Center,10013
Parr Studios,Art Gallery,40.722649,-74.01072,Downtown,10013
Vinyl,Arts and Entertainment,40.721512,-74.008929,Civic Center,10013
Hazan Cheryl Arts,Art Gallery,40.720031,-74.007823,Civic Center,10013
Tug Pegasus Preservation Project,History Museum,40.720351,-74.013903,Downtown,10013
American Numismatic Society,History Museum,40.723355,-74.006601,Civic Center,10013
Masters & Pelavin,Art Gallery,40.718202,-74.009627,Civic Center,10013
Tribeca Storyscapes,Arts and Entertainment,40.720934,-74.006374,Civic Center,10013
TribecaFilm.com,Arts and Entertainment,40.722074,-74.006114,Civic Center,10013
Ascent Contemporary Projects,Art Gallery,40.72159,-74.006051,Civic Center,10013
SAPAR Contemporary,Art Gallery,40.720019,-74.006294,Civic Center,10013
Johnson trading gallery,Art Gallery,40.725113,-74.009378,Downtown,10013
A+ E Studios,Art Gallery,40.717603,-74.007857,Civic Center,10013
James Brown House,Museum,40.72581,-74.009536,Downtown,10013
iHeartRadio Music Studios,Music Venue,40.72027,-74.004995,Civic Center,10013
Renwick Gallery,Art Gallery,40.725566,-74.00861,Downtown,10013
TP's Ranch,Music Venue,40.72027,-74.004995,Civic Center,10013
Ortuzar Projects,Art Gallery,40.719119,-74.005691,Civic Center,10013
Karmalooptv,Arts and Entertainment,40.724613,-74.009925,Downtown,10013
Museum Editions Art Advisors New York,Arts and Entertainment,40.722563,-74.009931,Civic Center,10013
Hpgrp Gallery,Art Gallery,40.722565,-74.009844,Civic Center,10013
Urbanworld Film Festival,Arts and Entertainment,40.719701,-74.010036,Civic Center,10013
Varied Land International,Arts and Entertainment,40.719656,-74.009728,Civic Center,10013
Panamax Films,Movie Theater,40.723133,-74.008819,Civic Center,10013
Naked Angels,Music Venue,40.72324,-74.008823,Downtown,10013
Cravegossip,Arts and Entertainment,40.723506,-74.008965,Downtown,10013
Mixit Productions,Music Venue,40.724666,-74.009971,Downtown,10013
Film Independent,Arts and Entertainment,40.721315,-74.006258,Civic Center,10013
Reservoir Media,Arts and Entertainment,40.722705,-74.006365,Civic Center,10013
The Ghostbusters Fire Station,Arts and Entertainment,40.719583,-74.006452,Civic Center,10013
Museum of Chinese in America,History Museum,40.719517,-73.998985,Chinatown,10013
Bowery Ballroom,Rock Club,40.720372,-73.9933,Chinatown,10002
CloudM Rooftop Bar,Music Venue,40.720528,-73.993525,Chinatown,10002
Dixon Place,Music Venue,40.720655,-73.992831,Chinatown,10002
Goldbar,Night Club,40.720433,-73.997013,Chinatown,10013
New Museum,Art Museum,40.722321,-73.993028,Chinatown,10002
Canary Club,Jazz and Blues Venue,40.718667,-73.992535,Chinatown,10002
Screening Room At The Crosby Hotel,Indie Movie Theater,40.723067,-73.997335,Downtown,10012
Museum of Ice Cream,Museum,40.72376,-73.997668,Downtown,10012
The Vig Bar,Night Club,40.72116,-73.994618,Chinatown,10012
379 Art Gallery,Art Gallery,40.720282,-73.996614,Chinatown,10013
Michele Auriaud Gallery,Art Gallery,40.719622,-73.999076,Chinatown,10013
The Shed,Art Gallery,40.720512,-73.996099,Chinatown,10012
Sohotel Gallery,Art Gallery,40.719573,-73.994928,Chinatown,10003
Buff Monster's Studio,Art Gallery,40.71925,-73.994915,Chinatown,10013
Oculus Go,Exhibit,40.720731,-73.999949,Chinatown,10012
81 Gallery,Art Gallery,40.720864,-73.995066,Chinatown,10012
Amaridian,Art Gallery,40.719566,-74.00088,Chinatown,10013
Gorilla Perfume Gallery,Arts and Entertainment,40.722218,-73.99883,Chinatown,10012
Sloomoo Institute,Museum,40.721416,-74.000544,Chinatown,10013
Massey Klein Gallery,Art Gallery,40.719435,-73.992041,Chinatown,10002
The Concept,Night Club,40.715912,-73.99666,Chinatown,10013
Museum Of Plastic by Lonely Whale,Art Museum,40.721414,-74.000631,Chinatown,10013
Os NYC,Arcade,40.715802,-73.996743,Chinatown,10013
The Lombardi Case 1975,Theater,40.722691,-73.995312,Chinatown,10012
Signs and Symbols,Art Gallery,40.718238,-73.992431,Chinatown,10002
Artists Space,Art Gallery,40.71787,-74.002019,Chinatown,10013
Gucci Art Wall,Public Art,40.72329,-73.997082,Downtown,10012
Canada,Art Gallery,40.719355,-74.002951,Chinatown,10013
Manhattan Children's Theatre,Theater,40.718019,-74.002505,Chinatown,10013
Larry Singer Studios,Music Venue,40.717996,-73.999361,Chinatown,10013
Lyle O Reitzel Gallery,Art Gallery,40.719287,-73.991555,Chinatown,10002
Blumarts,Art Gallery,40.719662,-73.997594,Chinatown,10013
Cathy s Psychic Gallery,Psychics and Astrologers,40.719034,-73.994906,Chinatown,10013
Stratton Manhattan Arts,Art Gallery,40.718844,-73.999919,Chinatown,10013
Nothing Changes,Concert Hall,40.719453,-73.993395,Chinatown,10002
Cuban Ashley of New York,Strip Club,40.720535,-74.001208,Chinatown,10013
The Contenders,Arts and Entertainment,40.721471,-74.000503,Chinatown,10013
Gail Goldsmith,Exhibit,40.717463,-73.993186,Chinatown,10002
Boo-Hooray,Museum,40.717582,-73.992754,Chinatown,10002
Van Doren Waxter Gallery,Arts and Entertainment,40.721301,-73.992857,Chinatown,10002
MBM Records,Arts and Entertainment,40.723207,-73.99817,Downtown,10012
V Agency,Art Gallery,40.720559,-74.0023,Chinatown,10013
Suzanne Randolph Fine Arts,Arts and Entertainment,40.718931,-74.002672,Chinatown,10013
Carriage Trade,Art Gallery,40.718876,-74.002713,Chinatown,10013
Leslie-Lohman Museum of Gay and Lesbian Art,Art Museum,40.721618,-74.00304,Chinatown,10013
Museum of Chinese in America,History Museum,40.719517,-73.998985,Chinatown,10013
Spring Studios,Concert Hall,40.721152,-74.006296,Civic Center,10013
Vesuvio Bakery,Arts and Entertainment,40.725918,-74.001595,Downtown,10012
HERE Arts Center,Concert Hall,40.725074,-74.004879,Downtown,10013
Screening Room At The Crosby Hotel,Indie Movie Theater,40.723067,-73.997335,Downtown,10012
Lumas,Art Gallery,40.726651,-74.000445,Downtown,10012
The New York Earth Room,Art Gallery,40.725856,-73.999934,Downtown,10012
Museum of Ice Cream,Museum,40.72376,-73.997668,Downtown,10012
Goldbar,Night Club,40.720433,-73.997013,Chinatown,10013
Opera Gallery,Art Gallery,40.723806,-73.99994,Downtown,10012
DTR Modern Gallery,Art Gallery,40.72621,-74.000777,Downtown,10012
Martin Lawrence Galleries,Art Gallery,40.726167,-74.000382,Downtown,10012
Museum Of Plastic by Lonely Whale,Art Museum,40.721414,-74.000631,Chinatown,10013
Sloomoo Institute,Museum,40.721416,-74.000544,Chinatown,10013
Gorilla Perfume Gallery,Arts and Entertainment,40.722218,-73.99883,Chinatown,10012
Oculus Go,Exhibit,40.720731,-73.999949,Chinatown,10012
Amaridian,Art Gallery,40.719566,-74.00088,Chinatown,10013
White Circle Foundation,Art Gallery,40.72491,-74.000988,Downtown,10012
Michele Auriaud Gallery,Art Gallery,40.719622,-73.999076,Chinatown,10013
Gucci Art Wall,Public Art,40.72329,-73.997082,Downtown,10012
Turn Gallery,Art Gallery,40.7201,-74.003329,Chinatown,10013
The Palace,Night Club,40.721072,-74.00427,Civic Center,10013
Sous Les Etoiles,Art Gallery,40.723922,-73.997631,Downtown,10012
Denny Dimin Gallery,Art Gallery,40.71999,-74.003412,Chinatown,10013
Canada,Art Gallery,40.719355,-74.002951,Chinatown,10013
Prince St Project Space,Art Gallery,40.725631,-74.000274,Downtown,10012
379 Art Gallery,Art Gallery,40.720282,-73.996614,Chinatown,10013
The Shed,Art Gallery,40.720512,-73.996099,Chinatown,10012
Ascent Contemporary Projects,Art Gallery,40.72159,-74.006051,Civic Center,10013
The Wall by Forrest Myers,Public Art,40.72539,-73.997209,Downtown,10012
The Lombardi Case 1975,Theater,40.722691,-73.995312,Chinatown,10012
Artists Space,Art Gallery,40.71787,-74.002019,Chinatown,10013
Deli Gallery,Art Gallery,40.718763,-74.004371,Civic Center,10013
81 Gallery,Art Gallery,40.720864,-73.995066,Chinatown,10012
Manhattan Children's Theatre,Theater,40.718019,-74.002505,Chinatown,10013
The Contenders,Arts and Entertainment,40.721471,-74.000503,Chinatown,10013
Johnson Trading Gallery,Art Gallery,40.723028,-74.000782,Chinatown,10012
Hotlist,Night Club,40.722432,-74.002854,Chinatown,10013
Cuban Ashley of New York,Strip Club,40.720535,-74.001208,Chinatown,10013
The Wosster Group,Movie Theater,40.722212,-74.00302,Chinatown,10013
Symbolic London,Museum,40.723409,-74.002631,Chinatown,10013
V Agency,Art Gallery,40.720559,-74.0023,Chinatown,10013
MBM Records,Arts and Entertainment,40.723207,-73.99817,Downtown,10012
Master Kings Entertainment,Music Venue,40.723931,-74.003263,Chinatown,10012
Tony Shafrazi Gallery,Art Gallery,40.725082,-74.000602,Downtown,10012
Stratton Manhattan Arts,Art Gallery,40.718844,-73.999919,Chinatown,10013
Blumarts,Art Gallery,40.719662,-73.997594,Chinatown,10013
Soho Psychic,Psychics and Astrologers,40.725643,-74.001802,Downtown,10012
Suzanne Randolph Fine Arts,Arts and Entertainment,40.718931,-74.002672,Chinatown,10013
Smalls Jazz Club,Jazz and Blues Venue,40.734413,-74.002629,Downtown,10014
Friends Apartment,Arts and Entertainment,40.732285,-74.005514,Downtown,10014
Mezzrow,Jazz and Blues Venue,40.734541,-74.001936,Downtown,10014
Perry St66,Arts and Entertainment,40.735566,-74.003898,Downtown,10014
Cherry Lane Theatre,Music Venue,40.731322,-74.005319,Downtown,10014
Village Vanguard,Night Club,40.736003,-74.001688,Downtown,10014
New Ohio Theatre,Music Venue,40.732527,-74.008493,Downtown,10014
Stonewall Inn,Night Club,40.733886,-74.002172,Downtown,10014
The Duplex,Night Club,40.733762,-74.002493,Downtown,10014
Monster,Night Club,40.733353,-74.002354,Downtown,10014
Rock Bar,Arts and Entertainment,40.732657,-74.009677,Downtown,10014
Labyrinth Theater Company,Music Venue,40.73634,-74.009125,Downtown,10014
Maccarone,Art Gallery,40.730916,-74.008254,Downtown,10014
Gallery Sand,Art Gallery,40.735855,-74.003167,Downtown,10014
Eli Klein Gallery,Art Gallery,40.733299,-74.009877,Downtown,10014
Thriller City NYC,Arts and Entertainment,40.736367,-74.008165,Chelsea,10014
Frank's Bar,Night Club,40.735819,-74.00251,Downtown,10011
Westbeth Theatre Center,Music Venue,40.736396,-74.009083,Downtown,10011
Axis Theatre Co.,Music Venue,40.732763,-74.001822,Downtown,10014
American Express Experience,Exhibit,40.73783,-74.007917,Chelsea,10014
The ATP Gallery,Art Gallery,40.731549,-74.002822,Downtown,10014
Jane Hartsook Gallery,Art Gallery,40.731726,-74.002261,Downtown,10014
22Leroy Studios,Music Venue,40.7305,-74.003697,Downtown,10014
The Village Pet Store and Charcoal Grill,Art Gallery,40.732675,-74.003085,Downtown,10014
Bender,Art Gallery,40.734759,-74.005787,Downtown,10014
Dragonflies & Gargoyles,Arts and Entertainment,40.733671,-74.004128,Downtown,10014
Tristatereflexologyassociation.Org,Country Club,40.733341,-74.004377,Downtown,10014
Abingdon Square Park,Arts and Entertainment,40.736115,-74.005535,Chelsea,10014
Grove Street Apartments,Music Venue,40.73285,-74.004576,Downtown,10014
Museum Of Comic & Cartoon Art,Art Gallery,40.732329,-74.007874,Downtown,10014
Ground Up Productions,Concert Hall,40.731792,-74.0058,Downtown,10014
Jazz Nights,Jazz and Blues Venue,40.733771,-74.002429,Downtown,10014
Karin Batten Fine Arts,Art Gallery,40.736707,-74.009532,Downtown,10014
Lizzie Corday Piano Tuner,Arts and Entertainment,40.737098,-74.003085,Chelsea,10014
International Theatre And Literacy Project,Music Venue,40.731594,-74.009111,Downtown,10014
Cornelia Downstairs,Arts and Entertainment,40.731486,-74.002489,Downtown,10014
School of Oracles,Psychics and Astrologers,40.73174,-74.001738,Downtown,10014
NYC Asian Escort,Strip Club,40.73635,-74.000828,Downtown,10011
Nobody Told Me,Night Club,40.800725,-73.965202,Manhattan Valley,10025
Urban Ballet Theater,Music Venue,40.795785,-73.962169,Manhattan Valley,10025
New Stage Performance Space,Theater,40.798031,-73.960988,Manhattan Valley,10025
Cafe Victoria Event Venue,Concert Hall,40.799517,-73.96192,Manhattan Valley,10025
Mehu Gallery,Art Gallery,40.794722,-73.96357,Manhattan Valley,10025
Peg Alston Fine Arts,Art Gallery,40.794688,-73.962826,Manhattan Valley,10025
Program Room,Arts and Entertainment,40.795954,-73.967946,Manhattan Valley,10025
Dazzling Discoveries STEM Education Center,Arts and Entertainment,40.800275,-73.961862,Harlem,10025
Karisma Dance,Salsa Club,40.7999,-73.967793,Manhattan Valley,10025
Group Theatre Too,Music Venue,40.794669,-73.963525,Manhattan Valley,10025
Michael Blevins,Music Venue,40.794569,-73.963258,Manhattan Valley,10025
Loading Zone,Arts and Entertainment,40.794025,-73.963412,Manhattan Valley,10025
New York Gilbert & Sullivan Players,Concert Hall,40.796511,-73.969323,Manhattan Valley,10025
United Concierge Service,Strip Club,40.800255,-73.960593,Harlem,10025
Alma Mater Statue,Public Art,40.807991,-73.962029,Harlem,10027
The Riverside Theatre,Theater,40.81141,-73.963386,Morningside Heights,10027
Miller Recital Hall,Concert Hall,40.807958,-73.963252,Harlem,10027
Miriam and Ira D. Wallach Art Gallery,Art Museum,40.808529,-73.960082,Harlem,10027
Schapiro Studio Theater - Columbia University,Theater,40.807904,-73.965262,Morningside Heights,10025
Postcrypt Coffeehouse,Music Venue,40.807755,-73.960752,Harlem,10027
Horace Mann Theater,Theater,40.810668,-73.960864,Harlem,10027
Macy Art Gallery,Art Gallery,40.81037,-73.959891,Harlem,10027
Jack's Art Gallery,Art Gallery,40.804846,-73.966542,Manhattan Valley,10025
Orpheus Chamber Orchestra,Music Venue,40.812014,-73.963016,Morningside Heights,10027
Theater of the Church of Notre Dame,Indie Theater,40.805017,-73.960165,Harlem,10025
Miller Theatre,Concert Hall,40.808116,-73.96339,Harlem,10027
Schapiro Hall,Music Venue,40.807803,-73.964995,Morningside Heights,10025
Institute For Medievil,Art Gallery,40.807043,-73.961118,Harlem,10027
Jada Rowland,Arts and Entertainment,40.806614,-73.961014,Harlem,10027
Arthur Ross Architecture Gallery,Art Gallery,40.808196,-73.960419,Harlem,10027
Wien Stadium,Stadium,40.810261,-73.961942,Harlem,10027
Psychic,Psychics and Astrologers,40.805251,-73.965552,Manhattan Valley,10025
Theatre Of The Riverside Church,Music Venue,40.811753,-73.962699,Morningside Heights,10027
NYIOP International Opera Auditions,Arts and Entertainment,40.804621,-73.966884,Manhattan Valley,10025
Willmore Works,Art Gallery,40.804564,-73.967013,Manhattan Valley,10025
New York College At The Rivers,Arts and Entertainment,40.812175,-73.963066,Morningside Heights,10027
African Diaspora Film Festival,Carnival,40.803949,-73.965764,Manhattan Valley,10025
New York Comedy Club,Comedy Club,40.738839,-73.980665,Bellevue,10010
National Arts Club,Art Gallery,40.737708,-73.986559,Downtown,10003
The Players,Music Venue,40.737708,-73.986559,Downtown,10003
Trionas,Arts and Entertainment,40.735461,-73.98586,East Village,10003
The FRIENDS Experience,Exhibit,40.739468,-73.985318,Chelsea,10010
Gramercy Theatre,Music Venue,40.739906,-73.985073,Flatiron,10010
The Assemblage NoMad,Music Venue,40.740946,-73.984546,Flatiron,10010
Baruch Performing Arts Center,Concert Hall,40.740325,-73.983561,Flatiron,10010
Creon Gallery,Art Gallery,40.738753,-73.98184,Gramercy,10010
Drawing New York,Art Gallery,40.737324,-73.982832,East Village,10010
TheRoom NY,Escape Room,40.73516,-73.981045,Gramercy,10003
Gramercy Theater,Theater,40.739312,-73.983129,Flatiron,10010
SVA Gramercy Gallery,Art Gallery,40.738684,-73.982405,Gramercy,10010
Sapan Jason Holographic Studios,Art Gallery,40.739765,-73.980308,Bellevue,10010
Sidney Mishkin Gallery,Art Gallery,40.738836,-73.984769,East Village,10010
Decor Art Gallery,Art Gallery,40.736343,-73.985196,East Village,10003
Holographic Studios,Museum,40.73988,-73.98005,Bellevue,10010
Clarion Theatre,Theater,40.739801,-73.978999,Bellevue,10010
Baruch's Nagelberg Theatre,Theater,40.740215,-73.983644,Flatiron,10010
Georgia Room,Night Club,40.739731,-73.984373,Flatiron,10010
WBMB Baruch College Radio,Music Venue,40.740485,-73.983611,Flatiron,10010
Deep Space New York,Art Gallery,40.734618,-73.985128,East Village,10003
Blogologues,Comedy Club,40.740563,-73.98475,Flatiron,10010
Apollo Theater,Theater,40.739272,-73.986577,Chelsea,10010
Repetorio,Indie Theater,40.741589,-73.982694,Flatiron,10016
Mason Hall,Concert Hall,40.739214,-73.98474,Chelsea,10010
Art Haz,Art Gallery,40.737378,-73.980396,Gramercy,10010
Clubbed Thumb,Music Venue,40.737397,-73.980128,Gramercy,10010
Dubstep Dance,Night Club,40.736789,-73.982637,East Village,10010
Visual Arts Museum,Museum,40.738744,-73.982189,Gramercy,10010
Gramercy Psychic,Psychics and Astrologers,40.738102,-73.983955,East Village,10010
Tania Astrologer / Astróloga,Psychics and Astrologers,40.739163,-73.982642,Gramercy,10010
Gramercy Readings New York,Psychics and Astrologers,40.737937,-73.984079,East Village,10010
About Maggie's NYC,Music Venue,40.735062,-73.982657,East Village,10003
The Stand,Comedy Club,40.736687,-73.984423,East Village,10003
Slipper Room,Music Venue,40.736256,-73.978424,Bellevue,10010
NaughtyArt.com,Art Gallery,40.73902,-73.983947,East Village,10010
Gramercy Company,Comedy Club,40.737372,-73.985018,East Village,10003
Psychic Readings - Love & Relationships Expert,Psychics and Astrologers,40.734127,-73.981061,Gramercy,10003
The Village Sound,Music Venue,40.738498,-73.98528,East Village,10010
Sam's Romance,Music Venue,40.740588,-73.979328,Bellevue,10016
Firebone Theatre,Arts and Entertainment,40.738585,-73.98607,Chelsea,10010
"Modern Pinball NYC Arcade, Party Place & Museum",Arts and Entertainment,40.741019,-73.981842,Gramercy,10016
The India Center,Arts and Entertainment,40.740588,-73.98379,Flatiron,10010
Arc Arena,Stadium,40.74064,-73.983678,Flatiron,10010
The Pits Dating Game,Music Venue,40.740239,-73.984737,Flatiron,10010
Echowave,Arts and Entertainment,40.740067,-73.985123,Flatiron,10010
The Awooga Comedy Hour,Comedy Club,40.740515,-73.984529,Flatiron,10010
Ticket Evolution,Ticket Seller,40.740565,-73.984662,Flatiron,10010
Truth Seeker Divination,Psychics and Astrologers,40.740946,-73.984546,Flatiron,10010
Winter Garden Atrium,Performing Arts Venue,40.713192,-74.015364,Battery Park City,10280
Regal Battery Park,Movie Theater,40.71492,-74.015258,Battery Park City,10282
National September 11 Memorial Museum,History Museum,40.711434,-74.012588,Battery Park City,10007
Van Gogh The Immersive Experience,Art Museum,40.714781,-74.016732,Battery Park City,10282
The-Void-Wtc,Arcade,40.711678,-74.01155,Battery Park City,10007
World Financial Center Courtyard Gallery,Art Gallery,40.714267,-74.015494,Battery Park City,10080
Dogumenta,Public Art,40.713956,-74.015045,Battery Park City,10281
Time Theater,Amphitheater,40.711693,-74.014955,Battery Park City,10281
Luminaries,Public Art,40.713192,-74.015364,Battery Park City,10281
Winter Garden at World Financial Center,Art Gallery,40.710541,-74.015651,Battery Park City,10280
Pyramid Entertainment Group,Arts and Entertainment,40.709581,-74.017228,Battery Park City,10280
9/11 Museum Concourse Lobby,History Museum,40.711436,-74.013326,Battery Park City,10007
Eleven Tears Memorial,Museum,40.713651,-74.014335,Battery Park City,10281
High 5 Games,Casino,40.711491,-74.012459,Battery Park City,10007
Special Exhibition: Revealed,History Museum,40.711475,-74.01275,Battery Park City,10007
Storefront Atelier At World Financial Center,Art Gallery,40.714209,-74.013659,Battery Park City,10281
China Institute,Art Gallery,40.708525,-74.014436,Battery Park City,10006
Spotify Stage - Fl 71,Music Venue,40.710323,-74.011802,Battery Park City,10007
Pendulum Studios,Strip Club,40.708712,-74.013527,Battery Park City,10006
Nyc Culture Club,Exhibit,40.711038,-74.011479,Battery Park City,10007
Friends Of The Performing Arts,Music Venue,40.711499,-74.016126,Battery Park City,10280
Liberty Street Gallery,Art Gallery,40.711197,-74.015328,Battery Park City,10281
Minters,Night Club,40.714207,-74.01571,Battery Park City,10080
National September 11 Memorial and Museum,Museum,40.709931,-74.014318,Battery Park City,10006
9/11 Memorial Museum,History Museum,40.711534,-74.012854,Battery Park City,10007
9/11 Memorial,History Museum,40.71028,-74.013371,Battery Park City,10006
Keller TV Radio Productions,Arts and Entertainment,40.708631,-74.016492,Battery Park City,10280
National September 11 Meml-Msm,Museum,40.709923,-74.012615,Battery Park City,10007
WTC: 9/11 Memorial Site,Museum,40.71323,-74.012005,Battery Park City,10007
Tribute WTC Visitor Center,Museum,40.709873,-74.012482,Battery Park City,10006
Statement Arts,Arts and Entertainment,40.715972,-74.01626,Battery Park City,10282
Pussycat Lounge & Shogun Room,Night Club,40.708219,-74.013813,Battery Park City,10011
Mvmc Pussy Cat Bar,Night Club,40.708186,-74.01373,Battery Park City,10006
Alamo Drafthouse Cinema Lower Manhattan,Movie Theater,40.707868,-74.008868,Downtown,10005
3LD Art & Technology Center,Music Venue,40.70746,-74.013958,Battery Park City,10006
The National Museum of the American Indian–New York,Museum,40.704278,-74.013962,Battery Park City,10004
India House,Night Club,40.70466,-74.009832,Downtown,10004
Lower Manhattan Cultural Center,Indie Theater,40.707598,-74.010865,Battery Park City,10005
Manhattan City Bank - Ghostbusters Ride,Museum,40.707469,-74.011645,Battery Park City,10005
The Lambent Foundation,Art Gallery,40.706307,-74.010726,Battery Park City,10005
World Trade Gallery,Art Gallery,40.708249,-74.010716,Battery Park City,10271
American Movie Company,Movie Theater,40.70642,-74.01252,Battery Park City,10004
L'Hourloupe: New York Art Tours,Public Art,40.708234,-74.009275,Downtown,10005
Chashama,Art Gallery,40.706564,-74.01318,Battery Park City,10006
Bluesleep,Art Gallery,40.707285,-74.012467,Battery Park City,10006
Meltzer Media Productions,Arts and Entertainment,40.709046,-74.009176,Downtown,10038
Rex Club,Night Club,40.704744,-74.008744,Downtown,10005
David Byrne Bike Rack,Art Gallery,40.705428,-74.007375,Downtown,10005
Crumble Kitchen Theatre,Theater,40.705591,-74.007338,Downtown,10005
77 Water Street Rooftop Runway,Art Gallery,40.70438,-74.00825,Downtown,10005
Spotify Stage - Fl 71,Music Venue,40.710323,-74.011802,Battery Park City,10007
Zulu Productions,Arts and Entertainment,40.707903,-74.005596,City Hall,10038
The Downtown Athletic Club Screening Room,Indie Movie Theater,40.706232,-74.01548,Battery Park City,10004
Anderson Contemporary,Art Gallery,40.705423,-74.005585,Downtown,10038
WeLive Media Lounge,Arts and Entertainment,40.7047,-74.006386,Downtown,10005
Men,Arts and Entertainment,40.704623,-74.015154,Battery Park City,10004
Figure Balancing on Dog,Art Gallery,40.702913,-74.012599,Battery Park City,10004
2 Water Street - New York Plaza Residence,Arcade,40.702908,-74.012773,Battery Park City,10004
2 Water Street Pool Hall,Pool Hall,40.702908,-74.012773,Battery Park City,10004
2 Water St - Secret Poker Room,Casino,40.702908,-74.012773,Battery Park City,10004
Alexander,Psychics and Astrologers,40.7076,-74.010777,Battery Park City,10005
Master Love Psychic 22,Psychics and Astrologers,40.707682,-74.009777,Downtown,10005
Music Enkor,Concert Hall,40.706719,-74.009477,Downtown,10005
Therese Relucio,Psychics and Astrologers,40.705833,-74.010315,Downtown,10005
Studio Art Center International,Amusement Park,40.70569,-74.011618,Battery Park City,10004
Scotty Watson Improv,Music Venue,40.706202,-74.012598,Battery Park City,10004
Psychic Meditation Room,Psychics and Astrologers,40.706145,-74.012727,Battery Park City,10004
Dances of Vice,Music Venue,40.706647,-74.008165,Downtown,10005
Hanover Square Gallery,Art Gallery,40.704938,-74.009537,Downtown,10004
Folksbiene Yiddish Theatre,Music Venue,40.708141,-74.006784,City Hall,10038
Steele Artistry,Arts and Entertainment,40.704576,-74.010919,Battery Park City,
H-Art,Arts and Entertainment,40.704601,-74.011412,Battery Park City,10004
New Stage Theatre Co.,Music Venue,40.704565,-74.011355,Battery Park City,10004
Fair Housing Justice Center,Carnival,40.704557,-74.009653,Downtown,10004
Artspace,Museum,40.704459,-74.011264,Battery Park City,10004
Stone Street Sessions - at Ulysses,Arts and Entertainment,40.704437,-74.010085,Downtown,10004
Komnata Quest,Escape Room,40.705691,-74.007603,Downtown,10005
Ierimonti Gallery,Art Gallery,40.70818,-74.006149,City Hall,10038
Sarasota Film Festival,Carnival,40.70818,-74.006149,City Hall,10038
Bmo Nesbitt Burns,Arts and Entertainment,40.7056,-74.00627,Downtown,10005
ArtBase,Art Gallery,40.703823,-74.012853,Battery Park City,10004
Art Sky Media,Music Venue,40.709381,-74.006789,City Hall,10038
Smithsonian Institution American Indian Museum George Gustav Heye Center,Museum,40.70433,-74.014008,Battery Park City,10004
Bohemian Hall & Beer Garden,Music Venue,40.772782,-73.915877,Astoria,11102
Create,Opera House,40.765037,-73.91694,Astoria,11103
Caprice,Night Club,40.769758,-73.917992,Astoria,11102
After 8 Cafe Lounge,Arts and Entertainment,40.765802,-73.913178,Astoria,11103
Zaman Hookah Cafe Lounge,Arts and Entertainment,40.765893,-73.913127,Astoria,11103
Heavens Gentlemans Club,Strip Club,40.764938,-73.914533,Astoria,11103
Astoria Art & Framing,Art Gallery,40.765527,-73.918793,Astoria,11103
Orthogonal Art and Science,Arts and Entertainment,40.770192,-73.91176,Astoria,11105
Melody Cafe,Arts and Entertainment,40.765565,-73.91329,Astoria,11103
Heaven Entertainment,Night Club,40.765108,-73.914234,Astoria,11103
Ppb Pub Limited,Arts and Entertainment,40.764626,-73.916138,Astoria,11103
Eternity Lounge,Night Club,40.769798,-73.910347,Astoria,11105
Loupakis Karate Acrobatics,Arts and Entertainment,40.767571,-73.921099,Astoria,11102
La Klave New York,Night Club,40.769804,-73.910085,Astoria,11105
D'Haven,Music Venue,40.749945,-73.904054,Woodside,11377
Noches De Peluche,Night Club,40.745892,-73.902243,Woodside,11377
Station Cafe,Bowling Alley,40.745803,-73.903594,Sunnyside,11377
Artefix,Art Gallery,40.747335,-73.902777,Woodside,11377
Misfit Hive Entertainment,Comedy Club,40.747605,-73.902744,Woodside,11377
Playbill,Music Venue,40.749037,-73.901662,Woodside,11377
The Halfway Line,Night Club,40.74517,-73.905098,Sunnyside,11377
America's Studios,Comedy Club,40.744814,-73.898098,Woodside,11377
Maryann's Woodside Events,Music Venue,40.749995,-73.904187,Woodside,11377
Trono De Mexico Night Club,Night Club,40.746537,-73.896197,Woodside,11377
Luchos Place,Arts and Entertainment,40.746596,-73.895981,Woodside,11377
Scorpion,Arts and Entertainment,40.746218,-73.89601,Woodside,11377
NYC Birthday Clowns,Arts and Entertainment,40.747154,-73.903513,Woodside,11377
Galicia Bar,Arts and Entertainment,40.755536,-73.884259,Jackson Heights,11372
Kabu Nightclub,Night Club,40.756123,-73.882446,Jackson Heights,11372
Flamingo,Night Club,40.747804,-73.880785,Elmhurst,11372
Hairo's *El Templo De La Salsa,Night Club,40.747873,-73.884324,Elmhurst,11372
Hairo's Nightclub,Night Club,40.747708,-73.884449,Elmhurst,11372
Europa Art Gallery,Art Gallery,40.75009,-73.882048,Elmhurst,11372
Ed Fuqua Group,Arts and Entertainment,40.753948,-73.881012,Elmhurst,11372
Junko Yamada,Arts and Entertainment,40.751339,-73.885894,Jackson Heights,11372
La Oficina,Night Club,40.748208,-73.8839,Elmhurst,11372
El Tucanazo Bar. 83-17 Roosevelt Ave,Night Club,40.748033,-73.882322,Elmhurst,11372
Tucanazo NC.New York,Night Club,40.748033,-73.882322,Elmhurst,11372
Flamingo Night Club,Night Club,40.747804,-73.880785,Elmhurst,11372
Mango Rico,Music Venue,40.747139,-73.883511,Elmhurst,11373
Flamingo,Night Club,40.747804,-73.880785,Elmhurst,11372
Zapata,Night Club,40.747309,-73.885264,Elmhurst,11373
Hairo's *El Templo De La Salsa,Night Club,40.747873,-73.884324,Elmhurst,11372
Hairo's Nightclub,Night Club,40.747708,-73.884449,Elmhurst,11372
Katahdin Photo Gallery,Art Gallery,40.741918,-73.878908,Elmhurst,11373
Jackson Heights Billiards Cafe,Pool Hall,40.746868,-73.883545,Elmhurst,11373
Flamingo Night Club,Night Club,40.747804,-73.880785,Elmhurst,11372
El Tucanazo Bar. 83-17 Roosevelt Ave,Night Club,40.748033,-73.882322,Elmhurst,11372
Tucanazo NC.New York,Night Club,40.748033,-73.882322,Elmhurst,11372
El Mejor Brujo De New York,Psychics and Astrologers,40.747629,-73.879206,Elmhurst,11373
La Piramide Espiritual,Psychics and Astrologers,40.747858,-73.879849,Elmhurst,11372
Centro Espiritual La Piramide,Psychics and Astrologers,40.747881,-73.87987,Elmhurst,11372
Centro Billiards & Cafe,Pool Hall,40.747934,-73.879916,Elmhurst,11372
Amarres De Amor,Psychics and Astrologers,40.747144,-73.885389,Elmhurst,11372
La Oficina,Night Club,40.748208,-73.8839,Elmhurst,11372
Fazio Dance Studio,Concert Hall,40.651921,-73.842164,,11414
Bobbi and the Strays Annual Halloween Masquerade Ball,Arts and Entertainment,40.653213,-73.838027,Old Howard Beach,11414
Howard Beach Psychic,Psychics and Astrologers,40.651445,-73.837658,Old Howard Beach,11414
Queens Museum,Art Museum,40.74419,-73.8517,Corona,11368
Ticketmaster,Ticket Seller,40.745576,-73.860658,Corona,11368
Killing Kompany,Music Venue,40.723449,-73.844487,Forest Hills,11375
First Shot Basketball School,Arts and Entertainment,40.724579,-73.848762,Forest Hills,11375
Kew Gardens Cinema,Movie Theater,40.709161,-73.829746,Briarwood,11415
Fantasia Erotica Escort Service,Strip Club,40.706522,-73.833796,Richmond Hill,11415
Kew Gardens Arts,Arts and Entertainment,40.708626,-73.83169,Forest Hills,11415
Maracas,Night Club,40.700312,-73.827902,Richmond Hill,11418
Shots Billiards,Pool Hall,40.698682,-73.830504,Richmond Hill,11418
Richmond Hill Hall,Bingo Center,40.700347,-73.832833,Richmond Hill,11418
Richmond Hill Bingo Hole,Bingo Center,40.700347,-73.832833,Richmond Hill,11418
Calypso City & Rum Jungle,Night Club,40.70042,-73.827906,Richmond Hill,11418
Carom Cafe Billiards,Pool Hall,40.766236,-73.831575,Down Town Flushing,11354
Prince Billiards,Pool Hall,40.763553,-73.833095,Down Town Flushing,11354
Playlab Kids Indoor Playground,Arts and Entertainment,40.763131,-73.832731,Down Town Flushing,11354
Enigma Escape Games,Escape Room,40.762399,-73.833884,Down Town Flushing,11354
Wanyoo Cyber Cafe,Internet Cafe,40.762469,-73.831178,Down Town Flushing,11354
Lewis H. Latimer House Museum,Museum,40.766074,-73.829473,Down Town Flushing,11354
The Beat Factory,Rock Club,40.765607,-73.835048,Down Town Flushing,11354
Blue Storm,Pool Hall,40.761479,-73.831929,Down Town Flushing,11354
Best Game Cafe,Internet Cafe,40.761621,-73.832676,Down Town Flushing,11354
Speed Internet Cafe,Arts and Entertainment,40.762501,-73.827816,Down Town Flushing,11354
Max伯爵-恐怖真人密室逃脱,Escape Room,40.765344,-73.836873,Down Town Flushing,11354
Runway69 Gentlemen's Club & Restaurant,Strip Club,40.765943,-73.836676,Down Town Flushing,11354
Regal Tangram,Movie Theater,40.76055,-73.833651,Down Town Flushing,11354
Crossing Art,Art Gallery,40.760507,-73.829841,Down Town Flushing,11354
Viva KTV,Arts and Entertainment,40.760266,-73.832934,Down Town Flushing,11354
Achieve Basketball,Arts and Entertainment,40.764018,-73.831802,Down Town Flushing,11354
I Show Internet Cafe,Internet Cafe,40.763912,-73.83171,Down Town Flushing,11354
Sweet Cats Cafe,Arcade,40.763865,-73.831251,Down Town Flushing,11354
Ying Dance Center,Night Club,40.765567,-73.832425,Down Town Flushing,11354
El Rodeo Guzman,Night Club,40.763195,-73.83234,Down Town Flushing,11354
Studio M 3641,Music Venue,40.762251,-73.831258,Down Town Flushing,11354
Place at Main,Arts and Entertainment,40.762198,-73.831212,Down Town Flushing,11354
Area Nightclub,Night Club,40.767338,-73.832794,Down Town Flushing,11354
Queens Crossing Art Gallery,Art Gallery,40.760555,-73.830061,Down Town Flushing,11354
Angels NYC Gentlemen's Club,Strip Club,40.765925,-73.837374,Down Town Flushing,11354
Sculpture Center,Art Gallery,40.747077,-73.941025,Hunters Point,11101
LIC Arts Center,Art Gallery,40.74892,-73.944764,Hunters Point,11101
The Secret Theatre,Concert Hall,40.748869,-73.944631,Hunters Point,11101
Reis Studios,Art Gallery,40.749727,-73.944839,Hunters Point,11101
Scandals,Night Club,40.751346,-73.940795,Long Island City,11101
"Silvercup Studios, Studio 5",Arts and Entertainment,40.750866,-73.940558,Long Island City,11101
The D,Strip Club,40.750042,-73.937076,Long Island City,11101
The Clock Tower in LIC,Arts and Entertainment,40.749953,-73.936374,Long Island City,11101
Fardom Gallery,Art Gallery,40.752165,-73.93838,Long Island City,11101
Red Thumbtack Studios,Music Venue,40.752624,-73.939402,Long Island City,11101
Coco Bongo Queens,Night Club,40.752966,-73.936664,Long Island City,11101
Silvercup Studios Café,Performing Arts Venue,40.751328,-73.943499,Hunters Point,11101
Silvercup Studios - Stage 9,Performing Arts Venue,40.751302,-73.944238,Hunters Point,11101
Silvercup Studios Stage 1,Performing Arts Venue,40.75162,-73.944131,Hunters Point,11101
Spin Music Studios,Music Venue,40.754062,-73.940112,Long Island City,11101
Skyline Tower Sales Gallery,Art Gallery,40.74652,-73.941702,Hunters Point,11101
Silvercup Studios Stage B,Arts and Entertainment,40.751078,-73.944759,Hunters Point,11101
eGarage,Music Venue,40.748867,-73.944718,Hunters Point,11101
City Scapes,Night Club,40.749967,-73.939869,Hunters Point,11101
Doha Nightclub,Night Club,40.747062,-73.93753,Hunters Point,11101
City Owlets,Arts and Entertainment,40.74713,-73.94107,Hunters Point,11101
Uovo,Art Gallery,40.752703,-73.942507,Long Island City,11101
Walking the Dead,Ticket Seller,40.748979,-73.944548,Hunters Point,11101
Komnata Quest,Escape Room,40.748977,-73.944635,Hunters Point,11101
Chip Moeser - Artist,Arts and Entertainment,40.749727,-73.944839,Hunters Point,11101
Greater Astoria Historical Society,History Museum,40.748867,-73.944718,Hunters Point,11101
Astoria Performing Arts Center,Music Venue,40.74892,-73.944764,Hunters Point,11101
Richard Mazda The Secert Theatre,Music Venue,40.74892,-73.944764,Hunters Point,11101
Sugarlift Long Island City,Art Gallery,40.749615,-73.945009,Hunters Point,11101
Thalia Spanish Theatre,Concert Hall,40.740307,-73.923736,Blissville,11104
Academic,Art Gallery,40.741001,-73.930138,Dutch Kills,11101
Johnson Trading Gallery,Art Gallery,40.74056,-73.922348,Blissville,11377
Christie's Redstone,Art Gallery,40.741475,-73.932601,Dutch Kills,11101
Greenpoint Lounge,Night Club,40.740964,-73.921359,Blissville,11104
Sculpture Space NYC,Art Gallery,40.741705,-73.930033,Blissville,11101
Maquette Fine Art Service,Art Gallery,40.740461,-73.932169,Dutch Kills,11101
Fair Movie Theatre,Indie Movie Theater,40.761636,-73.865526,East Elmhurst,11369
Hush Cafe Lounge & Garden,Night Club,40.727317,-73.892687,Maspeth,11378
Psychic Readings by Nikki,Psychics and Astrologers,40.724814,-73.897657,Maspeth,11378
Boston Burglars Band,Music Venue,40.728381,-73.897354,Maspeth,11378
Areni Choir,Arts and Entertainment,40.703399,-73.873168,Glendale,11385
Wiggles,Night Club,40.729729,-73.862306,LeFrak City,11374
Thornycraft Ramp - Ramones mural,Public Art,40.728336,-73.853612,Forest Hills,11374
Lava Land,Arcade,40.727333,-73.863179,Forest Hills,11374
Stark Naked Productions,Movie Theater,40.727687,-73.853676,Forest Hills,11374
Muzik Vox Studio,Music Venue,40.686694,-73.858379,Woodhaven,11421
Bowl 360,Bowling Alley,40.679615,-73.84033,Woodhaven,11417
Greaser Statue,Public Art,40.677838,-73.844408,Lidenwood,11417
Cozy Lanes,Bowling Alley,40.67967,-73.840288,Woodhaven,11417
Psychic Readings By Julia,Psychics and Astrologers,40.68454,-73.845828,Woodhaven,11416
Henca USA,Art Gallery,40.782817,-73.841523,College Point,11356
10Pointsktv,Arts and Entertainment,40.781481,-73.840994,College Point,11356
Elsa's Secret,Psychics and Astrologers,40.781573,-73.845804,College Point,11356
Element X Rooftop Lounge,Night Club,40.781162,-73.840808,College Point,11356
Saint Luke Carnival,Amusement Park,40.784467,-73.81096,Beechhurst,11357
Photobooth And Prints,Arts and Entertainment,40.766133,-73.771987,Bayside,11361
Challenge Escape Rooms,Escape Room,40.763829,-73.771339,Bayside,11361
Pete and Sons Paint & Wallpaper,Art Gallery,40.767037,-73.772498,Bayside,11361
Albert Moy Artworks,Art Gallery,40.765605,-73.771531,Bayside,11361
Apollo Orchestras,Music Venue,40.769869,-73.775742,Bayside,11361
Flower Karaoke,Music Venue,40.758384,-73.794648,Auburndale,11358
Breifne Pub,Arts and Entertainment,40.762645,-73.796807,Auburndale,11358
House of Tarot Cards,Psychics and Astrologers,40.757517,-73.792652,Auburndale,11358
Good Company,Arts and Entertainment,40.771274,-73.734682,Little Neck,11362
Metis Concert Series,Concert Hall,40.769884,-73.734198,Little Neck,11362
U & I Dental Arts PC,Arts and Entertainment,40.766855,-73.738813,,11362
National Art League,Art Gallery,40.766058,-73.744814,Little Neck,11363
U & I Dental Arts PC,Arts and Entertainment,40.766855,-73.738813,,11362
Don Coqui Astoria,Night Club,40.770747,-73.745017,Little Neck,11363
Queens County Farm Museum,Museum,40.748203,-73.720889,Bellaire,11004
Green Meadows Farm,Art Museum,40.74708,-73.720459,Bellaire,11004
Paint Nite,Arts and Entertainment,40.726086,-73.718882,Bellaire,11426
Queens County Farm Museum,Museum,40.727287,-73.724814,Bellaire,11426
Psychic Readings By Nicole,Psychics and Astrologers,40.724642,-73.722718,Bellaire,11001
Queens Community House,Arts and Entertainment,40.710277,-73.81146,Briarwood,11435
Icna Relief USA,Arts and Entertainment,40.709938,-73.812537,Briarwood,11435
York College Performing Arts Center,Performing Arts Venue,40.702513,-73.79452,Jamaica,11433
Jamaica Performing Arts Center,Concert Hall,40.702494,-73.80163,Jamaica,11432
Jamaica Multiplex Cinemas,Movie Theater,40.703292,-73.799913,Jamaica,11432
Jamaica Center for Arts & Learning,Art Museum,40.703926,-73.798321,Jamaica,11432
Hall of Fame Entertainment,Arts and Entertainment,40.706923,-73.794936,Jamaica,11432
Jamaica Avenue,Arts and Entertainment,40.70494,-73.796612,Jamaica,11432
Jameco Exchange,Art Gallery,40.705883,-73.795554,Jamaica,11432
Jamaica Center Multiplex,Movie Theater,40.702985,-73.799291,Jamaica,11432
Love Supplies Botanica,Psychics and Astrologers,40.707211,-73.796343,Jamaica,11432
Metropolitan Museum Of Art Jamaica,Museum,40.703889,-73.79339,Jamaica,11433
Primetime Sports & Arts,Arts and Entertainment,40.707717,-73.797669,Jamaica Hills,11432
Children's Library Discovery Center,Arts and Entertainment,40.707746,-73.794398,Jamaica Hills,11432
Famous Indian Astrologer,Psychics and Astrologers,40.706937,-73.792275,Hillside,11432
York College Health Physical Education Complex Jamaica,Stadium,40.700255,-73.796404,Jamaica,11433
Top Bingo Hall,Bingo Center,40.719142,-73.733573,Bellaire,11428
Top Recreation,Amusement Park,40.71903,-73.733744,Bellaire,11428
Top Bingo Hall,Arts and Entertainment,40.719147,-73.733399,Bellaire,11429
30 Plus Group Limited,Night Club,40.696089,-73.790587,,11433
Geos Art Expression,Art Gallery,40.693204,-73.757556,St. Albans,11412
Geo s Art Expression,Art Gallery,40.693265,-73.757253,St. Albans,11412
Artist Market on Linden,Arts and Entertainment,40.69384,-73.753653,St. Albans,11412
Grey dolphin,Arts and Entertainment,40.694386,-73.736138,Cambria Heights,11411
Royal Chateau Hall,Music Venue,40.663676,-73.733574,Rosedale,11422
Regal Theater,Movie Theater,40.605584,-73.751812,Far Rockaway,11691
Far Rockaway Culture and Arts Center,Art Museum,40.607133,-73.75661,,11691
Iroquois Yacht Club,Arts and Entertainment,40.604711,-73.817996,Broad Channel,11693
DJ Entertainment by Teddy,Arts and Entertainment,40.598731,-73.820221,Broad Channel,11693
Astoria Music Society,Music Venue,40.773409,-73.906419,Astoria,11105
AMC Bay Terrace 6,Movie Theater,40.779182,-73.778774,Bay Terrace,11360
Bay Terrace Country Club,Country Club,40.781088,-73.771674,Bay Terrace,11360
Tarot Card & Psychic Reading,Psychics and Astrologers,40.785291,-73.778331,Fort Totten,11360
AMC Theatres,Movie Theater,40.778964,-73.776713,Bay Terrace,11360
The Palms Rockaway,Music Venue,40.58511,-73.818083,Holland,11693
The Irish Circle,Arts and Entertainment,40.583177,-73.822104,Seaside,11694
Neza Music,Arts and Entertainment,40.583942,-73.823742,Seaside,11694
Voelker Orth Museum,History Museum,40.764574,-73.816401,Flushing,11354
Plug and Play Gaming Cafe,Internet Cafe,40.765589,-73.81469,Flushing,11354
Gallery Chun,Art Gallery,40.765759,-73.81439,Flushing,11354
Psychic Spiritualist Sheela,Psychics and Astrologers,40.717693,-73.765641,Terrace Heights,11423
NY Asian Girls Escort,Strip Club,40.744486,-73.821363,Queensboro Hills,11355
Sun Yat Sen Memorial Hall,Art Gallery,40.722109,-73.795731,Hill Crest,11439
Little Theater,Theater,40.724073,-73.79484,Hill Crest,11432
Dr M T Geoffrey Yeh Art Gallery at St John's University,Art Gallery,40.723204,-73.79721,Hill Crest,11432
Little Theatre,Theater,40.723965,-73.794837,Hill Crest,11432
BoroughCon,Arts and Entertainment,40.722688,-73.794181,Hill Crest,11439
Illica Pozzatti,Rock Club,40.759806,-73.929018,Astoria South,11106
23-35 Broadway,Night Club,40.763752,-73.928774,Astoria South,11106
Art House Astoria Conservatory For Music and Art,Art Gallery,40.763965,-73.92887,Astoria,11106
AlterWork studios,Art Gallery,40.758519,-73.928707,Astoria South,11106
The Guided Healing,Psychics and Astrologers,40.761144,-73.927408,Astoria South,11106
Exempt,Psychics and Astrologers,40.764301,-73.934518,Astoria South,11106
Sean Ruane,Psychics and Astrologers,40.761158,-73.926885,Astoria South,11106
Psychic Readings by Sandra,Psychics and Astrologers,40.765506,-73.931812,Astoria South,11106
St Anthonys Feast at St Helens,Fair,40.661415,-73.850091,,11414
My Works Of Ar,Arts and Entertainment,40.73669,-73.860116,LeFrak City,11368
Mittermax Films,Movie Theater,40.577871,-73.850328,Rockaway Beach,11694
Rogers Irish Tavern,Arts and Entertainment,40.579926,-73.837522,Boardwalk,11694
Louis Armstrong House Museum,History Museum,40.75467,-73.861558,North Corona,11368
Disco Heaven,Night Club,40.754319,-73.860541,North Corona,11368
Club Cultural De Queens,Night Club,40.749644,-73.85775,Corona,11368
Queens Theatre,Music Venue,40.751063,-73.857256,Corona,11368
Queens Museum Of Art,Museum,40.75745,-73.860481,North Corona,11368
Club Cultural Dominicanos,Arts and Entertainment,40.749637,-73.858012,Corona,11368
Garden Players Musical Theater For Kids,Music Venue,40.715969,-73.841772,Forest Hills,11375
St George Theatre,Music Venue,40.642044,-74.077383,Brighton Heights,10301
Kinetik Arts,Art Gallery,40.644142,-74.075226,Howland Hook,10301
Locke Monda Graphic Arts,Arts and Entertainment,40.644964,-74.078941,Howland Hook,10301
Staten Island Museum,Museum,40.6443,-74.07765,Howland Hook,10301
Staten Island Institute of Arts and Sciences,Science Museum,40.6443,-74.07765,Howland Hook,10301
Hamilton Park House Concerts,Concert Hall,40.642918,-74.09045,New Brighton,10301
SummerStage - Tappen Park,Performing Arts Venue,40.626866,-74.076759,St. George,10304
NYC Arts Cypher,Music Venue,40.625446,-74.075524,St. George,10304
VanDuzerStreet,Rock Club,40.629209,-74.079688,St. George,10304
Hub 17 NYC,Art Gallery,40.629818,-74.077185,St. George,10304
Zumba Class,Arts and Entertainment,40.624843,-74.081686,Stapleton,10304
ArtSpace,Art Gallery,40.629429,-74.073727,Stapleton,10304
Staten Island Paramount Theater,Movie Theater,40.627943,-74.076803,St. George,10304
Macumba Cafe,Night Club,40.626515,-74.07583,St. George,10304
La Tia Bar,Night Club,40.625702,-74.076014,St. George,10304
NycArtsCypher,Arts and Entertainment,40.625436,-74.075418,St. George,10304
Created for You Artists Market,Arts and Entertainment,40.629449,-74.076865,St. George,10304
Siabc,Art Gallery,40.629978,-74.077236,St. George,10304
Garibaldi-Meucci Museum,History Museum,40.615148,-74.073882,Park Hill,10305
1st Class Aquarium,Aquarium,40.614816,-74.066464,Rosebank,10305
Museum of Maritime Navigation and Communication,Science Museum,40.6138,-74.066204,Rosebank,10305
Bernies Fun House,Arts and Entertainment,40.615369,-74.064004,Rosebank,10305
Reptile House,Zoo,40.630031,-74.109917,West New Brighton,10310
S I Children's Theatre Association,Concert Hall,40.635267,-74.103861,New Brighton,10301
Zumba Class,Arts and Entertainment,40.624843,-74.081686,Stapleton,10304
Fantasy Shore Amusement Park,Amusement Park,40.578735,-74.07796,Midland Beach,10305
Staten Island Recreational Association,Amusement Park,40.582965,-74.074956,Arrochar,10305
Lenny's Creations,Art Museum,40.636684,-74.128106,Port Richmond,10310
Staten Island Go-Karts,Mini Golf Course,40.609334,-74.11981,Castleton Corners,10314
Staten Island FunPark,Mini Golf Course,40.609334,-74.11981,Castleton Corners,10314
Staten Island Hockey,Mini Golf Course,40.609334,-74.11981,Castleton Corners,10314
The Looney Bin Comedy Club,Comedy Club,40.588961,-74.191836,Chelsea,10314
Showplace Bowling Alley,Bowling Alley,40.588538,-74.191556,Chelsea,10312
Showplace Entertainment Center,Bowling Alley,40.588906,-74.191877,Chelsea,10314
Salvatore Eretto Auditorium,Theater,40.568195,-74.11582,New Dorp,10306
Cue Time Billiards,Pool Hall,40.571704,-74.111659,New Dorp,10306
Magic Moon Sisters,Psychics and Astrologers,40.572579,-74.115003,New Dorp Beach,10306
Night Gallery Dail Tone,Art Gallery,40.57378,-74.116315,New Dorp,10306
Psychic Advisor by Silvia,Psychics and Astrologers,40.576388,-74.119297,Grant City,10306
Illusions,Night Club,40.550296,-74.150828,Great Kills,10308
SMB Studio Arts,Art Gallery,40.546372,-74.165667,Annadale,10312
AR Workshop Staten Island,Art Gallery,40.542226,-74.206679,,10309
Hiker Monument,Public Art,40.637492,-74.076368,Richmond,10301
Sundog Theatre,Music Venue,40.640577,-74.077802,Brighton Heights,10301
Stage One,Performing Arts Venue,40.617636,-74.096635,Port Johnson,10301
Sri Lankan Art & Cultural Museum,Art Museum,40.620167,-74.10089,Port Johnson,10304
Wagner College Stadium,Music Venue,40.615447,-74.094018,Fox Hills,10301
Wagner College Theatre Scene Shop,Music Venue,40.614907,-74.094083,Fox Hills,10301
Wagner College Stadium,Music Venue,40.615447,-74.094018,Fox Hills,10301
Kings Theatre,Concert Hall,40.645914,-73.957645,Flatbush,11226
Kingsthe Atremasterten,Music Venue,40.645967,-73.95769,Flatbush,11226
Loew's Kings Theater,Music Venue,40.645868,-73.957338,Flatbush,11226
Old Boys High Field,Stadium,40.660919,-73.935888,Wingate,11203
Astro Rajbhairav,Psychics and Astrologers,40.653437,-73.930214,East Flatbush,11203
Seetha Ram,Psychics and Astrologers,40.653437,-73.930214,East Flatbush,11203
Revelation Perform,Music Venue,40.652268,-73.923501,Rugby,11203
Bernies Fun House,Carnival,40.608615,-74.074442,Park Hill,10305
Westerleigh Folk Music & Art Festival,Music Venue,40.618647,-74.13523,Westerleigh,10314
Conroy's Exclusive Taekwondo,Amusement Park,40.624487,-74.136393,Westerleigh,10302
S I Children's Theatre Association,Music Venue,40.633296,-74.16191,,10303
Crystal Room,Music Venue,40.593043,-74.070799,Arrochar,10305
Psychic Visions,Psychics and Astrologers,40.598419,-74.080816,,10305
Players Club Internet Sweepstakes Cafe,Casino,40.596575,-74.085094,,10305
Psychic Readings by Diane,Psychics and Astrologers,40.593009,-74.086823,,10305
Psychic Readings by Theresa,Psychics and Astrologers,40.592921,-74.086728,,10305
Psychic Readings By Diane,Arts and Entertainment,40.592926,-74.086554,,10305
Rab's County Lanes,Bowling Alley,40.58905,-74.092271,,10305
Visual Arts Masters,Arts and Entertainment,40.589309,-74.090715,,10305
Painting with a Twist,Arts and Entertainment,40.575431,-74.105489,Grant City,10306
Blue Point Art Studio,Arts and Entertainment,40.574527,-74.105127,Grant City,10306
Club 510,Night Club,40.5683,-74.106382,New Dorp Beach,10306
Inkllusionist,Arts and Entertainment,40.523737,-74.21532,Pleasant Plains,10309
Regal Bricktown Charleston,Movie Theater,40.530454,-74.230168,,10309
Unreal Escapes - Staten Island's Premiere Live Escape Room,Arts and Entertainment,40.552635,-74.218969,Rossville,10309
Krissy's Alley,Bowling Alley,40.553251,-74.173533,,10312
Little Victory Theatre,Music Venue,40.592299,-74.190021,Chelsea,10314
Psychic Readings By Rose,Psychics and Astrologers,40.594281,-74.186668,Chelsea,10314
Little Victory Theater,Music Venue,40.592346,-74.190241,Chelsea,10314
Miss Elvia Tattoo,Arts and Entertainment,40.592299,-74.190021,Chelsea,10314
Fly High Indoor Trampoline Park,Amusement Park,40.603045,-74.190924,Chelsea,10314
Chelsea Playground,Amusement Park,40.609314,-74.188366,,10314
Broffa Stadium,Stadium,40.611951,-74.156595,,10314
College Of Staten Island Outdoor Sports Complex,Stadium,40.6082,-74.157785,,10314
Psychic Life Readings By Mrs. Martin- Manhattan/Union County,Psychics and Astrologers,40.607347,-74.163106,,10314
92nd Street Y,Concert Hall,40.782864,-73.95284,Carnegie Hill,10128
Ballet Academy East,Music Venue,40.78292,-73.950744,Carnegie Hill,10128
Kaufmann Concert Hall,Concert Hall,40.782974,-73.952757,Carnegie Hill,10128
Cooper-Hewitt National Design Museum,Art Museum,40.784509,-73.95793,Carnegie Hill,10128
The Jewish Museum,Art Museum,40.785388,-73.957352,Carnegie Hill,10128
Buttenwieser Hall at the 92Y,Arts and Entertainment,40.782972,-73.952844,Carnegie Hill,10128
Solomon R Guggenheim Museum,Museum,40.783021,-73.959052,Carnegie Hill,10128
Biddy's Pub,Night Club,40.781073,-73.949143,Carnegie Hill,10128
Guggenheim Museum Store,Art Museum,40.782993,-73.959047,Carnegie Hill,10128
Salon 94,Art Gallery,40.786231,-73.956117,Carnegie Hill,10128
Thannhauser Gallery,Exhibit,40.782916,-73.958961,Carnegie Hill,10024
Alliance Art Glass,Art Gallery,40.780523,-73.95358,Carnegie Hill,10128
Dessoff Choirs,Music Venue,40.780963,-73.955302,Carnegie Hill,10128
Cavendish Bridge Club,Night Club,40.779821,-73.953597,Carnegie Hill,10128
Sheridan Fencing Academy,Arts and Entertainment,40.779821,-73.953597,Carnegie Hill,10128
The Chord Club powered by Billboard,Rock Club,40.78387,-73.949513,Carnegie Hill,10128
AMC Orpheum 7,Movie Theater,40.779378,-73.954017,Carnegie Hill,10028
Salon 94,Art Gallery,40.783311,-73.958398,Carnegie Hill,10128
The Samuel J. and Ethel LeFrak Gallery,Art Gallery,40.782916,-73.958961,Carnegie Hill,10128
Doris Salcedo,Art Museum,40.783184,-73.959015,Carnegie Hill,10128
92Y Concerts,Concert Hall,40.783029,-73.952715,Carnegie Hill,10128
Ypc Gallery,Art Gallery,40.783084,-73.952673,Carnegie Hill,10128
Woodruff Arts Center,Arts and Entertainment,40.783818,-73.953488,Carnegie Hill,10128
Roma Art Gallery & Custom Framing,Art Gallery,40.781972,-73.951888,Carnegie Hill,10128
The Cherry Lane Alternative,Arts and Entertainment,40.781691,-73.954324,Carnegie Hill,10128
Kennedy Galleries,Art Gallery,40.783888,-73.95489,Carnegie Hill,10128
Interharmony International Music Festival,Carnival,40.781162,-73.9519,Carnegie Hill,10128
J Alastair Duncan,Art Gallery,40.784239,-73.951887,Carnegie Hill,10128
Roy Bowen Theater,Theater,40.780555,-73.954412,Carnegie Hill,10128
American Art Fair,Arts and Entertainment,40.785106,-73.951746,Carnegie Hill,10128
William Doyle Galleries,Art Gallery,40.779972,-73.953996,Carnegie Hill,10128
"Saeki, Hiroke",Art Gallery,40.782807,-73.95699,Carnegie Hill,10128
China 2000 Fine Art New York,Art Gallery,40.779761,-73.953813,Carnegie Hill,10128
American Multi Cinema,Movie Theater,40.779378,-73.954017,Carnegie Hill,10028
My Path Astrology,Psychics and Astrologers,40.780806,-73.957131,Carnegie Hill,10028
Joyfly Club,Arts and Entertainment,40.782676,-73.957859,Carnegie Hill,10128
Legato Music Lessons,Jazz and Blues Venue,40.779559,-73.955335,Carnegie Hill,10028
Portraits,Art Gallery,40.784798,-73.957198,Carnegie Hill,10128
Shop Cooper Hewitt,Museum,40.784348,-73.95788,Carnegie Hill,10128
Valerie Goodman Gallery,Art Gallery,40.780872,-73.948611,Carnegie Hill,10128
Smithsonian Institution,Art Museum,40.784509,-73.95793,Carnegie Hill,10128
Natl Acadmy School of Fine Arts,Museum,40.783361,-73.958454,Carnegie Hill,10128
Anchorage Opera Co.,Opera House,40.786713,-73.954212,Carnegie Hill,10128
Lynda Anderson Galleries New York,Art Gallery,40.779725,-73.957177,Carnegie Hill,10028
Amsterdam Billiards & Bar,Arts and Entertainment,40.778421,-73.953455,Carnegie Hills,10028
Rkk & G Museum & Cultural,Museum,40.787113,-73.953397,Carnegie Hill,10128
Bar Goto,Night Club,40.722842,-73.989731,Downtown,10002
Rockwood Music Hall,Concert Hall,40.722389,-73.988534,Downtown,10002
"Rockwood Music Hall Stages 1, 2",Rock Club,40.722267,-73.988578,Downtown,10002
Anthology Film Archives,Indie Movie Theater,40.724717,-73.990197,Downtown,10003
Mercury Lounge,Night Club,40.722113,-73.986777,Downtown,10002
Bonnie Vee,Night Club,40.722402,-73.992027,Chinatown,10002
Bowery Mural,Art Gallery,40.724481,-73.992938,Downtown,10012
New York Theatre Workshop,Music Venue,40.726586,-73.990026,Downtown,10003
Angel Orensanz Foundation,Art Gallery,40.721169,-73.98578,Chinatown,10002
Caveat,Comedy Club,40.720774,-73.984455,Chinatown,10002
Bitforms Gallery,Art Gallery,40.720187,-73.990194,Chinatown,10002
Dixon Place,Music Venue,40.720655,-73.992831,Chinatown,10002
Arlene's Grocery,Rock Club,40.721314,-73.988405,Chinatown,10002
New Museum,Art Museum,40.722321,-73.993028,Chinatown,10002
Connelly Theater,Concert Hall,40.723496,-73.983514,Alphabet City,10009
The Box,Night Club,40.72187,-73.992213,Chinatown,10002
Pianos,Rock Club,40.721065,-73.987653,Chinatown,10002
Club Cumming,Arts and Entertainment,40.725438,-73.983503,Alphabet City,10009
Duane Park,Jazz and Blues Venue,40.724977,-73.992565,Downtown,10012
Short Stories,Arts and Entertainment,40.726624,-73.991494,Downtown,10003
Boiler Room,Night Club,40.725981,-73.98933,Downtown,10003
Sour Mouse,Pool Hall,40.718886,-73.98844,Chinatown,10002
Drom,Jazz and Blues Venue,40.725307,-73.98437,Alphabet City,10009
The Bowery Electric,Music Venue,40.725755,-73.991722,Downtown,10003
205 Club,Music Venue,40.722297,-73.991936,Chinatown,10002
Special Special,Art Gallery,40.72403,-73.98969,Downtown,10003
The Trops,Art Gallery,40.724024,-73.990709,Downtown,10003
Sommwhere,Art Gallery,40.721906,-73.990436,Chinatown,10002
SB Design & Marketing,Art Gallery,40.725547,-73.987436,Downtown,10003
Glory,Night Club,40.722417,-73.985523,Alphabet City,10002
Pianos - Showroom,Music Venue,40.721012,-73.987607,Chinatown,10002
Van Der Plas Gallery,Art Gallery,40.720931,-73.988608,Chinatown,10002
Chapter NY,Art Gallery,40.721614,-73.985274,Downtown,10002
Zito Gallery,Art Gallery,40.721662,-73.985494,Downtown,10002
Bureau,Art Gallery,40.721287,-73.985703,Downtown,10002
An Evening on the Bowery,Performing Arts Venue,40.726033,-73.991428,Downtown,10003
The Main Event,Art Gallery,40.722963,-73.982986,Alphabet City,10009
Space 776,Art Gallery,40.720062,-73.98482,Chinatown,10002
Kenkeleba House Garden,Art Gallery,40.722059,-73.982803,Alphabet City,10009
Hunk-O-Mania,Night Club,40.722664,-73.986362,Alphabet City,10009
Cloisters The Museum,Museum,40.722558,-73.986271,Alphabet City,10009
Pair Wine Tours,Music Venue,40.722261,-73.985299,Alphabet City,10002
Marina Reiter,Arts and Entertainment,40.723165,-73.983763,Alphabet City,10009
Psychic Reader & Advisor Lisa,Psychics and Astrologers,40.719686,-73.988777,Chinatown,10002
Mannahatta,Arts and Entertainment,40.725085,-73.992569,Downtown,10012
Van Doren Waxter Gallery,Arts and Entertainment,40.721301,-73.992857,Chinatown,10002
The Present Theatre Company,Theater,40.724961,-73.983178,Alphabet City,10009
Ghostbusters Headquarters,Arts and Entertainment,40.719579,-74.006626,Civic Center,10013
Postmasters Gallery,Art Gallery,40.717205,-74.002691,Chinatown,10013
Apexart,Art Gallery,40.718989,-74.004508,Civic Center,10013
Tribeca Rock Club,Rock Club,40.71427,-74.007463,Battery Park City,10007
Shake Rattle & Roll Dueling Pianos,Comedy Club,40.71421,-74.007679,Battery Park City,10007
Salomon Arts Gallery,Art Gallery,40.717363,-74.004792,Civic Center,10013
Art Continuum Experience,Art Gallery,40.717415,-74.00406,Chinatown,10013
Tunney Art Gallery,Art Gallery,40.717536,-74.004406,Chinatown,10013
Feet 1st Studios,Arts and Entertainment,40.717032,-74.003077,Chinatown,10013
Kapp Kapp,Art Gallery,40.717415,-74.002874,Chinatown,10013
Theodore:Art,Art Gallery,40.717767,-74.003518,Chinatown,10013
Twenty First Gallery,Art Gallery,40.718019,-74.004469,Civic Center,10013
Jtt,Art Gallery,40.717725,-74.003325,Chinatown,10013
PaintNite NYC at Woodrow's,Arts and Entertainment,40.714012,-74.009024,Battery Park City,10007
Nicelle Beauchene Gallery,Art Gallery,40.718018,-74.003809,Chinatown,10013
Lubov,Art Gallery,40.717938,-74.003506,Chinatown,10013
A+ E Studios,Art Gallery,40.717603,-74.007857,Civic Center,10013
Room For Tea,Art Gallery,40.717739,-74.002887,Chinatown,10013
Benjamin Franklin Statue,Public Art,40.711773,-74.006099,Chinatown,10038
Manhattan Children's Theatre,Theater,40.718019,-74.002505,Chinatown,10013
Spi International,Movie Theater,40.718354,-74.004046,Chinatown,10013
N.C.R. DVD Video,Arts and Entertainment,40.71309,-74.009206,Battery Park City,10038
R & Co.,Art Gallery,40.718483,-74.003265,Chinatown,10013
Deli Gallery,Art Gallery,40.718763,-74.004371,Civic Center,10013
Artists Space,Art Gallery,40.71787,-74.002019,Chinatown,10013
The Hole 86 Walker Street,Art Gallery,40.718507,-74.002156,Chinatown,10013
Casa de la Salsa,Night Club,40.717575,-74.00096,Chinatown,10013
Independent Curators International,Art Gallery,40.71873,-74.00214,Chinatown,10003
Masters & Pelavin,Art Gallery,40.718202,-74.009627,Civic Center,10013
Intrepid Museum,Museum,40.716451,-74.004625,Chinatown,10013
Tribeca Comedy Lounge,Comedy Club,40.714208,-74.007766,Battery Park City,10007
The Dinner Detective,Theater,40.714313,-74.007858,Battery Park City,10007
Theatre Museum,Museum,40.717095,-74.006702,City Hall Area,10013
Party With Marty & Iris,Arts and Entertainment,40.717371,-74.006495,City Hall Area,10013
Front Art Space,Art Gallery,40.715051,-74.008498,Battery Park City,10007
Gallery Sixty Nine,Arts and Entertainment,40.71767,-74.005416,Civic Center,10013
Postermuseum.Com,Museum,40.715139,-74.008787,Battery Park City,10007
Tom Shannon,Art Gallery,40.714012,-74.009024,Battery Park City,10007
Museum,Art Museum,40.717523,-74.002878,Chinatown,10013
Rosie O'Grady's Pub,Night Club,40.714076,-74.009077,Battery Park City,10007
James Perkins Studio,Arts and Entertainment,40.717832,-74.003414,Chinatown,10013
La Monte Young and Marian Zazeela: Dream House,Art Gallery,40.718496,-74.004794,Civic Center,10013
Vintage,Arts and Entertainment,40.717614,-74.001529,Chinatown,10013
Andrew Kreps Gallery,Art Gallery,40.718781,-74.003385,Chinatown,10013
Mind Sound Youth Art Camp,Arts and Entertainment,40.713287,-74.009912,Battery Park City,10007
Diamond Girls Escort,Strip Club,40.718402,-74.002302,Chinatown,10001
Law Department,Arcade,40.713126,-74.009862,Battery Park City,10007
Gio-Art Productions,Arts and Entertainment,40.711977,-74.008507,City Hall,10007
Fine Things Packages,Ticket Seller,40.718748,-74.002576,Chinatown,10013
Carriage Trade,Art Gallery,40.718876,-74.002713,Chinatown,10013
Hutaoli Music Restaurant & Bar,Music Venue,40.74848,-73.987244,Flatiron,10001
Second Floor,Music Venue,40.747109,-73.990072,Chelsea,10001
Swingers Crazy Golf,Mini Golf Course,40.746254,-73.988761,Flatiron,10001
The Jazz Gallery,Arts and Entertainment,40.744659,-73.98865,Flatiron,10001
The PIT Loft,Comedy Club,40.747596,-73.992013,Chelsea,10001
Vr World NYC,Amusement Park,40.748031,-73.983907,East Side,10016
The Actors Green Room,Concert Hall,40.745165,-73.988118,Flatiron,10001
Rick's Cabaret,Night Club,40.748588,-73.987248,Flatiron,10001
Cloud Social,Night Club,40.74728,-73.986306,Flatiron,10001
New York Knicks Wall Mural,Arts and Entertainment,40.750048,-73.991105,Chelsea,10121
Nieves Salsa,Salsa Club,40.747775,-73.98747,Flatiron,10001
Anytime Billiards,Pool Hall,40.747463,-73.990383,Chelsea,10001
The Disco Room,Night Club,40.748228,-73.986579,Flatiron,10001
Hook and Eye Theatre,Theater,40.748079,-73.992076,Chelsea,10001
Black City Media Studios,Music Venue,40.747124,-73.991514,Chelsea,10001
The Actors Green Room,Arts and Entertainment,40.750557,-73.986277,Garment District,10018
Pod Noise Studio,Music Venue,40.749641,-73.992181,Chelsea,10001
MCC,Theater,40.746566,-73.992191,Chelsea,10001
PBR- Bulls And BBQ,Arts and Entertainment,40.75043,-73.992955,Chelsea,10119
Bodega Studios,Arts and Entertainment,40.74618,-73.992482,Chelsea,10001
New York Nightclubs VIP,Night Club,40.744695,-73.987532,Flatiron,10001
Loft227,Arts and Entertainment,40.748617,-73.99415,Chelsea,10001
Cuban Arts Space,Art Gallery,40.748559,-73.994279,Chelsea,10001
Theatreworks USA,Music Venue,40.74573,-73.993163,Chelsea,10001
Clampart,Art Gallery,40.748765,-73.994636,Chelsea,10001
Fifth Ave Arcade,Amusement Park,40.745026,-73.987283,Flatiron,10001
Sound Off Music Studios,Music Venue,40.744895,-73.990116,Chelsea,10001
Psychic Boutique,Psychics and Astrologers,40.748145,-73.986422,Flatiron,10001
One of the Boys,Music Venue,40.750996,-73.987997,Garment District,10018
Room Escape Adventures,Escape Room,40.748178,-73.992429,Chelsea,10001
Cirque Du Soleil - Twas the Night Before,Music Venue,40.749696,-73.99214,Chelsea,10001
Sky Frame & Arts,Art Gallery,40.74705,-73.992254,Chelsea,10001
Society Of Unique Artists,Arts and Entertainment,40.745429,-73.988347,Flatiron,10001
Master Psychic,Psychics and Astrologers,40.748766,-73.984634,East Side,10001
Friends-The Univ-Hong Kong,Museum,40.74572,-73.986773,Flatiron,10001
Ubu Repertory Theater,Arts and Entertainment,40.745321,-73.988343,Flatiron,10001
LAC Management,Arts and Entertainment,40.750443,-73.984482,Flatiron,10018
Runway,Night Club,40.744741,-73.987839,Flatiron,10001
Identities Modeling Agency,Music Venue,40.744693,-73.987619,Flatiron,10001
1st Art Gallery,Art Gallery,40.744636,-73.987748,Flatiron,10001
Douglas Phillabaum,Arts and Entertainment,40.744475,-73.987698,Flatiron,10001
Art US,Carnival,40.748993,-73.994208,Chelsea,10001
Commission.NYC,Art Gallery,40.744788,-73.986094,Flatiron,10016
Gallery In Six,Art Gallery,40.744087,-73.988076,Flatiron,10001
Botanica Chango,Psychics and Astrologers,40.607233,-74.066023,Rosebank,10305
Museum of Maritime Navigation and Communication,Science Museum,40.6138,-74.066204,Rosebank,10305
Garibaldi-Meucci Museum,History Museum,40.615148,-74.073882,Park Hill,10305
Hall of Frames,Art Gallery,40.602982,-74.083268,Concord,10305
S I Children's Theatre Association,Concert Hall,40.635267,-74.103861,New Brighton,10301
Atomic Soda Studios,Art Gallery,40.626744,-74.142283,,10302
Shootin School Basketball,Arts and Entertainment,40.63082,-74.137841,Port Richmond,10302
Amour Event Venue,Music Venue,40.654691,-73.917491,Rugby,11212
Jerk Spot,Music Venue,40.654959,-73.917544,Rugby,11212
Brooklyn East Ny,Arts and Entertainment,40.663619,-73.889578,East New York,11207
Funfest Family Entertainment,Bowling Alley,40.612685,-73.912859,,11234
Jazz Club,Jazz and Blues Venue,40.612741,-73.918871,,11234
Aj Fine Arts,Art Gallery,40.615612,-73.918239,Georgetown,11234
"La Spina, Peter and John",Bowling Alley,40.613452,-73.912366,,11234
Primetime Sports & Arts,Arts and Entertainment,40.707717,-73.797669,Jamaica Hills,11432
Children's Library Discovery Center,Arts and Entertainment,40.707746,-73.794398,Jamaica Hills,11432
Love Supplies Botanica,Psychics and Astrologers,40.707211,-73.796343,Jamaica,11432
Bombay Theatre,Indie Movie Theater,40.733201,-73.794331,Utopia,11365
Slava Matatov Entertainment,Theater,40.733636,-73.796311,Utopia,11365
Big Cinemas Bombay New York,Arts and Entertainment,40.732884,-73.794058,Utopia,11365
XBowling,Bowling Alley,40.733239,-73.809786,Pomonok,11365
12 In A Row,Bowling Alley,40.73312,-73.810218,Pomonok,11365
Queens Artists,Arts and Entertainment,40.73244,-73.8098,Pomonok,11365
Astoria Bowl,Bowling Alley,40.773232,-73.894658,Astoria Heights,11105
David Zwirner Gallery,Art Gallery,40.773303,-73.894006,Astoria Heights,11370
Cobblestone Pub II,Arts and Entertainment,40.770642,-73.890542,Astoria Heights,11370
Concourse Plaza Multiplex Cinemass,Movie Theater,40.825278,-73.92114,Melrose,10451
Project VIP,Theater,40.842244,-73.914736,Concourse,10452
Ballers Night Club,Arts and Entertainment,40.841204,-73.917323,Concourse,10452
Beverly Hills Manor,Music Venue,40.846672,-73.912759,Mount Eden,10453
Martha Graham Center Of Contemporary Dance,Music Venue,40.843488,-73.918765,Highbridge,10452
170 Jerome,History Museum,40.841883,-73.91818,,10452
Patron NY,Night Club,40.841427,-73.917068,Concourse,10452
Equator Lounge,Arts and Entertainment,40.84049,-73.917777,Concourse,10452
"Rossie Minnie Alvarado, PT",Stadium,40.846024,-73.921255,Morris Heights,10452
Beverly Hills Manor,Music Venue,40.846672,-73.912759,Mount Eden,10453
Turn On To Love Club,Night Club,40.84821,-73.911766,Mount Eden,10453
Fred Dolan Art Academy,Art Gallery,40.851464,-73.911276,,10453
The Blasket,Music Venue,40.759647,-73.965314,East Side,10022
Sapphire New York Strip Club,Strip Club,40.760649,-73.962164,Lenox Hill,10022
Mount Vernon Hotel Museum & Garden,History Museum,40.760551,-73.959757,Lenox Hill,10065
"City Cinemas 1, 2 & 3",Movie Theater,40.761839,-73.966054,Lenox Hill,10022
Adonis Lounge,Night Club,40.760603,-73.965875,East Side,10022
Apf Master Framemakers,Art Gallery,40.761413,-73.965863,East Side,10022
Mary-Louise Bicket - Artist,Art Gallery,40.761867,-73.965007,Lenox Hill,10065
Ubu Gallery,Art Gallery,40.75916,-73.96132,Midtown,10022
The Korea Society,Art Gallery,40.760226,-73.96787,East Side,10022
East Side Club,Amusement Park,40.759384,-73.967051,East Side,10022
Art Assets,Art Gallery,40.75853,-73.960684,Midtown,10022
Movies 101,Movie Theater,40.76319,-73.961956,Lenox Hill,10065
Space 54,Music Venue,40.757744,-73.967861,Beekman,10022
The Inkwell,Night Club,40.757581,-73.967899,Beekman,10022
Cohen Media Group,Arts and Entertainment,40.762646,-73.968183,Lenox Hill,10022
Voltz Clarke Gallery,Art Gallery,40.764096,-73.966404,Lenox Hill,10065
Oj Art Gallery,Art Gallery,40.759309,-73.96849,East Side,10022
Royale Galleries,Arts and Entertainment,40.760024,-73.963319,East Side,10022
Jane Kahan Gallery,Art Gallery,40.759976,-73.963099,East Side,10022
Sapphire New York,Night Club,40.760702,-73.962333,Lenox Hill,10022
Sapphire Gentlemen's Club,Strip Club,40.760752,-73.962343,Lenox Hill,10022
Art Of Mastery,Art Gallery,40.759498,-73.964828,East Side,10022
Psychic New York Readings By Samantha,Psychics and Astrologers,40.760782,-73.965227,East Side,10022
The OJ Gallery,Art Gallery,40.759644,-73.965401,East Side,10022
Rafael Gallery,Art Gallery,40.761262,-73.965464,East Side,10022
Peaches Escort,Strip Club,40.759316,-73.961544,Midtown,10022
Mirshak Artists Management,Arts and Entertainment,40.762396,-73.963411,Lenox Hill,10065
Art of Leadership,Arts and Entertainment,40.759997,-73.966332,East Side,10022
Abigail Adams Smith Museum,Museum,40.760551,-73.959757,Lenox Hill,10065
H K Associates Artist,Music Venue,40.763435,-73.962883,Lenox Hill,10065
Club Play,Arts and Entertainment,40.758519,-73.967105,East Side,10022
Nancy Druckman Art,Art Gallery,40.757608,-73.960867,Midtown,10022
Baker Artists,Arts and Entertainment,40.760858,-73.968419,East Side,10022
Peter's Gallery of Art,Arts and Entertainment,40.761017,-73.968556,East Side,10022
Sussman Sales,Ticket Seller,40.757334,-73.967059,East Side,10022
New Age Producers Group,Circus,40.759333,-73.968972,East Side,10022
NYC Psychic Insights New York,Psychics and Astrologers,40.758849,-73.968909,East Side,10022
Readings By Psychic Serena,Psychics and Astrologers,40.756747,-73.966818,Beekman,10022
Rko Stage Productions,Music Venue,40.762586,-73.968399,East Side,10022
Dicapo Opera Theatre,Opera House,40.758046,-73.968659,Beekman,10021
Wooster Projects,Art Gallery,40.764297,-73.960951,Lenox Hill,10065
The Gutter,Bowling Alley,40.74652,-73.951791,Hunters Point,11101
LIC Bar,Music Venue,40.747141,-73.952775,Hunters Point,11101
Culture Lab,Performing Arts Venue,40.747509,-73.955148,Hunters Point,10036
Chocolate Factory Theater,Concert Hall,40.743647,-73.9543,Hunters Point,11101
New York Irish Center,Concert Hall,40.742114,-73.95315,Hunters Point,11101
Underpenny Plane And Cast Iron Museum,Museum,40.742804,-73.953569,Hunters Point,11101
Ten10 Studios,Art Gallery,40.744648,-73.953204,Hunters Point,11101
Playday,Arts and Entertainment,40.742381,-73.955256,Hunters Point,11101
Matted LIC,Art Gallery,40.745834,-73.953249,Hunters Point,11101
Deli Gallery,Art Gallery,40.747009,-73.951678,Hunters Point,10036
Kaikai Kiki New York,Art Gallery,40.746709,-73.954811,Hunters Point,11101
Eleventh Street Arts,Art Gallery,40.746337,-73.950561,Hunters Point,11101
First Person Xperience,Arts and Entertainment,40.739912,-73.952759,Hunters Point,11101
Gantry Loft,Music Venue,40.742242,-73.958439,Hunters Point,11101
Cinelease,Arts and Entertainment,40.740598,-73.957371,Hunters Point,11101
Plaxall Gallery,Art Gallery,40.747588,-73.954234,Hunters Point,11101
Irena Hochman Fine Art,Art Gallery,40.745449,-73.951487,Hunters Point,11101
Fifth Hammer Brewing,Arts and Entertainment,40.746412,-73.951787,Hunters Point,11101
The Gutter Bar LIC,Bowling Alley,40.746515,-73.951965,Hunters Point,11101
Neustadt Museum Of Tiffany Art,Museum,40.746994,-73.954255,Hunters Point,11101
Deli Gallery,Art Gallery,40.746426,-73.951263,Hunters Point,11101
Lewis Ross,Museum,40.747042,-73.954475,Hunters Point,11101
Japan Society,Art Museum,40.752498,-73.968313,Beekman,10017
Somm Time,Night Club,40.755516,-73.96843,Beekman,10022
Japan Society Film,Indie Movie Theater,40.752445,-73.968267,Beekman,10017
Making Books Sing,Music Venue,40.751561,-73.969019,Beekman,10017
Serindia Gallery,Art Gallery,40.752619,-73.971812,Beekman,10017
Agamemnon:Redux,Theater,40.753312,-73.972145,Beekman,10017
Psychic Readings by Donna,Psychics and Astrologers,40.751062,-73.971533,East Side,10017
Kobra Firefighter Mural On 49th,Public Art,40.755053,-73.971601,Beekman,10017
Bea,Performing Arts Venue,40.756161,-73.968543,Beekman,10022
Wwe,Music Venue,40.755103,-73.971734,Beekman,10017
Freerice,Arts and Entertainment,40.751367,-73.968225,Beekman,10017
Future Of Work,Public Art,40.753813,-73.969543,Beekman,10017
Ny Love Psychic Zendaya,Psychics and Astrologers,40.753715,-73.965172,Beekman,10022
Stageplays Theatre Co.,Music Venue,40.754097,-73.97104,Beekman,10017
Psychic Studio,Psychics and Astrologers,40.753489,-73.971584,Beekman,10017
Lauren Stanley Decorative-Fine,Arts and Entertainment,40.755312,-73.967985,Beekman,10022
Vallarino Fine Art,Art Gallery,40.754637,-73.970443,Beekman,10017
Nessa,Music Venue,40.755533,-73.967819,Beekman,10022
Psychic Readings By Sharon,Psychics and Astrologers,40.752589,-73.972371,Beekman,10017
Midtown Psychic,Psychics and Astrologers,40.755562,-73.968738,Beekman,10022
Summit of Manhattan,Public Art,40.751305,-73.972547,East Side,10017
Munroe Design Group,Art Gallery,40.752265,-73.972934,East Side,10017
Common Sense Products,Music Venue,40.755053,-73.971601,Beekman,10017
Wang Building Murals New York,Public Art,40.755103,-73.971734,Beekman,10017
Big Apple Events,Amusement Park,40.752467,-73.973466,East Side,10017
Psychic Readings by Donna,Psychics and Astrologers,40.751062,-73.971533,East Side,10017
Draper's Capers Media Theatre,Theater,40.750134,-73.973943,East Side,10017
Romanian Cultural Institute,History Museum,40.747922,-73.975953,East Side,10016
Dalmatian and Taxi Sculpture,Public Art,40.743364,-73.972893,East Side,10016
Spot The Dog,Public Art,40.743146,-73.972972,East Side,10016
Pix11,Arts and Entertainment,40.750249,-73.973685,East Side,10017
chashama Gallery,Art Gallery,40.750393,-73.974346,East Side,10017
William Xavier,Art Gallery,40.748166,-73.970896,East Side,10017
Lion Heart Autographs,Art Gallery,40.746668,-73.972907,East Side,10016
Farago Art,Art Gallery,40.748832,-73.972189,East Side,10017
The Heliport at 34th Street,Concert Hall,40.743589,-73.972553,East Side,10016
Om from India,Art Gallery,40.745637,-73.97665,East Side,10016
Anita Grien Rep Artists,Museum,40.748554,-73.976502,East Side,10016
Red Fern Theatre Co.,Music Venue,40.748169,-73.976793,East Side,10016
The Theater at the 14th Street Y,Indie Theater,40.729167,-73.979239,Alphabet City,10003
Gil Scott-Heron Mural,Public Art,40.727396,-73.9769,Alphabet City,10009
Banana Split Entertainment,Pool Hall,40.730136,-73.974973,East Village,10009
Ken Gross Orchestras,Music Venue,40.733826,-73.976495,Midtown,10010
African American Jazz Caucus,Museum,40.731504,-73.978588,Midtown,10009
Mercy Sound Recording Studios NYC,Arts and Entertainment,40.729095,-73.977926,Alphabet City,10009
Yoav Brener,Art Gallery,40.730743,-73.97882,Midtown,10009
DJ Lessons & Music Healing,Arts and Entertainment,40.729023,-73.978578,Alphabet City,10009
Fotografiska,Arts and Entertainment,40.739215,-73.986706,Chelsea,10010
National Arts Club,Art Gallery,40.737708,-73.986559,Downtown,10003
Center for Jewish History,History Museum,40.737895,-73.993597,Chelsea,10011
The Players,Music Venue,40.737708,-73.986559,Downtown,10003
Society Billiards + Bar,Pool Hall,40.73988,-73.99005,Chelsea,10010
Irish Repertory Theatre,Music Venue,40.742617,-73.994569,Chelsea,10011
Gibney Dance,Arts and Entertainment,40.738538,-73.989779,Chelsea,10003
American Ballet Theatre,Concert Hall,40.738759,-73.989613,Chelsea,10003
Gramercy Theatre,Music Venue,40.739906,-73.985073,Flatiron,10010
The FRIENDS Experience,Exhibit,40.739468,-73.985318,Chelsea,10010
SeatGeek,Ticket Seller,40.739245,-73.989589,Chelsea,10010
Parabolic,Performing Arts Venue,40.740585,-73.991912,Chelsea,10010
The Actor's Company Theatre,Concert Hall,40.738974,-73.989622,Chelsea,10003
Westbeth Entertainment,Music Venue,40.741063,-73.990184,Chelsea,10010
Limebeat Productions,Arts and Entertainment,40.741499,-73.990027,Chelsea,10010
Center Stage,Arts and Entertainment,40.740987,-73.992976,Chelsea,10010
4 Kids Productions,Museum,40.742436,-73.991286,Chelsea,10010
Duracell Powermat Power House,Arts and Entertainment,40.743022,-73.989563,Chelsea,10010
Marquis de Lafayette Statue,Public Art,40.735722,-73.990193,Downtown,10003
Manhattan Penthouse on Fifth Avenue,Music Venue,40.735946,-73.99387,Downtown,10011
Broadway Billiard Cafe,Bowling Alley,40.73988,-73.99005,Chelsea,10010
Paradise Escorts,Strip Club,40.73975,-73.988866,Chelsea,10010
Spiegelworld,Theater,40.741298,-73.99146,Chelsea,10010
Latin Mondays at TAJ,Concert Hall,40.741047,-73.99276,Chelsea,10010
Aura & Chakra Cleansing Boutique,Psychics and Astrologers,40.739168,-73.98845,Chelsea,10010
Hunkamania Male Strippers NYC,Night Club,40.741426,-73.992731,Chelsea,10010
Comedy Spillage,Comedy Club,40.741143,-73.993201,Chelsea,10010
Studio XXI,Night Club,40.741469,-73.993126,Chelsea,10010
The Limelight,Night Club,40.741127,-73.993811,Chelsea,10010
Bernice Kramer Sokol Artist,Arts and Entertainment,40.736951,-73.990634,Downtown,10003
Ara Lounge,Arts and Entertainment,40.736781,-73.990933,Downtown,10003
Bowlmor Times Square,Bowling Alley,40.736849,-73.988403,Downtown,10003
Art Capital Group,Art Gallery,40.743017,-73.989737,Chelsea,10010
Actor Fest NYC,Arts and Entertainment,40.740643,-73.995714,Chelsea,10011
Julie Strong - Creative Theta,Psychics and Astrologers,40.74346,-73.989318,Chelsea,10010
iEvents.com,Ticket Seller,40.735695,-73.989187,Downtown,10003
Spirit Radical,Psychics and Astrologers,40.743678,-73.989239,Flatiron,10010
Scott Pask Design,Music Venue,40.735466,-73.991667,Downtown,10003
Julie Saul Projects,Art Gallery,40.743733,-73.989197,Flatiron,10010
Echowave,Arts and Entertainment,40.740067,-73.985123,Flatiron,10010
The Village Sound,Music Venue,40.738498,-73.98528,East Village,10010
PJ Horgan's,Arts and Entertainment,40.746093,-73.91509,Dutch Kills,11377
Sanger Hall,Music Venue,40.746134,-73.915572,Dutch Kills,11104
The Globe Tavern,Pool Hall,40.746045,-73.91487,Dutch Kills,11377
Spin City,Pool Hall,40.744155,-73.914929,Dutch Kills,11377
Skillman Ave,Arts and Entertainment,40.748824,-73.919953,Dutch Kills,11104
Michelle's Internet Cafe,Internet Cafe,40.741471,-73.917878,Dutch Kills,11377
Unity Stage,Arts and Entertainment,40.746517,-73.919473,Dutch Kills,11104
Tequila Y Mezcal Night Club,Night Club,40.747526,-73.918026,Dutch Kills,11104
SunnysideArtists,Arts and Entertainment,40.742904,-73.91938,Dutch Kills,11104
Art Deco Unique,Arts and Entertainment,40.746951,-73.92342,Dutch Kills,11104
Silvercup East,Movie Theater,40.737177,-73.93517,Blissville,11101
Christie's Redstone,Art Gallery,40.741475,-73.932601,Dutch Kills,11101
Academic,Art Gallery,40.741001,-73.930138,Dutch Kills,11101
Maquette Fine Art Service,Art Gallery,40.740461,-73.932169,Dutch Kills,11101
Qbo Media & Studios,Arts and Entertainment,40.740502,-73.934704,Dutch Kills,11101
Bargemusic,Concert Hall,40.703131,-73.994673,Brooklyn Heights,11201
Jane's Carousel,Amusement Park,40.703159,-73.991663,Brooklyn Heights,11201
Smack Mellon,Art Gallery,40.703749,-73.989767,Brooklyn Heights,11201
Brooklyn Historical Society DUMBO,History Museum,40.70364,-73.991813,Brooklyn Heights,11201
Minus Space,Art Gallery,40.703391,-73.991062,Brooklyn Heights,11201
Natchie,Art Gallery,40.703587,-73.991767,Brooklyn Heights,11201
Old Tobacco Warehouse,Arts and Entertainment,40.703515,-73.992894,Brooklyn Heights,11201
Bac Gallery,Art Gallery,40.702688,-73.993128,Brooklyn Heights,11201
Metropolitan Opera in the Park,Arts and Entertainment,40.70187,-73.997416,Brooklyn Heights,11201
Brooklyn Arts Council,Art Gallery,40.702441,-73.99229,Brooklyn Heights,11201
Klompching Gallery,Art Gallery,40.703499,-73.991066,Brooklyn Heights,11201
Stable Building Galleries,Art Gallery,40.703391,-73.991062,Brooklyn Heights,11201
Land Gallery,Art Gallery,40.702689,-73.991078,Brooklyn Heights,11201
Brooklyn Magazine,Arts and Entertainment,40.702763,-73.990339,Brooklyn Heights,11201
Dumbo Arts Center,Art Gallery,40.703534,-73.989758,Brooklyn Heights,11201
Cbfreeman Studio,Art Gallery,40.702348,-73.993726,Brooklyn Heights,11201
Adhesive Theater Project CNTCT,Theater,40.703712,-73.993125,Brooklyn Heights,11201
Tobacco Warehouse,Arts and Entertainment,40.703609,-73.992946,Brooklyn Heights,11201
Hell House,Music Venue,40.703149,-73.992012,Brooklyn Heights,11201
"Janes Carousel, Brooklyn Bridge Park",Amusement Park,40.704229,-73.991887,Brooklyn Heights,11201
Bric Arts Media Bklyn,Art Gallery,40.702814,-73.990472,Brooklyn Heights,11201
Beat The Bomb,Escape Room,40.703209,-73.983855,Fulton Ferry,11201
Vrbar,Arcade,40.702762,-73.986412,Dumbo,11201
St Ann's Warehouse,Music Venue,40.704007,-73.986242,Dumbo,11201
GK ArtsCenter,Performing Arts Venue,40.703952,-73.986284,Dumbo,11201
Jen Lewin Studio,Art Gallery,40.702784,-73.981613,Fulton Ferry,11201
Gallery Gaia,Art Gallery,40.702369,-73.980986,Fulton Ferry,11201
New York Endowment For The Arts,Arts and Entertainment,40.704684,-73.98112,Fulton Ferry,11201
Hello Again Brooklyn,Art Gallery,40.702718,-73.984054,Dumbo,11201
Rorschach,Exhibit,40.703377,-73.985607,Dumbo,11201
White Circle Foundation DUMBO,Art Gallery,40.704117,-73.986159,Dumbo,11201
Music-Theatre Group,Music Venue,40.704263,-73.986732,Dumbo,11201
Jay Street Arts Building,Art Gallery,40.703411,-73.98635,Dumbo,11201
Triangle Arts Association Limited,Art Gallery,40.704098,-73.986857,Dumbo,11201
Colt Coeur Theater Company,Theater,40.704318,-73.986691,Dumbo,11201
Film At 11,Arts and Entertainment,40.702803,-73.986893,Dumbo,10013
Saltlands,Performing Arts Venue,40.702532,-73.986926,Dumbo,11201
81 Creative Studio and Gallery,Art Gallery,40.703935,-73.986894,Dumbo,11201
Cuban Art Space,Art Gallery,40.704157,-73.986872,Dumbo,10013
Art in General,Art Gallery,40.703933,-73.986981,Dumbo,11201
Midnight Radio Show,Music Venue,40.702803,-73.980915,Fulton Ferry,11201
Asian American Arts Alliance,Arts and Entertainment,40.704088,-73.986826,Dumbo,11201
Social Cues The Gallery,Concert Hall,40.702912,-73.984286,Dumbo,11201
"Duggal Greenhouse, Brooklyn Navy Yard",Music Venue,40.702406,-73.977627,New York Navy Yard,11205
Dumba,Arts and Entertainment,40.702925,-73.986374,Dumbo,11201
Esports Gaming Club,Internet Cafe,40.702762,-73.986412,Dumbo,10013
Vinegar Hill House's Hillside Cafe at St Ann's Warehouse,Music Venue,40.704002,-73.986417,Dumbo,11201
Croninger Cara,Arts and Entertainment,40.702642,-73.986843,Dumbo,11201
DUMBO Arts Festival,Art Gallery,40.704153,-73.986815,Dumbo,11201
Historical Sculptors,Arts and Entertainment,40.702803,-73.986893,Dumbo,11201
Triangle NYC,Art Gallery,40.704098,-73.986857,Dumbo,11201
Mike Quill Productions,Arts and Entertainment,40.704098,-73.986857,Dumbo,11201
Girl Be Heard,Music Venue,40.704098,-73.986857,Dumbo,11201
Anne Gilman,Arts and Entertainment,40.702693,-73.986976,Dumbo,11201
Weeksville Heritage Center,History Museum,40.67421,-73.925291,Weeksville,11213
BGHS Field,Stadium,40.678195,-73.931503,Crown Heights,11213
New Heights Like Page,Night Club,40.674539,-73.933152,Crown Heights,11213
"Top & Best Indian Astrologer in Newyork, Black Magic Removal",Psychics and Astrologers,40.67218,-73.930664,Weeksville,11213
"Top & Best Indian Astrologer In New York, Black Magic Removal Specialist USA",Psychics and Astrologers,40.67218,-73.930664,Weeksville,11213
Historic Hunterfly Road Houses,Museum,40.674619,-73.926091,Weeksville,11213
Mad World,Night Club,40.675095,-73.901996,Ocean Hill,11207
Red Eye Village,Night Club,40.675121,-73.901037,Ocean Hill,11207
Bi Polar Bar & Lounge,Night Club,40.675393,-73.898867,Broadway Junction,11207
Smack Mellon,Art Gallery,40.703749,-73.989767,Brooklyn Heights,11201
Jane's Carousel,Amusement Park,40.703159,-73.991663,Brooklyn Heights,11201
St Ann's Warehouse,Music Venue,40.704007,-73.986242,Dumbo,11201
Vrbar,Arcade,40.702762,-73.986412,Dumbo,11201
Beat The Bomb,Escape Room,40.703209,-73.983855,Fulton Ferry,11201
Brooklyn Historical Society DUMBO,History Museum,40.70364,-73.991813,Brooklyn Heights,11201
Minus Space,Art Gallery,40.703391,-73.991062,Brooklyn Heights,11201
GK ArtsCenter,Performing Arts Venue,40.703952,-73.986284,Dumbo,11201
Brooklyn Bridge Park Environmental Education Center,Science Museum,40.704087,-73.989256,Downtown,11201
Natchie,Art Gallery,40.703587,-73.991767,Brooklyn Heights,11201
Malula Jewelry,Art Gallery,40.703385,-73.989272,Brooklyn Heights,11201
Brooklyn Arts Council,Art Gallery,40.702787,-73.989467,Brooklyn Heights,11201
Chic Studios NYC,Arts and Entertainment,40.702679,-73.989463,Brooklyn Heights,11201
Dumbo Arts Center,Art Gallery,40.703534,-73.989758,Brooklyn Heights,11201
Art in General,Art Gallery,40.703933,-73.986981,Dumbo,11201
Insideout Project,Art Gallery,40.70407,-73.987903,Dumbo,11201
A.I.R. Gallery,Art Gallery,40.702799,-73.989031,Brooklyn Heights,11201
A.I.R Gallery,Art Gallery,40.703873,-73.987197,Dumbo,11201
81 Creative Studio and Gallery,Art Gallery,40.703935,-73.986894,Dumbo,11201
Film At 11,Arts and Entertainment,40.702803,-73.986893,Dumbo,10013
Saltlands,Performing Arts Venue,40.702532,-73.986926,Dumbo,11201
Land Gallery,Art Gallery,40.702689,-73.991078,Brooklyn Heights,11201
Jay Street Arts Building,Art Gallery,40.703411,-73.98635,Dumbo,11201
Klompching Gallery,Art Gallery,40.703499,-73.991066,Brooklyn Heights,11201
Cuban Art Space,Art Gallery,40.704157,-73.986872,Dumbo,10013
Triangle Arts Association Limited,Art Gallery,40.704098,-73.986857,Dumbo,11201
10 Jay,Art Gallery,40.704637,-73.986878,Dumbo,11201
Colt Coeur Theater Company,Theater,40.704318,-73.986691,Dumbo,11201
Music-Theatre Group,Music Venue,40.704263,-73.986732,Dumbo,11201
White Circle Foundation DUMBO,Art Gallery,40.704117,-73.986159,Dumbo,11201
Rorschach,Exhibit,40.703377,-73.985607,Dumbo,11201
Shepard Fairey Mural,Public Art,40.700816,-73.986597,Downtown Brooklyn,11201
Brooklyn Arts Council,Art Gallery,40.702441,-73.99229,Brooklyn Heights,11201
Old Tobacco Warehouse,Arts and Entertainment,40.703515,-73.992894,Brooklyn Heights,11201
Hello Again Brooklyn,Art Gallery,40.702718,-73.984054,Dumbo,11201
Umbrage Editions,Art Gallery,40.702638,-73.988981,Brooklyn Heights,11201
Bernardo Siciliano,Arts and Entertainment,40.702787,-73.989467,Brooklyn Heights,11201
Marci Mac Guffle,Arts and Entertainment,40.702682,-73.989376,Brooklyn Heights,11201
Art Wise,Art Gallery,40.703957,-73.988073,Downtown Brooklyn,11201
ArtWise,Art Gallery,40.70401,-73.988119,Downtown,11201
Distill Creative,Arts and Entertainment,40.702791,-73.987329,Dumbo,11201
Neandra L. Gallery,Art Gallery,40.702633,-73.987192,Dumbo,11201
Bric Arts Media Bklyn,Art Gallery,40.702814,-73.990472,Brooklyn Heights,11201
Historical Sculptors,Arts and Entertainment,40.702803,-73.986893,Dumbo,11201
Dumbo Psychic Boutique by Natasha,Psychics and Astrologers,40.70253,-73.987013,Dumbo,11201
Psychic Readings by Tiffany,Psychics and Astrologers,40.70253,-73.987013,Dumbo,11201
Psychic Reader Advisor Brooklyn,Arts and Entertainment,40.70253,-73.987013,Dumbo,11201
BoomGen Studios,Arts and Entertainment,40.703983,-73.987114,Dumbo,11211
Mike Quill Productions,Arts and Entertainment,40.704098,-73.986857,Dumbo,11201
Girl Be Heard,Music Venue,40.704098,-73.986857,Dumbo,11201
MRG Fitness Studio,Arts and Entertainment,40.575557,-74.123919,,10306
Art Station,Art Gallery,40.598821,-73.958094,Gravesend,11229
Davidzon Radio,Arts and Entertainment,40.59572,-73.961283,Gravesend,11223
Bennett Sean,Psychics and Astrologers,40.713122,-73.878718,Glendale,11379
Jacques Marchais Museum of Tibetan Art,Art Museum,40.57634,-74.138054,Egbertville,10306
Intrepid Museum,History Museum,40.790377,-73.828771,Malba,11357
The Silver Spoon Hall,Movie Theater,40.679708,-73.894667,Broadway Junction,11207
Teleport City,Arts and Entertainment,40.607995,-73.953397,Gravesend,11229
Bronx Symphony Orchestra,Music Venue,40.855175,-73.862261,Van Nest,10462
Kittymeow Creations,Arts and Entertainment,40.855146,-73.865455,Bronxdale,10462
Latin Zone Management,Arts and Entertainment,40.854862,-73.866013,Bronxdale,10462
Graffiti Universe,Art Gallery,40.868998,-73.858388,Pelham Parkway,10469
Cafe Omar,Music Venue,40.643451,-73.949009,East Flatbush,11226
Underworld Studio,Music Venue,40.64433,-73.946384,East Flatbush,11226
Professor Karamo,Psychics and Astrologers,40.647025,-73.948361,East Flatbush,11226
Astro Sri Sai Shankar,Psychics and Astrologers,40.649375,-73.949149,East Flatbush,11226
Royal Oak Paradise & Goldjam International Cafe & Cuisine,Music Venue,40.643924,-73.951467,East Flatbush,11226
Best Astrologer Love Spell Psychic & Specialist In Black Magic,Psychics and Astrologers,40.650988,-73.949047,East Flatbush,11226
Psychic Spiritual Readings,Psychics and Astrologers,40.65099,-73.949211,East Flatbush,11226
Shaq Lotto Spot,Ticket Seller,40.651119,-73.948431,East Flatbush,11226
The DiMenna Center for Classical Music,Concert Hall,40.756087,-73.99724,Hell's Kitchen,10018
The Shed,Music Venue,40.753075,-74.002843,Chelsea,10001
Avant Gallery,Art Gallery,40.753743,-74.000118,Chelsea,10013
Sean Kelly Gallery,Art Gallery,40.756222,-73.99825,Hell's Kitchen,10018
SIR Stage37,Arts and Entertainment,40.756696,-73.998662,Hell's Kitchen,10018
The Green Room 42,Music Venue,40.759321,-73.995402,Hell's Kitchen,10036
Rosewood Theatre,Night Club,40.757856,-73.999669,Hell's Kitchen,10018
The Wrecking Club,Arts and Entertainment,40.754412,-73.995339,Chelsea,10018
Affirmation Arts,Art Gallery,40.757178,-73.998812,Hell's Kitchen,10018
The Alpha Experience NYC,Arts and Entertainment,40.755779,-73.998669,Hell's Kitchen,10018
Concerts Under The Stars,Music Venue,40.75585,-73.998546,Hell's Kitchen,10018
Parcelle,Music Venue,40.757577,-73.997998,Hell's Kitchen,10018
New Perspective Theater,Music Venue,40.756085,-73.997327,Hell's Kitchen,10018
Warnermedia Screening Room #1,Movie Theater,40.753765,-73.999914,Chelsea,10001
42West,Comedy Club,40.759774,-73.996599,Hell's Kitchen,10036
The McCourt,Theater,40.753133,-74.002715,Chelsea,10001
Signature Studio Theatre,Arts and Entertainment,40.759213,-73.995397,Hell's Kitchen,10036
Cmsvend*Green Fig,Theater,40.759268,-73.995356,Hell's Kitchen,10036
Rupauls Drag Con New York,Music Venue,40.75726,-74.001742,Hell's Kitchen,
Shore Club,Arts and Entertainment,40.756224,-73.998163,Hell's Kitchen,10018
Tranny Strip,Night Club,40.75775,-73.999577,Hell's Kitchen,10010
Marquee Concerts,Arts and Entertainment,40.755905,-73.997975,Hell's Kitchen,10001
Stage Light Magazine,Arts and Entertainment,40.755098,-73.9979,Hell's Kitchen,10001
Jacob K,Music Venue,40.756729,-74.003425,Chelsea,10001
42WESTny,Music Venue,40.759627,-73.996646,Hell's Kitchen,10036
Blackbox,Music Venue,40.759776,-73.996512,Hell's Kitchen,10036
H.K. Hells Kitchen,Music Venue,40.756817,-73.994211,Hell's Kitchen,10018
New Federal Theatre,Music Venue,40.760617,-73.997331,Hell's Kitchen,10036
Castillo Cultural Center,Music Venue,40.760567,-73.997198,Hell's Kitchen,10036
SummerStage - Queensbridge Park,Performing Arts Venue,40.755489,-73.949296,Long Island City,11101
Nas Mural Long Island City,Art Gallery,40.755226,-73.940943,Long Island City,
Uovo,Art Gallery,40.752703,-73.942507,Long Island City,11101
Giant Green Tower,Gaming Cafe,40.617497,-74.078509,Stapleton,10304
